adcode,formatted_address,cityname,province,city,district,lng,lat
110000,北京市,北京市,北京市,北京市,,116.407526,39.90403
110100,北京市市辖区,北京市市辖区,北京市,北京市,,116.407526,39.90403
110101,北京市东城区,东城区,北京市,北京市,东城区,116.416357,39.928353
110102,北京市西城区,西城区,北京市,北京市,西城区,116.365868,39.912289
110105,北京市朝阳区,朝阳区,北京市,北京市,朝阳区,116.601144,39.948574
110106,北京市丰台区,丰台区,北京市,北京市,丰台区,116.287149,39.858427
110107,北京市石景山区,石景山区,北京市,北京市,石景山区,116.222982,39.906611
110108,北京市海淀区,海淀区,北京市,北京市,海淀区,116.329519,39.972134
110109,北京市门头沟区,门头沟区,北京市,北京市,门头沟区,116.102009,39.940646
110111,北京市房山区,房山区,北京市,北京市,房山区,116.143267,39.749144
110112,北京市通州区,通州区,北京市,北京市,通州区,116.656435,39.909946
110113,北京市顺义区,顺义区,北京市,北京市,顺义区,116.654561,40.130347
110114,北京市昌平区,昌平区,北京市,北京市,昌平区,116.231204,40.22066
110115,北京市大兴区,大兴区,北京市,北京市,大兴区,116.341014,39.784747
110116,北京市怀柔区,怀柔区,北京市,北京市,怀柔区,116.642349,40.315704
110117,北京市平谷区,平谷区,北京市,北京市,平谷区,117.121383,40.140701
110118,北京市密云区,密云区,北京市,北京市,密云区,116.843177,40.376834
110119,北京市延庆区,延庆区,北京市,北京市,延庆区,115.974848,40.456951
120000,天津市,天津市,天津市,天津市,,117.200983,39.084158
120100,天津市市辖区,天津市市辖区,天津市,天津市,,117.200983,39.084158
120101,天津市和平区,和平区,天津市,天津市,和平区,117.208125,39.118897
120102,天津市河东区,河东区,天津市,天津市,河东区,117.251587,39.128291
120103,天津市河西区,河西区,天津市,天津市,河西区,117.223372,39.109563
120104,天津市南开区,南开区,天津市,天津市,南开区,117.150738,39.138203
120105,天津市河北区,河北区,天津市,天津市,河北区,117.196648,39.147869
120106,天津市红桥区,红桥区,天津市,天津市,红桥区,117.151533,39.167345
120110,天津市东丽区,东丽区,天津市,天津市,东丽区,117.314324,39.086569
120111,天津市西青区,西青区,天津市,天津市,西青区,117.013949,39.141591
120112,天津市津南区,津南区,天津市,天津市,津南区,117.391976,38.984526
120113,天津市北辰区,北辰区,天津市,天津市,北辰区,117.139343,39.217817
120114,天津市武清区,武清区,天津市,天津市,武清区,117.044388,39.384119
120115,天津市宝坻区,宝坻区,天津市,天津市,宝坻区,117.309863,39.717379
120116,天津市滨海新区,滨海新区,天津市,天津市,滨海新区,117.78067,39.246083
120117,天津市宁河区,宁河区,天津市,天津市,宁河区,117.826625,39.329858
120118,天津市静海区,静海区,天津市,天津市,静海区,116.97413,38.947512
120119,天津市蓟州区,蓟州区,天津市,天津市,蓟州区,117.408307,40.04606
130000,河北省,河北省,河北省,,,114.468664,38.037057
130100,河北省石家庄市,石家庄市,河北省,石家庄市,,114.514859,38.042306
130101,河北省石家庄市市辖区,石家庄市市辖区,河北省,石家庄市,,114.514859,38.042306
130102,河北省石家庄市长安区,长安区,河北省,石家庄市,长安区,114.53906,38.036654
130104,河北省石家庄市桥西区,桥西区,河北省,石家庄市,桥西区,114.461154,38.004043
130105,河北省石家庄市新华区,新华区,河北省,石家庄市,新华区,114.463347,38.05106
130107,河北省石家庄市井陉矿区,井陉矿区,河北省,石家庄市,井陉矿区,114.058178,38.069748
130108,河北省石家庄市裕华区,裕华区,河北省,石家庄市,裕华区,114.531362,38.006453
130109,河北省石家庄市藁城区,藁城区,河北省,石家庄市,藁城区,114.847075,38.021567
130110,河北省石家庄市鹿泉区,鹿泉区,河北省,石家庄市,鹿泉区,114.313724,38.085958
130111,河北省石家庄市栾城区,栾城区,河北省,石家庄市,栾城区,114.648318,37.9002
130121,河北省石家庄市井陉县,井陉县,河北省,石家庄市,井陉县,114.14524,38.032148
130123,河北省石家庄市正定县,正定县,河北省,石家庄市,正定县,114.570941,38.146445
130125,河北省石家庄市行唐县,行唐县,河北省,石家庄市,行唐县,114.552737,38.438411
130126,河北省石家庄市灵寿县,灵寿县,河北省,石家庄市,灵寿县,114.37614,38.30611
130127,河北省石家庄市高邑县,高邑县,河北省,石家庄市,高邑县,114.611433,37.615159
130128,河北省石家庄市深泽县,深泽县,河北省,石家庄市,深泽县,115.20091,38.184072
130129,河北省石家庄市赞皇县,赞皇县,河北省,石家庄市,赞皇县,114.386155,37.665576
130130,河北省石家庄市无极县,无极县,河北省,石家庄市,无极县,114.976337,38.179141
130131,河北省石家庄市平山县,平山县,河北省,石家庄市,平山县,114.199134,38.247144
130132,河北省石家庄市元氏县,元氏县,河北省,石家庄市,元氏县,114.52558,37.766651
130133,河北省石家庄市赵县,赵县,河北省,石家庄市,赵县,114.776187,37.756498
130181,河北省石家庄市辛集市,辛集市,河北省,石家庄市,辛集市,115.218057,37.943315
130183,河北省石家庄市晋州市,晋州市,河北省,石家庄市,晋州市,115.044185,38.033629
130184,河北省石家庄市新乐市,新乐市,河北省,石家庄市,新乐市,114.684014,38.343296
130200,河北省唐山市,唐山市,河北省,唐山市,,118.180193,39.630867
130201,河北省唐山市市辖区,唐山市市辖区,河北省,唐山市,,118.180193,39.630867
130202,河北省唐山市路南区,路南区,河北省,唐山市,路南区,118.154354,39.625059
130203,河北省唐山市路北区,路北区,河北省,唐山市,路北区,118.200692,39.624437
130204,河北省唐山市古冶区,古冶区,河北省,唐山市,古冶区,118.447635,39.733578
130205,河北省唐山市开平区,开平区,河北省,唐山市,开平区,118.261842,39.671001
130207,河北省唐山市丰南区,丰南区,河北省,唐山市,丰南区,118.085169,39.576031
130208,河北省唐山市丰润区,丰润区,河北省,唐山市,丰润区,118.162216,39.832582
130209,河北省唐山市曹妃甸区,曹妃甸区,河北省,唐山市,曹妃甸区,118.460379,39.27307
130223,河北省唐山市滦县滦州,滦州市,河北省,唐山市,滦县,118.689775,39.74038
130224,河北省唐山市滦南县,滦南县,河北省,唐山市,滦南县,118.682379,39.518997
130225,河北省唐山市乐亭县,乐亭县,河北省,唐山市,乐亭县,118.912571,39.425608
130227,河北省唐山市迁西县,迁西县,河北省,唐山市,迁西县,118.314715,40.1415
130229,河北省唐山市玉田县,玉田县,河北省,唐山市,玉田县,117.738658,39.900401
130281,河北省唐山市遵化市,遵化市,河北省,唐山市,遵化市,117.965892,40.189202
130283,河北省唐山市迁安市,迁安市,河北省,唐山市,迁安市,118.701144,39.999175
130300,河北省秦皇岛市,秦皇岛市,河北省,秦皇岛市,,119.600492,39.935385
130301,河北省秦皇岛市市辖区,秦皇岛市市辖区,河北省,秦皇岛市,,119.600492,39.935385
130302,河北省秦皇岛市海港区,海港区,河北省,秦皇岛市,海港区,119.564962,39.94756
130303,河北省秦皇岛市山海关区,山海关区,河北省,秦皇岛市,山海关区,119.775799,39.978849
130304,河北省秦皇岛市北戴河区,北戴河区,河北省,秦皇岛市,北戴河区,119.488914,39.834751
130306,河北省秦皇岛市抚宁区,抚宁区,河北省,秦皇岛市,抚宁区,119.235739,39.889241
130321,河北省秦皇岛市青龙满族自治县,青龙满族自治县,河北省,秦皇岛市,青龙满族自治县,118.949684,40.407578
130322,河北省秦皇岛市昌黎县,昌黎县,河北省,秦皇岛市,昌黎县,119.162694,39.712813
130324,河北省秦皇岛市卢龙县,卢龙县,河北省,秦皇岛市,卢龙县,118.892986,39.891947
130400,河北省邯郸市,邯郸市,河北省,邯郸市,,114.538961,36.625657
130401,河北省邯郸市市辖区,邯郸市市辖区,河北省,邯郸市,,114.538961,36.625657
130402,河北省邯郸市邯山区,邯山区,河北省,邯郸市,邯山区,114.490431,36.580358
130403,河北省邯郸市丛台区,丛台区,河北省,邯郸市,丛台区,114.492897,36.63641
130404,河北省邯郸市复兴区,复兴区,河北省,邯郸市,复兴区,114.462058,36.639022
130406,河北省邯郸市峰峰矿区,峰峰矿区,河北省,邯郸市,峰峰矿区,114.209936,36.420487
130407,河北省邯郸市肥乡区,肥乡区,河北省,邯郸市,肥乡区,114.800166,36.548132
130408,河北省邯郸市永年区,永年区,河北省,邯郸市,永年区,116.4602165,39.9075875
130423,河北省邯郸市临漳县,临漳县,河北省,邯郸市,临漳县,114.619544,36.3353
130424,河北省邯郸市成安县,成安县,河北省,邯郸市,成安县,114.670032,36.444407
130425,河北省邯郸市大名县,大名县,河北省,邯郸市,大名县,115.147814,36.285616
130426,河北省邯郸市涉县,涉县,河北省,邯郸市,涉县,113.691401,36.584995
130427,河北省邯郸市磁县,磁县,河北省,邯郸市,磁县,114.373947,36.374012
130430,河北省邯郸市邱县,邱县,河北省,邯郸市,邱县,115.186792,36.811133
130431,河北省邯郸市鸡泽县,鸡泽县,河北省,邯郸市,鸡泽县,114.878299,36.92035
130432,河北省邯郸市广平县,广平县,河北省,邯郸市,广平县,114.948607,36.483484
130433,河北省邯郸市馆陶县,馆陶县,河北省,邯郸市,馆陶县,115.282468,36.547557
130434,河北省邯郸市魏县,魏县,河北省,邯郸市,魏县,114.938976,36.359861
130435,河北省邯郸市曲周县,曲周县,河北省,邯郸市,曲周县,114.945131,36.78017
130481,河北省邯郸市武安市,武安市,河北省,邯郸市,武安市,114.203697,36.696506
130500,河北省邢台市,邢台市,河北省,邢台市,,114.504844,37.070589
130501,河北省邢台市市辖区,邢台市市辖区,河北省,邢台市,,114.504844,37.070589
130502,河北省邢台市桥东区,桥东区,河北省,邢台市,桥东区,114.492019,37.061614
130503,河北省邢台市桥西区,桥西区,河北省,邢台市,桥西区,114.468435,37.059882
130521,河北省邢台市桥东区,邢台县,河北省,邢台市,桥东区,114.507416,37.072954
130522,河北省邢台市临城县,临城县,河北省,邢台市,临城县,114.498762,37.444499
130523,河北省邢台市内丘县,内丘县,河北省,邢台市,内丘县,114.512128,37.286669
130524,河北省邢台市柏乡县,柏乡县,河北省,邢台市,柏乡县,114.693426,37.482423
130525,河北省邢台市隆尧县,隆尧县,河北省,邢台市,隆尧县,114.770419,37.350173
130526,河北省邢台市任县,任县,河北省,邢台市,任县,114.671936,37.120983
130527,河北省邢台市南和县,南和县,河北省,邢台市,南和县,114.683762,37.005041
130528,河北省邢台市宁晋县,宁晋县,河北省,邢台市,宁晋县,114.919301,37.619886
130529,河北省邢台市巨鹿县,巨鹿县,河北省,邢台市,巨鹿县,115.037478,37.221112
130530,河北省邢台市新河县,新河县,河北省,邢台市,新河县,115.242014,37.528712
130531,河北省邢台市广宗县,广宗县,河北省,邢台市,广宗县,115.142607,37.07466
130532,河北省邢台市平乡县,平乡县,河北省,邢台市,平乡县,115.030076,37.063148
130533,河北省邢台市威县,威县,河北省,邢台市,威县,115.266783,36.975321
130534,河北省邢台市清河县,清河县,河北省,邢台市,清河县,115.667576,37.040087
130535,河北省邢台市临西县,临西县,河北省,邢台市,临西县,115.501048,36.870813
130581,河北省邢台市南宫市,南宫市,河北省,邢台市,南宫市,115.408748,37.359264
130582,河北省邢台市沙河市,沙河市,河北省,邢台市,沙河市,114.503335,36.854922
130600,河北省保定市,保定市,河北省,保定市,,115.464806,38.873891
130601,河北省保定市市辖区,保定市市辖区,河北省,保定市,,115.464806,38.873891
130602,河北省保定市竞秀区,竞秀区,河北省,保定市,竞秀区,115.458669,38.877561
130606,河北省保定市莲池区,莲池区,河北省,保定市,莲池区,115.497342,38.883209
130607,河北省保定市满城区,满城区,河北省,保定市,满城区,115.322351,38.948955
130608,河北省保定市清苑区,清苑区,河北省,保定市,清苑区,115.489968,38.765041
130609,河北省保定市徐水区,徐水区,河北省,保定市,徐水区,115.62441,39.026233
130623,河北省保定市涞水县,涞水县,河北省,保定市,涞水县,115.713905,39.394317
130624,河北省保定市阜平县,阜平县,河北省,保定市,阜平县,114.195104,38.849152
130626,河北省保定市定兴县,定兴县,河北省,保定市,定兴县,115.808175,39.263018
130627,河北省保定市唐县,唐县,河北省,保定市,唐县,114.982972,38.748204
130628,河北省保定市高阳县,高阳县,河北省,保定市,高阳县,115.778965,38.700088
130629,河北省保定市容城县,容城县,河北省,保定市,容城县,115.861657,39.042784
130630,河北省保定市涞源县,涞源县,河北省,保定市,涞源县,114.694284,39.360247
130631,河北省保定市望都县,望都县,河北省,保定市,望都县,115.154511,38.695736
130632,河北省保定市安新县,安新县,河北省,保定市,安新县,115.935553,38.935364
130633,河北省保定市易县,易县,河北省,保定市,易县,115.497509,39.349398
130634,河北省保定市曲阳县,曲阳县,河北省,保定市,曲阳县,114.74497,38.622242
130635,河北省保定市蠡县,蠡县,河北省,保定市,蠡县,115.583855,38.488056
130636,河北省保定市顺平县,顺平县,河北省,保定市,顺平县,115.13547,38.837487
130637,河北省保定市博野县,博野县,河北省,保定市,博野县,115.46438,38.457364
130638,河北省保定市雄县,雄县,河北省,保定市,雄县,116.10865,38.99455
130681,河北省保定市涿州市,涿州市,河北省,保定市,涿州市,115.974422,39.485283
130682,河北省保定市定州市,定州市,河北省,保定市,定州市,114.990159,38.516174
130683,河北省保定市安国市,安国市,河北省,保定市,安国市,115.326647,38.41844
130684,河北省保定市高碑店市,高碑店市,河北省,保定市,高碑店市,115.873758,39.326521
130700,河北省张家口市,张家口市,河北省,张家口市,,114.887543,40.824418
130701,河北省张家口市市辖区,张家口市市辖区,河北省,张家口市,,114.887543,40.824418
130702,河北省张家口市桥东区,桥东区,河北省,张家口市,桥东区,114.894341,40.788457
130703,河北省张家口市桥西区,桥西区,河北省,张家口市,桥西区,114.869407,40.819564
130705,河北省张家口市宣化区,宣化区,河北省,张家口市,宣化区,115.09951,40.608726
130706,河北省张家口市下花园区,下花园区,河北省,张家口市,下花园区,115.287352,40.502652
130708,河北省张家口市万全区,万全区,河北省,张家口市,万全区,114.74056,40.766898
130709,河北省张家口市崇礼区,崇礼区,河北省,张家口市,崇礼区,115.282669,40.974676
130722,河北省张家口市张北县,张北县,河北省,张家口市,张北县,114.720086,41.158557
130723,河北省张家口市康保县,康保县,河北省,张家口市,康保县,114.600404,41.852368
130724,河北省张家口市沽源县,沽源县,河北省,张家口市,沽源县,115.688692,41.669668
130725,河北省张家口市尚义县,尚义县,河北省,张家口市,尚义县,113.969619,41.076227
130726,河北省张家口市蔚县,蔚县,河北省,张家口市,蔚县,114.588903,39.840843
130727,河北省张家口市阳原县,阳原县,河北省,张家口市,阳原县,114.150388,40.103742
130728,河北省张家口市怀安县,怀安县,河北省,张家口市,怀安县,114.385791,40.674193
130730,河北省张家口市怀来县,怀来县,河北省,张家口市,怀来县,115.517862,40.415343
130731,河北省张家口市涿鹿县,涿鹿县,河北省,张家口市,涿鹿县,115.205345,40.379563
130732,河北省张家口市赤城县,赤城县,河北省,张家口市,赤城县,115.831499,40.912921
130800,河北省承德市,承德市,河北省,承德市,,117.96241,40.954071
130801,河北省承德市市辖区,承德市市辖区,河北省,承德市,,117.96241,40.954071
130802,河北省承德市双桥区,双桥区,河北省,承德市,双桥区,117.943348,40.97465
130803,河北省承德市双滦区,双滦区,河北省,承德市,双滦区,117.799912,40.959196
130804,河北省承德市鹰手营子矿区,鹰手营子矿区,河北省,承德市,鹰手营子矿区,117.661156,40.546956
130821,河北省承德市承德县,承德县,河北省,承德市,承德县,118.173825,40.768238
130822,河北省承德市兴隆县,兴隆县,河北省,承德市,兴隆县,117.500558,40.417358
130824,河北省承德市滦平县,滦平县,河北省,承德市,滦平县,117.332801,40.941482
130825,河北省承德市隆化县,隆化县,河北省,承德市,隆化县,117.738938,41.313791
130826,河北省承德市丰宁满族自治县,丰宁满族自治县,河北省,承德市,丰宁满族自治县,116.645988,41.208949
130827,河北省承德市宽城满族自治县,宽城满族自治县,河北省,承德市,宽城满族自治县,118.485313,40.611391
130828,河北省承德市围场满族蒙古族自治县,围场满族蒙古族自治县,河北省,承德市,围场满族蒙古族自治县,117.760159,41.938529
130881,河北省承德市平泉市,平泉市,河北省,承德市,平泉市,114.5919465,36.0586155
130900,河北省沧州市,沧州市,河北省,沧州市,,116.838834,38.304477
130901,河北省沧州市市辖区,沧州市市辖区,河北省,沧州市,,116.838834,38.304477
130902,河北省沧州市新华区,新华区,河北省,沧州市,新华区,116.866284,38.314416
130903,河北省沧州市运河区,运河区,河北省,沧州市,运河区,116.832276,38.310143
130921,河北省沧州市沧县,沧县,河北省,沧州市,沧县,117.007478,38.219856
130922,河北省沧州市青县,青县,河北省,沧州市,青县,116.804306,38.583021
130923,河北省沧州市东光县,东光县,河北省,沧州市,东光县,116.537067,37.888248
130924,河北省沧州市海兴县,海兴县,河北省,沧州市,海兴县,117.496606,38.141582
130925,河北省沧州市盐山县,盐山县,河北省,沧州市,盐山县,117.230603,38.058088
130926,河北省沧州市肃宁县,肃宁县,河北省,沧州市,肃宁县,115.829758,38.422802
130927,河北省沧州市南皮县,南皮县,河北省,沧州市,南皮县,116.708104,38.038584
130928,河北省沧州市吴桥县,吴桥县,河北省,沧州市,吴桥县,116.391508,37.627661
130929,河北省沧州市献县,献县,河北省,沧州市,献县,116.122802,38.190144
130930,河北省沧州市孟村回族自治县,孟村回族自治县,河北省,沧州市,孟村回族自治县,117.104298,38.053409
130981,河北省沧州市泊头市,泊头市,河北省,沧州市,泊头市,116.578368,38.083437
130982,河北省沧州市任丘市,任丘市,河北省,沧州市,任丘市,116.082918,38.683592
130983,河北省沧州市黄骅市,黄骅市,河北省,沧州市,黄骅市,117.330048,38.371383
130984,河北省沧州市河间市,河间市,河北省,沧州市,河间市,116.099518,38.446624
131000,河北省廊坊市,廊坊市,河北省,廊坊市,,116.683752,39.538047
131001,河北省廊坊市市辖区,廊坊市市辖区,河北省,廊坊市,,116.683752,39.538047
131002,河北省廊坊市安次区,安次区,河北省,廊坊市,安次区,116.694544,39.502569
131003,河北省廊坊市广阳区,广阳区,河北省,廊坊市,广阳区,116.71069,39.522786
131022,河北省廊坊市固安县,固安县,河北省,廊坊市,固安县,116.298657,39.438214
131023,河北省廊坊市永清县,永清县,河北省,廊坊市,永清县,116.499028,39.321794
131024,河北省廊坊市香河县,香河县,河北省,廊坊市,香河县,117.006093,39.761424
131025,河北省廊坊市大城县,大城县,河北省,廊坊市,大城县,116.653794,38.705449
131026,河北省廊坊市文安县,文安县,河北省,廊坊市,文安县,116.457858,38.873281
131028,河北省廊坊市大厂回族自治县,大厂回族自治县,河北省,廊坊市,大厂回族自治县,116.989574,39.886547
131081,河北省廊坊市霸州市,霸州市,河北省,廊坊市,霸州市,116.391386,39.125898
131082,河北省廊坊市三河市,三河市,河北省,廊坊市,三河市,117.078295,39.982718
131100,河北省衡水市,衡水市,河北省,衡水市,,115.670177,37.73892
131101,河北省衡水市市辖区,衡水市市辖区,河北省,衡水市,,115.670177,37.73892
131102,河北省衡水市桃城区,桃城区,河北省,衡水市,桃城区,115.675422,37.735369
131103,河北省衡水市冀州区,冀州区,河北省,衡水市,冀州区,115.579334,37.550821
131121,河北省衡水市枣强县,枣强县,河北省,衡水市,枣强县,115.72426,37.513417
131122,河北省衡水市武邑县,武邑县,河北省,衡水市,武邑县,115.887655,37.801658
131123,河北省衡水市武强县,武强县,河北省,衡水市,武强县,115.982461,38.041368
131124,河北省衡水市饶阳县,饶阳县,河北省,衡水市,饶阳县,115.725833,38.235892
131125,河北省衡水市安平县,安平县,河北省,衡水市,安平县,115.519216,38.23451
131126,河北省衡水市故城县,故城县,河北省,衡水市,故城县,115.965874,37.34741
131127,河北省衡水市景县,景县,河北省,衡水市,景县,116.270648,37.69229
131128,河北省衡水市阜城县,阜城县,河北省,衡水市,阜城县,116.144418,37.868872
131182,河北省衡水市深州市,深州市,河北省,衡水市,深州市,115.559574,38.001536
140000,山西省,山西省,山西省,,,112.562398,37.873531
140100,山西省太原市,太原市,山西省,太原市,,112.548879,37.87059
140101,山西省太原市市辖区,太原市市辖区,山西省,太原市,,112.548879,37.87059
140105,山西省太原市小店区,小店区,山西省,太原市,小店区,112.564306,37.742941
140106,山西省太原市迎泽区,迎泽区,山西省,太原市,迎泽区,112.5634,37.863451
140107,山西省太原市杏花岭区,杏花岭区,山西省,太原市,杏花岭区,112.570605,37.893955
140108,山西省太原市尖草坪区,尖草坪区,山西省,太原市,尖草坪区,112.486691,37.940387
140109,山西省太原市万柏林区,万柏林区,山西省,太原市,万柏林区,112.515748,37.859447
140110,山西省太原市晋源区,晋源区,山西省,太原市,晋源区,112.47794,37.715193
140121,山西省太原市清徐县,清徐县,山西省,太原市,清徐县,112.358667,37.607443
140122,山西省太原市阳曲县,阳曲县,山西省,太原市,阳曲县,112.672953,38.058489
140123,山西省太原市娄烦县,娄烦县,山西省,太原市,娄烦县,111.797083,38.067932
140181,山西省太原市古交市,古交市,山西省,太原市,古交市,112.175875,37.907109
140200,山西省大同市,大同市,山西省,大同市,,113.300129,40.076762
140201,山西省大同市市辖区,大同市市辖区,山西省,大同市,,113.300129,40.076762
140213,山西省大同市平城区,平城区,山西省,大同市,平城区,113.2988855,40.075708
140214,山西省大同市南郊区云冈,云冈区,山西省,大同市,南郊区,113.130769,40.109395
140212,山西省大同市新荣区,新荣区,山西省,大同市,新荣区,113.140005,40.255866
140221,山西省大同市阳高县,阳高县,山西省,大同市,阳高县,113.748945,40.36106
140222,山西省大同市天镇县,天镇县,山西省,大同市,天镇县,114.090867,40.420237
140223,山西省大同市广灵县,广灵县,山西省,大同市,广灵县,114.274025,39.761749
140224,山西省大同市灵丘县,灵丘县,山西省,大同市,灵丘县,114.23435,39.442406
140225,山西省大同市浑源县,浑源县,山西省,大同市,浑源县,113.699475,39.693407
140226,山西省大同市左云县,左云县,山西省,大同市,左云县,112.703008,40.013442
140215,山西省大同市云州区,云州区,山西省,大同市,云州区,113.2988855,40.075708
140300,山西省阳泉市,阳泉市,山西省,阳泉市,,113.580519,37.856971
140301,山西省阳泉市市辖区,阳泉市市辖区,山西省,阳泉市,,113.580519,37.856971
140302,山西省阳泉市城区,城区,山西省,阳泉市,城区,113.60067,37.847437
140303,山西省阳泉市矿区,矿区,山西省,阳泉市,矿区,113.580519,37.856971
140311,山西省阳泉市郊区,郊区,山西省,阳泉市,郊区,113.594164,37.944679
140321,山西省阳泉市平定县,平定县,山西省,阳泉市,平定县,113.657841,37.786653
140322,山西省阳泉市盂县,盂县,山西省,阳泉市,盂县,113.41233,38.085619
140400,山西省长治市,长治市,山西省,长治市,,113.116255,36.195386
140401,山西省长治市市辖区,长治市市辖区,山西省,长治市,,113.116255,36.195386
140403,山西省长治市潞州区,潞州区,山西省,长治市,潞州区,113.6132985,40.0403365
140404,山西省长治市城区上党,上党区,山西省,长治市,城区,113.11121,36.187185
140423,山西省长治市襄垣县,襄垣县,山西省,长治市,襄垣县,113.051491,36.535817
140405,山西省长治市屯留区,屯留区,山西省,长治市,屯留区,113.1237605,36.2034125
140425,山西省长治市平顺县,平顺县,山西省,长治市,平顺县,113.435961,36.200179
140426,山西省长治市黎城县,黎城县,山西省,长治市,黎城县,113.386544,36.503621
140427,山西省长治市壶关县,壶关县,山西省,长治市,壶关县,113.207049,36.115449
140428,山西省长治市长子县,长子县,山西省,长治市,长子县,112.8779,36.122334
140429,山西省长治市武乡县,武乡县,山西省,长治市,武乡县,112.864562,36.837625
140430,山西省长治市沁县,沁县,山西省,长治市,沁县,112.699226,36.756064
140431,山西省长治市沁源县,沁源县,山西省,长治市,沁源县,112.337446,36.5002
140406,山西省长治市潞城区,潞城区,山西省,长治市,潞城区,112.8930095,36.3159725
140500,山西省晋城市,晋城市,山西省,晋城市,,112.851831,35.490701
140501,山西省晋城市市辖区,晋城市市辖区,山西省,晋城市,,112.851831,35.490701
140502,山西省晋城市城区,城区,山西省,晋城市,城区,112.853555,35.501572
140521,山西省晋城市沁水县,沁水县,山西省,晋城市,沁水县,112.186739,35.690141
140522,山西省晋城市阳城县,阳城县,山西省,晋城市,阳城县,112.414738,35.486029
140524,山西省晋城市陵川县,陵川县,山西省,晋城市,陵川县,113.280688,35.775685
140525,山西省晋城市泽州县,泽州县,山西省,晋城市,泽州县,112.899137,35.617221
140581,山西省晋城市高平市,高平市,山西省,晋城市,高平市,112.92392,35.797997
140600,山西省朔州市,朔州市,山西省,朔州市,,112.432825,39.331595
140601,山西省朔州市市辖区,朔州市市辖区,山西省,朔州市,,112.432825,39.331595
140602,山西省朔州市朔城区,朔城区,山西省,朔州市,朔城区,112.43225,39.31894
140603,山西省朔州市平鲁区,平鲁区,山西省,朔州市,平鲁区,112.288331,39.512155
140621,山西省朔州市山阴县,山阴县,山西省,朔州市,山阴县,112.8166,39.526227
140622,山西省朔州市应县,应县,山西省,朔州市,应县,113.191099,39.554247
140623,山西省朔州市右玉县,右玉县,山西省,朔州市,右玉县,112.466989,39.989064
140681,山西省朔州市怀仁县怀仁,怀仁市,山西省,朔州市,怀仁县,113.118504,39.810401
140700,山西省晋中市,晋中市,山西省,晋中市,,112.752694,37.687024
140701,山西省晋中市市辖区,晋中市市辖区,山西省,晋中市,,112.752694,37.687024
140702,山西省晋中市榆次区,榆次区,山西省,晋中市,榆次区,112.708241,37.697792
140721,山西省晋中市榆社县,榆社县,山西省,晋中市,榆社县,112.975287,37.070788
140722,山西省晋中市左权县,左权县,山西省,晋中市,左权县,113.379372,37.082681
140723,山西省晋中市和顺县,和顺县,山西省,晋中市,和顺县,113.570438,37.329664
140724,山西省晋中市昔阳县,昔阳县,山西省,晋中市,昔阳县,113.706875,37.61121
140725,山西省晋中市寿阳县,寿阳县,山西省,晋中市,寿阳县,113.176434,37.895325
140726,山西省晋中市太谷县,太谷县,山西省,晋中市,太谷县,112.551357,37.421308
140727,山西省晋中市祁县,祁县,山西省,晋中市,祁县,112.335297,37.358317
140728,山西省晋中市平遥县,平遥县,山西省,晋中市,平遥县,112.176273,37.189559
140729,山西省晋中市灵石县,灵石县,山西省,晋中市,灵石县,111.778685,36.84786
140781,山西省晋中市介休市,介休市,山西省,晋中市,介休市,111.916712,37.026945
140800,山西省运城市,运城市,山西省,运城市,,111.007528,35.026412
140801,山西省运城市市辖区,运城市市辖区,山西省,运城市,,111.007528,35.026412
140802,山西省运城市盐湖区,盐湖区,山西省,运城市,盐湖区,110.998272,35.015101
140821,山西省运城市临猗县,临猗县,山西省,运城市,临猗县,110.774547,35.144277
140822,山西省运城市万荣县,万荣县,山西省,运城市,万荣县,110.838024,35.415254
140823,山西省运城市闻喜县,闻喜县,山西省,运城市,闻喜县,111.22472,35.356644
140824,山西省运城市稷山县,稷山县,山西省,运城市,稷山县,110.983333,35.604025
140825,山西省运城市新绛县,新绛县,山西省,运城市,新绛县,111.224778,35.616288
140826,山西省运城市绛县,绛县,山西省,运城市,绛县,111.568236,35.49119
140827,山西省运城市垣曲县,垣曲县,山西省,运城市,垣曲县,111.669917,35.29762
140828,山西省运城市夏县,夏县,山西省,运城市,夏县,111.220456,35.141363
140829,山西省运城市平陆县,平陆县,山西省,运城市,平陆县,111.194133,34.82926
140830,山西省运城市芮城县,芮城县,山西省,运城市,芮城县,110.694369,34.69358
140881,山西省运城市永济市,永济市,山西省,运城市,永济市,110.447549,34.86705
140882,山西省运城市河津市,河津市,山西省,运城市,河津市,110.712063,35.596383
140900,山西省忻州市,忻州市,山西省,忻州市,,112.734174,38.416663
140901,山西省忻州市市辖区,忻州市市辖区,山西省,忻州市,,112.734174,38.416663
140902,山西省忻州市忻府区,忻府区,山西省,忻州市,忻府区,112.746046,38.404243
140921,山西省忻州市定襄县,定襄县,山西省,忻州市,定襄县,112.957215,38.473548
140922,山西省忻州市五台县,五台县,山西省,忻州市,五台县,113.255309,38.728315
140923,山西省忻州市代县,代县,山西省,忻州市,代县,112.960282,39.066917
140924,山西省忻州市繁峙县,繁峙县,山西省,忻州市,繁峙县,113.265564,39.188811
140925,山西省忻州市宁武县,宁武县,山西省,忻州市,宁武县,112.304722,39.001524
140926,山西省忻州市静乐县,静乐县,山西省,忻州市,静乐县,111.93944,38.359036
140927,山西省忻州市神池县,神池县,山西省,忻州市,神池县,112.211297,39.090553
140928,山西省忻州市五寨县,五寨县,山西省,忻州市,五寨县,111.846905,38.910726
140929,山西省忻州市岢岚县,岢岚县,山西省,忻州市,岢岚县,111.57285,38.70418
140930,山西省忻州市河曲县,河曲县,山西省,忻州市,河曲县,111.138472,39.384482
140931,山西省忻州市保德县,保德县,山西省,忻州市,保德县,111.086564,39.022488
140932,山西省忻州市偏关县,偏关县,山西省,忻州市,偏关县,111.508831,39.436306
140981,山西省忻州市原平市,原平市,山西省,忻州市,原平市,112.711059,38.731402
141000,山西省临汾市,临汾市,山西省,临汾市,,111.518976,36.088005
141001,山西省临汾市市辖区,临汾市市辖区,山西省,临汾市,,111.518976,36.088005
141002,山西省临汾市尧都区,尧都区,山西省,临汾市,尧都区,111.579554,36.078841
141021,山西省临汾市曲沃县,曲沃县,山西省,临汾市,曲沃县,111.475861,35.641087
141022,山西省临汾市翼城县,翼城县,山西省,临汾市,翼城县,111.718951,35.738576
141023,山西省临汾市襄汾县,襄汾县,山西省,临汾市,襄汾县,111.441725,35.876293
141024,山西省临汾市洪洞县,洪洞县,山西省,临汾市,洪洞县,111.674966,36.253748
141025,山西省临汾市古县,古县,山西省,临汾市,古县,111.920466,36.266914
141026,山西省临汾市安泽县,安泽县,山西省,临汾市,安泽县,112.250144,36.147787
141027,山西省临汾市浮山县,浮山县,山西省,临汾市,浮山县,111.848883,35.968124
141028,山西省临汾市吉县,吉县,山西省,临汾市,吉县,110.681763,36.098188
141029,山西省临汾市乡宁县,乡宁县,山西省,临汾市,乡宁县,110.847021,35.970389
141030,山西省临汾市大宁县,大宁县,山西省,临汾市,大宁县,110.752903,36.465133
141031,山西省临汾市隰县,隰县,山西省,临汾市,隰县,110.940638,36.693331
141032,山西省临汾市永和县,永和县,山西省,临汾市,永和县,110.632007,36.759507
141033,山西省临汾市蒲县,蒲县,山西省,临汾市,蒲县,111.096439,36.411827
141034,山西省临汾市汾西县,汾西县,山西省,临汾市,汾西县,111.563951,36.652854
141081,山西省临汾市侯马市,侯马市,山西省,临汾市,侯马市,111.372002,35.619105
141082,山西省临汾市霍州市,霍州市,山西省,临汾市,霍州市,111.755398,36.568931
141100,山西省吕梁市,吕梁市,山西省,吕梁市,,111.144319,37.518314
141101,山西省吕梁市市辖区,吕梁市市辖区,山西省,吕梁市,,111.144319,37.518314
141102,山西省吕梁市离石区,离石区,山西省,吕梁市,离石区,111.150733,37.517641
141121,山西省吕梁市文水县,文水县,山西省,吕梁市,文水县,112.028866,37.438102
141122,山西省吕梁市交城县,交城县,山西省,吕梁市,交城县,112.155841,37.55197
141123,山西省吕梁市兴县,兴县,山西省,吕梁市,兴县,111.127668,38.46239
141124,山西省吕梁市临县,临县,山西省,吕梁市,临县,110.992094,37.950758
141125,山西省吕梁市柳林县,柳林县,山西省,吕梁市,柳林县,110.889071,37.429832
141126,山西省吕梁市石楼县,石楼县,山西省,吕梁市,石楼县,110.834561,36.997412
141127,山西省吕梁市岚县,岚县,山西省,吕梁市,岚县,111.671917,38.279299
141128,山西省吕梁市方山县,方山县,山西省,吕梁市,方山县,111.244098,37.894631
141129,山西省吕梁市中阳县,中阳县,山西省,吕梁市,中阳县,111.179657,37.357058
141130,山西省吕梁市交口县,交口县,山西省,吕梁市,交口县,111.181151,36.982186
141181,山西省吕梁市孝义市,孝义市,山西省,吕梁市,孝义市,111.778818,37.146294
141182,山西省吕梁市汾阳市,汾阳市,山西省,吕梁市,汾阳市,111.769894,37.261564
150000,内蒙古自治区,内蒙古自治区,内蒙古自治区,,,111.765617,40.817498
150100,内蒙古自治区呼和浩特市,呼和浩特市,内蒙古自治区,呼和浩特市,,111.74918,40.842585
150101,内蒙古自治区呼和浩特市市辖区,呼和浩特市市辖区,内蒙古自治区,呼和浩特市,,111.74918,40.842585
150102,内蒙古自治区呼和浩特市新城区,新城区,内蒙古自治区,呼和浩特市,新城区,111.665544,40.858289
150103,内蒙古自治区呼和浩特市回民区,回民区,内蒙古自治区,呼和浩特市,回民区,111.623692,40.808608
150104,内蒙古自治区呼和浩特市玉泉区,玉泉区,内蒙古自治区,呼和浩特市,玉泉区,111.673881,40.753655
150105,内蒙古自治区呼和浩特市赛罕区,赛罕区,内蒙古自治区,呼和浩特市,赛罕区,111.701857,40.792097
150121,内蒙古自治区呼和浩特市土默特左旗,土默特左旗,内蒙古自治区,呼和浩特市,土默特左旗,111.163902,40.729573
150122,内蒙古自治区呼和浩特市托克托县,托克托县,内蒙古自治区,呼和浩特市,托克托县,111.194313,40.277431
150123,内蒙古自治区呼和浩特市和林格尔县,和林格尔县,内蒙古自治区,呼和浩特市,和林格尔县,111.821843,40.378787
150124,内蒙古自治区呼和浩特市清水河县,清水河县,内蒙古自治区,呼和浩特市,清水河县,111.647609,39.921095
150125,内蒙古自治区呼和浩特市武川县,武川县,内蒙古自治区,呼和浩特市,武川县,111.451303,41.096471
150200,内蒙古自治区包头市,包头市,内蒙古自治区,包头市,,109.840347,40.657449
150201,内蒙古自治区包头市市辖区,包头市市辖区,内蒙古自治区,包头市,,109.840347,40.657449
150202,内蒙古自治区包头市东河区,东河区,内蒙古自治区,包头市,东河区,110.044142,40.575948
150203,内蒙古自治区包头市昆都仑区,昆都仑区,内蒙古自治区,包头市,昆都仑区,109.838178,40.642236
150204,内蒙古自治区包头市青山区,青山区,内蒙古自治区,包头市,青山区,109.901572,40.643246
150205,内蒙古自治区包头市石拐区,石拐区,内蒙古自治区,包头市,石拐区,110.060686,40.676645
150206,内蒙古自治区包头市白云鄂博矿区,白云鄂博矿区,内蒙古自治区,包头市,白云鄂博矿区,109.97016,41.769246
150207,内蒙古自治区包头市九原区,九原区,内蒙古自治区,包头市,九原区,109.968122,40.600581
150221,内蒙古自治区包头市土默特右旗,土默特右旗,内蒙古自治区,包头市,土默特右旗,110.524263,40.569426
150222,内蒙古自治区包头市固阳县,固阳县,内蒙古自治区,包头市,固阳县,110.060514,41.034106
150223,内蒙古自治区包头市达尔罕茂明安联合旗,达尔罕茂明安联合旗,内蒙古自治区,包头市,达尔罕茂明安联合旗,110.432626,41.698992
150300,内蒙古自治区乌海市,乌海市,内蒙古自治区,乌海市,,106.794249,39.655388
150301,内蒙古自治区乌海市市辖区,乌海市市辖区,内蒙古自治区,乌海市,,106.794249,39.655388
150302,内蒙古自治区乌海市海勃湾区,海勃湾区,内蒙古自治区,乌海市,海勃湾区,106.822779,39.691156
150303,内蒙古自治区乌海市海南区,海南区,内蒙古自治区,乌海市,海南区,106.891424,39.441364
150304,内蒙古自治区乌海市乌达区,乌达区,内蒙古自治区,乌海市,乌达区,106.726099,39.505925
150400,内蒙古自治区赤峰市,赤峰市,内蒙古自治区,赤峰市,,118.886856,42.257817
150401,内蒙古自治区赤峰市市辖区,赤峰市市辖区,内蒙古自治区,赤峰市,,118.886856,42.257817
150402,内蒙古自治区赤峰市红山区,红山区,内蒙古自治区,赤峰市,红山区,118.967296,42.271963
150403,内蒙古自治区赤峰市元宝山区,元宝山区,内蒙古自治区,赤峰市,元宝山区,119.288611,42.038902
150404,内蒙古自治区赤峰市松山区,松山区,内蒙古自治区,赤峰市,松山区,118.933235,42.284008
150421,内蒙古自治区赤峰市阿鲁科尔沁旗,阿鲁科尔沁旗,内蒙古自治区,赤峰市,阿鲁科尔沁旗,120.0657,43.872299
150422,内蒙古自治区赤峰市巴林左旗,巴林左旗,内蒙古自治区,赤峰市,巴林左旗,119.37949,43.971126
150423,内蒙古自治区赤峰市巴林右旗,巴林右旗,内蒙古自治区,赤峰市,巴林右旗,118.66518,43.534414
150424,内蒙古自治区赤峰市林西县,林西县,内蒙古自治区,赤峰市,林西县,118.05545,43.61812
150425,内蒙古自治区赤峰市克什克腾旗,克什克腾旗,内蒙古自治区,赤峰市,克什克腾旗,117.545798,43.264989
150426,内蒙古自治区赤峰市翁牛特旗,翁牛特旗,内蒙古自治区,赤峰市,翁牛特旗,119.00658,42.936188
150428,内蒙古自治区赤峰市喀喇沁旗,喀喇沁旗,内蒙古自治区,赤峰市,喀喇沁旗,118.701938,41.927364
150429,内蒙古自治区赤峰市宁城县,宁城县,内蒙古自治区,赤峰市,宁城县,118.557602,41.415477
150430,内蒙古自治区赤峰市敖汉旗,敖汉旗,内蒙古自治区,赤峰市,敖汉旗,119.921604,42.290782
150500,内蒙古自治区通辽市,通辽市,内蒙古自治区,通辽市,,122.243444,43.65289
150501,内蒙古自治区通辽市市辖区,通辽市市辖区,内蒙古自治区,通辽市,,122.243444,43.65289
150502,内蒙古自治区通辽市科尔沁区,科尔沁区,内蒙古自治区,通辽市,科尔沁区,122.255675,43.623077
150521,内蒙古自治区通辽市科尔沁左翼中旗,科尔沁左翼中旗,内蒙古自治区,通辽市,科尔沁左翼中旗,123.312265,44.126626
150522,内蒙古自治区通辽市科尔沁左翼后旗,科尔沁左翼后旗,内蒙古自治区,通辽市,科尔沁左翼后旗,122.356749,42.935159
150523,内蒙古自治区通辽市开鲁县,开鲁县,内蒙古自治区,通辽市,开鲁县,121.319309,43.601244
150524,内蒙古自治区通辽市库伦旗,库伦旗,内蒙古自治区,通辽市,库伦旗,121.810701,42.735657
150525,内蒙古自治区通辽市奈曼旗,奈曼旗,内蒙古自治区,通辽市,奈曼旗,120.662419,42.845455
150526,内蒙古自治区通辽市扎鲁特旗,扎鲁特旗,内蒙古自治区,通辽市,扎鲁特旗,120.911676,44.556389
150581,内蒙古自治区通辽市霍林郭勒市,霍林郭勒市,内蒙古自治区,通辽市,霍林郭勒市,119.663534,45.531726
150600,内蒙古自治区鄂尔多斯市,鄂尔多斯市,内蒙古自治区,鄂尔多斯市,,109.781327,39.608266
150601,内蒙古自治区鄂尔多斯市市辖区,鄂尔多斯市市辖区,内蒙古自治区,鄂尔多斯市,,109.781327,39.608266
150602,内蒙古自治区鄂尔多斯市东胜区,东胜区,内蒙古自治区,鄂尔多斯市,东胜区,109.963339,39.822507
150603,内蒙古自治区鄂尔多斯市康巴什区,康巴什区,内蒙古自治区,鄂尔多斯市,康巴什区,113.2297105,36.3341475
150621,内蒙古自治区鄂尔多斯市达拉特旗,达拉特旗,内蒙古自治区,鄂尔多斯市,达拉特旗,110.033833,40.412438
150622,内蒙古自治区鄂尔多斯市准格尔旗,准格尔旗,内蒙古自治区,鄂尔多斯市,准格尔旗,111.240171,39.864362
150623,内蒙古自治区鄂尔多斯市鄂托克前旗,鄂托克前旗,内蒙古自治区,鄂尔多斯市,鄂托克前旗,107.477515,38.182362
150624,内蒙古自治区鄂尔多斯市鄂托克旗,鄂托克旗,内蒙古自治区,鄂尔多斯市,鄂托克旗,107.976161,39.08965
150625,内蒙古自治区鄂尔多斯市杭锦旗,杭锦旗,内蒙古自治区,鄂尔多斯市,杭锦旗,108.736208,39.833309
150626,内蒙古自治区鄂尔多斯市乌审旗,乌审旗,内蒙古自治区,鄂尔多斯市,乌审旗,108.817607,38.604136
150627,内蒙古自治区鄂尔多斯市伊金霍洛旗,伊金霍洛旗,内蒙古自治区,鄂尔多斯市,伊金霍洛旗,109.74774,39.56466
150700,内蒙古自治区呼伦贝尔市,呼伦贝尔市,内蒙古自治区,呼伦贝尔市,,119.765744,49.211574
150701,内蒙古自治区呼伦贝尔市市辖区,呼伦贝尔市市辖区,内蒙古自治区,呼伦贝尔市,,119.765744,49.211574
150702,内蒙古自治区呼伦贝尔市海拉尔区,海拉尔区,内蒙古自治区,呼伦贝尔市,海拉尔区,119.736279,49.212189
150703,内蒙古自治区呼伦贝尔市扎赉诺尔区,扎赉诺尔区,内蒙古自治区,呼伦贝尔市,扎赉诺尔区,117.670248,49.510375
150721,内蒙古自治区呼伦贝尔市阿荣旗,阿荣旗,内蒙古自治区,呼伦贝尔市,阿荣旗,123.45905,48.126585
150722,内蒙古自治区呼伦贝尔市莫力达瓦达斡尔族自治旗,莫力达瓦达斡尔族自治旗,内蒙古自治区,呼伦贝尔市,莫力达瓦达斡尔族自治旗,124.519023,48.477729
150723,内蒙古自治区呼伦贝尔市鄂伦春自治旗,鄂伦春自治旗,内蒙古自治区,呼伦贝尔市,鄂伦春自治旗,123.726201,50.591842
150724,内蒙古自治区呼伦贝尔市鄂温克族自治旗,鄂温克族自治旗,内蒙古自治区,呼伦贝尔市,鄂温克族自治旗,119.755213,49.146588
150725,内蒙古自治区呼伦贝尔市陈巴尔虎旗,陈巴尔虎旗,内蒙古自治区,呼伦贝尔市,陈巴尔虎旗,119.424026,49.328916
150726,内蒙古自治区呼伦贝尔市新巴尔虎左旗,新巴尔虎左旗,内蒙古自治区,呼伦贝尔市,新巴尔虎左旗,118.26982,48.218241
150727,内蒙古自治区呼伦贝尔市新巴尔虎右旗,新巴尔虎右旗,内蒙古自治区,呼伦贝尔市,新巴尔虎右旗,116.82369,48.672101
150781,内蒙古自治区呼伦贝尔市满洲里市,满洲里市,内蒙古自治区,呼伦贝尔市,满洲里市,117.37853,49.597841
150782,内蒙古自治区呼伦贝尔市牙克石市,牙克石市,内蒙古自治区,呼伦贝尔市,牙克石市,120.735775,49.293222
150783,内蒙古自治区呼伦贝尔市扎兰屯市,扎兰屯市,内蒙古自治区,呼伦贝尔市,扎兰屯市,122.737467,48.013733
150784,内蒙古自治区呼伦贝尔市额尔古纳市,额尔古纳市,内蒙古自治区,呼伦贝尔市,额尔古纳市,120.180506,50.243102
150785,内蒙古自治区呼伦贝尔市根河市,根河市,内蒙古自治区,呼伦贝尔市,根河市,121.520388,50.780345
150800,内蒙古自治区巴彦淖尔市,巴彦淖尔市,内蒙古自治区,巴彦淖尔市,,107.387657,40.743213
150801,内蒙古自治区巴彦淖尔市市辖区,巴彦淖尔市市辖区,内蒙古自治区,巴彦淖尔市,,107.387657,40.743213
150802,内蒙古自治区巴彦淖尔市临河区,临河区,内蒙古自治区,巴彦淖尔市,临河区,107.363919,40.751187
150821,内蒙古自治区巴彦淖尔市五原县,五原县,内蒙古自治区,巴彦淖尔市,五原县,108.267562,41.088422
150822,内蒙古自治区巴彦淖尔市磴口县,磴口县,内蒙古自治区,巴彦淖尔市,磴口县,107.008248,40.330524
150823,内蒙古自治区巴彦淖尔市乌拉特前旗,乌拉特前旗,内蒙古自治区,巴彦淖尔市,乌拉特前旗,108.652119,40.73703
150824,内蒙古自治区巴彦淖尔市乌拉特中旗,乌拉特中旗,内蒙古自治区,巴彦淖尔市,乌拉特中旗,108.513645,41.587732
150825,内蒙古自治区巴彦淖尔市乌拉特后旗,乌拉特后旗,内蒙古自治区,巴彦淖尔市,乌拉特后旗,107.074621,41.084283
150826,内蒙古自治区巴彦淖尔市杭锦后旗,杭锦后旗,内蒙古自治区,巴彦淖尔市,杭锦后旗,107.150909,40.885896
150900,内蒙古自治区乌兰察布市,乌兰察布市,内蒙古自治区,乌兰察布市,,113.132585,40.994785
150901,内蒙古自治区乌兰察布市市辖区,乌兰察布市市辖区,内蒙古自治区,乌兰察布市,,113.132585,40.994785
150902,内蒙古自治区乌兰察布市集宁区,集宁区,内蒙古自治区,乌兰察布市,集宁区,113.123779,40.990689
150921,内蒙古自治区乌兰察布市卓资县,卓资县,内蒙古自治区,乌兰察布市,卓资县,112.577528,40.894692
150922,内蒙古自治区乌兰察布市化德县,化德县,内蒙古自治区,乌兰察布市,化德县,114.010438,41.90456
150923,内蒙古自治区乌兰察布市商都县,商都县,内蒙古自治区,乌兰察布市,商都县,113.577816,41.562113
150924,内蒙古自治区乌兰察布市兴和县,兴和县,内蒙古自治区,乌兰察布市,兴和县,113.834173,40.872301
150925,内蒙古自治区乌兰察布市凉城县,凉城县,内蒙古自治区,乌兰察布市,凉城县,112.503971,40.531555
150926,内蒙古自治区乌兰察布市察哈尔右翼前旗,察哈尔右翼前旗,内蒙古自治区,乌兰察布市,察哈尔右翼前旗,113.214733,40.785631
150927,内蒙古自治区乌兰察布市察哈尔右翼中旗,察哈尔右翼中旗,内蒙古自治区,乌兰察布市,察哈尔右翼中旗,112.635577,41.277462
150928,内蒙古自治区乌兰察布市察哈尔右翼后旗,察哈尔右翼后旗,内蒙古自治区,乌兰察布市,察哈尔右翼后旗,113.191035,41.436069
150929,内蒙古自治区乌兰察布市四子王旗,四子王旗,内蒙古自治区,乌兰察布市,四子王旗,111.706618,41.533462
150981,内蒙古自治区乌兰察布市丰镇市,丰镇市,内蒙古自治区,乌兰察布市,丰镇市,113.109892,40.436983
152200,内蒙古自治区兴安盟,兴安盟,内蒙古自治区,兴安盟,,122.067042,46.077561
152201,内蒙古自治区兴安盟乌兰浩特市,乌兰浩特市,内蒙古自治区,兴安盟,乌兰浩特市,122.093123,46.072732
152202,内蒙古自治区兴安盟阿尔山市,阿尔山市,内蒙古自治区,兴安盟,阿尔山市,119.943575,47.17744
152221,内蒙古自治区兴安盟科尔沁右翼前旗,科尔沁右翼前旗,内蒙古自治区,兴安盟,科尔沁右翼前旗,121.95255,46.07981
152222,内蒙古自治区兴安盟科尔沁右翼中旗,科尔沁右翼中旗,内蒙古自治区,兴安盟,科尔沁右翼中旗,121.47653,45.060837
152223,内蒙古自治区兴安盟扎赉特旗,扎赉特旗,内蒙古自治区,兴安盟,扎赉特旗,122.899656,46.723237
152224,内蒙古自治区兴安盟突泉县,突泉县,内蒙古自治区,兴安盟,突泉县,121.593799,45.38193
152500,内蒙古自治区锡林郭勒盟,锡林郭勒盟,内蒙古自治区,锡林郭勒盟,,116.048222,43.933454
152501,内蒙古自治区锡林郭勒盟二连浩特市,二连浩特市,内蒙古自治区,锡林郭勒盟,二连浩特市,111.977943,43.65317
152502,内蒙古自治区锡林郭勒盟锡林浩特市,锡林浩特市,内蒙古自治区,锡林郭勒盟,锡林浩特市,116.086032,43.933411
152522,内蒙古自治区锡林郭勒盟阿巴嘎旗,阿巴嘎旗,内蒙古自治区,锡林郭勒盟,阿巴嘎旗,114.950248,44.022995
152523,内蒙古自治区锡林郭勒盟苏尼特左旗,苏尼特左旗,内蒙古自治区,锡林郭勒盟,苏尼特左旗,113.667248,43.85988
152524,内蒙古自治区锡林郭勒盟苏尼特右旗,苏尼特右旗,内蒙古自治区,锡林郭勒盟,苏尼特右旗,112.641783,42.742892
152525,内蒙古自治区锡林郭勒盟东乌珠穆沁旗,东乌珠穆沁旗,内蒙古自治区,锡林郭勒盟,东乌珠穆沁旗,116.974494,45.498221
152526,内蒙古自治区锡林郭勒盟西乌珠穆沁旗,西乌珠穆沁旗,内蒙古自治区,锡林郭勒盟,西乌珠穆沁旗,117.608911,44.587882
152527,内蒙古自治区锡林郭勒盟太仆寺旗,太仆寺旗,内蒙古自治区,锡林郭勒盟,太仆寺旗,115.282986,41.877136
152528,内蒙古自治区锡林郭勒盟镶黄旗,镶黄旗,内蒙古自治区,锡林郭勒盟,镶黄旗,113.847287,42.232371
152529,内蒙古自治区锡林郭勒盟正镶白旗,正镶白旗,内蒙古自治区,锡林郭勒盟,正镶白旗,115.029849,42.287471
152530,内蒙古自治区锡林郭勒盟正蓝旗,正蓝旗,内蒙古自治区,锡林郭勒盟,正蓝旗,115.99247,42.241638
152531,内蒙古自治区锡林郭勒盟多伦县,多伦县,内蒙古自治区,锡林郭勒盟,多伦县,116.485556,42.203591
152900,内蒙古自治区阿拉善盟,阿拉善盟,内蒙古自治区,阿拉善盟,,105.728969,38.851892
152921,内蒙古自治区阿拉善盟阿拉善左旗,阿拉善左旗,内蒙古自治区,阿拉善盟,阿拉善左旗,105.666293,38.833411
152922,内蒙古自治区阿拉善盟阿拉善右旗,阿拉善右旗,内蒙古自治区,阿拉善盟,阿拉善右旗,101.666917,39.216186
152923,内蒙古自治区阿拉善盟额济纳旗,额济纳旗,内蒙古自治区,阿拉善盟,额济纳旗,101.05559,41.954347
210000,辽宁省,辽宁省,辽宁省,,,123.42944,41.835441
210100,辽宁省沈阳市,沈阳市,辽宁省,沈阳市,,123.431474,41.805698
210101,辽宁省沈阳市市辖区,沈阳市市辖区,辽宁省,沈阳市,,123.431474,41.805698
210102,辽宁省沈阳市和平区,和平区,辽宁省,沈阳市,和平区,123.39568,41.78945
210103,辽宁省沈阳市沈河区,沈河区,辽宁省,沈阳市,沈河区,123.458897,41.795655
210104,辽宁省沈阳市大东区,大东区,辽宁省,沈阳市,大东区,123.508858,41.81317
210105,辽宁省沈阳市皇姑区,皇姑区,辽宁省,沈阳市,皇姑区,123.44197,41.824796
210106,辽宁省沈阳市铁西区,铁西区,辽宁省,沈阳市,铁西区,123.376301,41.802914
210111,辽宁省沈阳市苏家屯区,苏家屯区,辽宁省,沈阳市,苏家屯区,123.344031,41.664757
210112,辽宁省沈阳市浑南区,浑南区,辽宁省,沈阳市,浑南区,123.449715,41.714914
210113,辽宁省沈阳市沈北新区,沈北新区,辽宁省,沈阳市,沈北新区,123.583197,41.912487
210114,辽宁省沈阳市于洪区,于洪区,辽宁省,沈阳市,于洪区,123.308136,41.793743
210115,辽宁省沈阳市辽中区,辽中区,辽宁省,沈阳市,辽中区,122.765409,41.516827
210123,辽宁省沈阳市康平县,康平县,辽宁省,沈阳市,康平县,123.355701,42.741005
210124,辽宁省沈阳市法库县,法库县,辽宁省,沈阳市,法库县,123.440495,42.50073
210181,辽宁省沈阳市新民市,新民市,辽宁省,沈阳市,新民市,122.725537,41.932648
210200,辽宁省大连市,大连市,辽宁省,大连市,,121.614682,38.914003
210201,辽宁省大连市市辖区,大连市市辖区,辽宁省,大连市,,121.614682,38.914003
210202,辽宁省大连市中山区,中山区,辽宁省,大连市,中山区,121.644927,38.918574
210203,辽宁省大连市西岗区,西岗区,辽宁省,大连市,西岗区,121.612325,38.914687
210204,辽宁省大连市沙河口区,沙河口区,辽宁省,大连市,沙河口区,121.5942,38.904808
210211,辽宁省大连市甘井子区,甘井子区,辽宁省,大连市,甘井子区,121.525461,38.953351
210212,辽宁省大连市旅顺口区,旅顺口区,辽宁省,大连市,旅顺口区,121.261953,38.851705
210213,辽宁省大连市金州区,金州区,辽宁省,大连市,金州区,121.782769,39.05046
210214,辽宁省大连市普兰店区,普兰店区,辽宁省,大连市,普兰店区,122.26177,39.741886
210224,辽宁省大连市长海县,长海县,辽宁省,大连市,长海县,122.588494,39.272728
210281,辽宁省大连市瓦房店市,瓦房店市,辽宁省,大连市,瓦房店市,121.979603,39.627114
210283,辽宁省大连市庄河市,庄河市,辽宁省,大连市,庄河市,122.967328,39.680811
210300,辽宁省鞍山市,鞍山市,辽宁省,鞍山市,,122.994329,41.108647
210301,辽宁省鞍山市市辖区,鞍山市市辖区,辽宁省,鞍山市,,122.994329,41.108647
210302,辽宁省鞍山市铁东区,铁东区,辽宁省,鞍山市,铁东区,122.991052,41.089933
210303,辽宁省鞍山市铁西区,铁西区,辽宁省,鞍山市,铁西区,122.96963,41.119885
210304,辽宁省鞍山市立山区,立山区,辽宁省,鞍山市,立山区,123.029091,41.150401
210311,辽宁省鞍山市千山区,千山区,辽宁省,鞍山市,千山区,122.949298,41.068909
210321,辽宁省鞍山市台安县,台安县,辽宁省,鞍山市,台安县,122.436196,41.412768
210323,辽宁省鞍山市岫岩满族自治县,岫岩满族自治县,辽宁省,鞍山市,岫岩满族自治县,123.280935,40.29088
210381,辽宁省鞍山市海城市,海城市,辽宁省,鞍山市,海城市,122.685217,40.882377
210400,辽宁省抚顺市,抚顺市,辽宁省,抚顺市,,123.957208,41.880872
210401,辽宁省抚顺市市辖区,抚顺市市辖区,辽宁省,抚顺市,,123.957208,41.880872
210402,辽宁省抚顺市新抚区,新抚区,辽宁省,抚顺市,新抚区,123.912861,41.86208
210403,辽宁省抚顺市东洲区,东洲区,辽宁省,抚顺市,东洲区,124.038685,41.853192
210404,辽宁省抚顺市望花区,望花区,辽宁省,抚顺市,望花区,123.784206,41.853646
210411,辽宁省抚顺市顺城区,顺城区,辽宁省,抚顺市,顺城区,123.94504,41.883375
210421,辽宁省抚顺市抚顺县,抚顺县,辽宁省,抚顺市,抚顺县,124.097979,41.922644
210422,辽宁省抚顺市新宾满族自治县,新宾满族自治县,辽宁省,抚顺市,新宾满族自治县,125.039978,41.734256
210423,辽宁省抚顺市清原满族自治县,清原满族自治县,辽宁省,抚顺市,清原满族自治县,124.924083,42.100539
210500,辽宁省本溪市,本溪市,辽宁省,本溪市,,123.766485,41.294175
210501,辽宁省本溪市市辖区,本溪市市辖区,辽宁省,本溪市,,123.766485,41.294175
210502,辽宁省本溪市平山区,平山区,辽宁省,本溪市,平山区,123.768926,41.299702
210503,辽宁省本溪市溪湖区,溪湖区,辽宁省,本溪市,溪湖区,123.767647,41.329219
210504,辽宁省本溪市明山区,明山区,辽宁省,本溪市,明山区,123.817212,41.30871
210505,辽宁省本溪市南芬区,南芬区,辽宁省,本溪市,南芬区,123.744802,41.100445
210521,辽宁省本溪市本溪满族自治县,本溪满族自治县,辽宁省,本溪市,本溪满族自治县,124.120436,41.301892
210522,辽宁省本溪市桓仁满族自治县,桓仁满族自治县,辽宁省,本溪市,桓仁满族自治县,125.361007,41.267128
210600,辽宁省丹东市,丹东市,辽宁省,丹东市,,124.354706,40.000499
210601,辽宁省丹东市市辖区,丹东市市辖区,辽宁省,丹东市,,124.354706,40.000499
210602,辽宁省丹东市元宝区,元宝区,辽宁省,丹东市,元宝区,124.395757,40.13652
210603,辽宁省丹东市振兴区,振兴区,辽宁省,丹东市,振兴区,124.360264,40.105194
210604,辽宁省丹东市振安区,振安区,辽宁省,丹东市,振安区,124.428162,40.158267
210624,辽宁省丹东市宽甸满族自治县,宽甸满族自治县,辽宁省,丹东市,宽甸满族自治县,124.78366,40.731317
210681,辽宁省丹东市东港市,东港市,辽宁省,丹东市,东港市,124.152705,39.863008
210682,辽宁省丹东市凤城市,凤城市,辽宁省,丹东市,凤城市,124.066919,40.452298
210700,辽宁省锦州市,锦州市,辽宁省,锦州市,,121.127003,41.095119
210701,辽宁省锦州市市辖区,锦州市市辖区,辽宁省,锦州市,,121.127003,41.095119
210702,辽宁省锦州市古塔区,古塔区,辽宁省,锦州市,古塔区,121.128279,41.117245
210703,辽宁省锦州市凌河区,凌河区,辽宁省,锦州市,凌河区,121.150877,41.11499
210711,辽宁省锦州市太和区,太和区,辽宁省,锦州市,太和区,121.103892,41.109147
210726,辽宁省锦州市黑山县,黑山县,辽宁省,锦州市,黑山县,122.123443,41.666028
210727,辽宁省锦州市义县,义县,辽宁省,锦州市,义县,121.23908,41.533087
210781,辽宁省锦州市凌海市,凌海市,辽宁省,锦州市,凌海市,121.35773,41.1734
210782,辽宁省锦州市北镇市,北镇市,辽宁省,锦州市,北镇市,121.795962,41.598764
210800,辽宁省营口市,营口市,辽宁省,营口市,,122.235417,40.667012
210801,辽宁省营口市市辖区,营口市市辖区,辽宁省,营口市,,122.235417,40.667012
210802,辽宁省营口市站前区,站前区,辽宁省,营口市,站前区,122.258961,40.67267
210803,辽宁省营口市西市区,西市区,辽宁省,营口市,西市区,122.206414,40.666408
210804,辽宁省营口市鲅鱼圈区,鲅鱼圈区,辽宁省,营口市,鲅鱼圈区,122.107814,40.230636
210811,辽宁省营口市老边区,老边区,辽宁省,营口市,老边区,122.379967,40.680303
210881,辽宁省营口市盖州市,盖州市,辽宁省,营口市,盖州市,122.348936,40.400611
210882,辽宁省营口市大石桥市,大石桥市,辽宁省,营口市,大石桥市,122.509131,40.644622
210900,辽宁省阜新市,阜新市,辽宁省,阜新市,,121.670323,42.021619
210901,辽宁省阜新市市辖区,阜新市市辖区,辽宁省,阜新市,,121.670323,42.021619
210902,辽宁省阜新市海州区,海州区,辽宁省,阜新市,海州区,121.656255,42.013242
210903,辽宁省阜新市新邱区,新邱区,辽宁省,阜新市,新邱区,121.792535,42.087632
210904,辽宁省阜新市太平区,太平区,辽宁省,阜新市,太平区,121.678512,42.0106
210905,辽宁省阜新市清河门区,清河门区,辽宁省,阜新市,清河门区,121.416105,41.7831
210911,辽宁省阜新市细河区,细河区,辽宁省,阜新市,细河区,121.68054,42.025495
210921,辽宁省阜新市阜新蒙古族自治县,阜新蒙古族自治县,辽宁省,阜新市,阜新蒙古族自治县,121.757901,42.065175
210922,辽宁省阜新市彰武县,彰武县,辽宁省,阜新市,彰武县,122.538793,42.386544
211000,辽宁省辽阳市,辽阳市,辽宁省,辽阳市,,123.236944,41.267244
211001,辽宁省辽阳市市辖区,辽阳市市辖区,辽宁省,辽阳市,,123.236944,41.267244
211002,辽宁省辽阳市白塔区,白塔区,辽宁省,辽阳市,白塔区,123.174325,41.270347
211003,辽宁省辽阳市白塔区,文圣区,辽宁省,辽阳市,白塔区,123.185386,41.262608
211004,辽宁省辽阳市宏伟区,宏伟区,辽宁省,辽阳市,宏伟区,123.196672,41.217649
211005,辽宁省辽阳市弓长岭区,弓长岭区,辽宁省,辽阳市,弓长岭区,123.419804,41.151847
211011,辽宁省辽阳市白塔区,太子河区,辽宁省,辽阳市,白塔区,123.181782,41.253277
211021,辽宁省辽阳市辽阳县,辽阳县,辽宁省,辽阳市,辽阳县,123.105695,41.205329
211081,辽宁省辽阳市灯塔市,灯塔市,辽宁省,辽阳市,灯塔市,123.339312,41.426372
211100,辽宁省盘锦市,盘锦市,辽宁省,盘锦市,,122.070714,41.119997
211101,辽宁省盘锦市市辖区,盘锦市市辖区,辽宁省,盘锦市,,122.070714,41.119997
211102,辽宁省盘锦市双台子区,双台子区,辽宁省,盘锦市,双台子区,122.060112,41.190606
211103,辽宁省盘锦市兴隆台区,兴隆台区,辽宁省,盘锦市,兴隆台区,122.069897,41.158678
211104,辽宁省盘锦市大洼区,大洼区,辽宁省,盘锦市,大洼区,114.3507745,22.7087745
211122,辽宁省盘锦市盘山县,盘山县,辽宁省,盘锦市,盘山县,121.996499,41.242873
211200,辽宁省铁岭市,铁岭市,辽宁省,铁岭市,,123.726166,42.223769
211201,辽宁省铁岭市市辖区,铁岭市市辖区,辽宁省,铁岭市,,123.726166,42.223769
211202,辽宁省铁岭市银州区,银州区,辽宁省,铁岭市,银州区,123.842305,42.28613
211204,辽宁省铁岭市清河区,清河区,辽宁省,铁岭市,清河区,124.14896,42.542978
211221,辽宁省铁岭市铁岭县,铁岭县,辽宁省,铁岭市,铁岭县,123.729004,42.223383
211223,辽宁省铁岭市西丰县,西丰县,辽宁省,铁岭市,西丰县,124.727393,42.73803
211224,辽宁省铁岭市昌图县,昌图县,辽宁省,铁岭市,昌图县,124.1111,42.785791
211281,辽宁省铁岭市调兵山市,调兵山市,辽宁省,铁岭市,调兵山市,123.567117,42.467521
211282,辽宁省铁岭市开原市,开原市,辽宁省,铁岭市,开原市,124.038268,42.546307
211300,辽宁省朝阳市,朝阳市,辽宁省,朝阳市,,120.450372,41.573734
211301,辽宁省朝阳市市辖区,朝阳市市辖区,辽宁省,朝阳市,,120.450372,41.573734
211302,辽宁省朝阳市双塔区,双塔区,辽宁省,朝阳市,双塔区,120.453744,41.565628
211303,辽宁省朝阳市龙城区,龙城区,辽宁省,朝阳市,龙城区,120.413376,41.576749
211321,辽宁省朝阳市朝阳县,朝阳县,辽宁省,朝阳市,朝阳县,120.389862,41.497767
211322,辽宁省朝阳市建平县,建平县,辽宁省,朝阳市,建平县,119.64328,41.403128
211324,辽宁省朝阳市喀喇沁左翼蒙古族自治县,喀喇沁左翼蒙古族自治县,辽宁省,朝阳市,喀喇沁左翼蒙古族自治县,119.741223,41.12815
211381,辽宁省朝阳市北票市,北票市,辽宁省,朝阳市,北票市,120.77073,41.800684
211382,辽宁省朝阳市凌源市,凌源市,辽宁省,朝阳市,凌源市,119.401574,41.245445
211400,辽宁省葫芦岛市,葫芦岛市,辽宁省,葫芦岛市,,120.836932,40.711052
211401,辽宁省葫芦岛市市辖区,葫芦岛市市辖区,辽宁省,葫芦岛市,,120.836932,40.711052
211402,辽宁省葫芦岛市连山区,连山区,辽宁省,葫芦岛市,连山区,120.869231,40.774461
211403,辽宁省葫芦岛市龙港区,龙港区,辽宁省,葫芦岛市,龙港区,120.893786,40.735519
211404,辽宁省葫芦岛市南票区,南票区,辽宁省,葫芦岛市,南票区,120.749728,41.107108
211421,辽宁省葫芦岛市绥中县,绥中县,辽宁省,葫芦岛市,绥中县,120.344229,40.325659
211422,辽宁省葫芦岛市建昌县,建昌县,辽宁省,葫芦岛市,建昌县,119.837124,40.824368
211481,辽宁省葫芦岛市兴城市,兴城市,辽宁省,葫芦岛市,兴城市,120.72831,40.614762
220000,吉林省,吉林省,吉林省,,,125.32599,43.896536
220100,吉林省长春市,长春市,吉林省,长春市,,125.323544,43.817071
220101,吉林省长春市市辖区,长春市市辖区,吉林省,长春市,,125.323544,43.817071
220102,吉林省长春市南关区,南关区,吉林省,长春市,南关区,125.350173,43.863989
220103,吉林省长春市宽城区,宽城区,吉林省,长春市,宽城区,125.326578,43.943614
220104,吉林省长春市朝阳区,朝阳区,吉林省,长春市,朝阳区,125.288319,43.833513
220105,吉林省长春市二道区,二道区,吉林省,长春市,二道区,125.374217,43.865596
220106,吉林省长春市绿园区,绿园区,吉林省,长春市,绿园区,125.256136,43.880975
220112,吉林省长春市双阳区,双阳区,吉林省,长春市,双阳区,125.664662,43.525311
220113,吉林省长春市九台区,九台区,吉林省,长春市,九台区,125.839574,44.151742
220122,吉林省长春市农安县,农安县,吉林省,长春市,农安县,125.184742,44.432889
220182,吉林省长春市榆树市,榆树市,吉林省,长春市,榆树市,126.533146,44.840288
220183,吉林省长春市德惠市,德惠市,吉林省,长春市,德惠市,125.72862,44.521785
220200,吉林市,吉林市,吉林省,吉林市,,126.549576,43.837883
220201,吉林市市辖区,吉林市市辖区,吉林省,吉林市,,126.549576,43.837883
220202,吉林省吉林市昌邑区,昌邑区,吉林省,吉林市,昌邑区,126.57471,43.881818
220203,吉林省吉林市龙潭区,龙潭区,吉林省,吉林市,龙潭区,126.562197,43.910803
220204,吉林省吉林市船营区,船营区,吉林省,吉林市,船营区,126.540966,43.833445
220211,吉林省吉林市丰满区,丰满区,吉林省,吉林市,丰满区,126.562274,43.821601
220221,吉林省吉林市永吉县,永吉县,吉林省,吉林市,永吉县,126.497741,43.672582
220281,吉林省吉林市蛟河市,蛟河市,吉林省,吉林市,蛟河市,127.344501,43.723713
220282,吉林省吉林市桦甸市,桦甸市,吉林省,吉林市,桦甸市,126.74631,42.972097
220283,吉林省吉林市舒兰市,舒兰市,吉林省,吉林市,舒兰市,126.965607,44.406106
220284,吉林省吉林市磐石市,磐石市,吉林省,吉林市,磐石市,126.060427,42.946285
220300,吉林省四平市,四平市,吉林省,四平市,,124.350398,43.166419
220301,吉林省四平市市辖区,四平市市辖区,吉林省,四平市,,124.350398,43.166419
220302,吉林省四平市铁西区,铁西区,吉林省,四平市,铁西区,124.345722,43.146155
220303,吉林省四平市铁东区,铁东区,吉林省,四平市,铁东区,124.409622,43.162048
220322,吉林省四平市梨树县,梨树县,吉林省,四平市,梨树县,124.33539,43.30706
220323,吉林省四平市伊通满族自治县,伊通满族自治县,吉林省,四平市,伊通满族自治县,125.305394,43.345754
220381,吉林省四平市公主岭市,公主岭市,吉林省,四平市,公主岭市,124.82283,43.504687
220382,吉林省四平市双辽市,双辽市,吉林省,四平市,双辽市,123.502724,43.518302
220400,吉林省辽源市,辽源市,吉林省,辽源市,,125.143532,42.887918
220401,吉林省辽源市市辖区,辽源市市辖区,吉林省,辽源市,,125.143532,42.887918
220402,吉林省辽源市龙山区,龙山区,吉林省,辽源市,龙山区,125.136452,42.901534
220403,吉林省辽源市西安区,西安区,吉林省,辽源市,西安区,125.149283,42.927265
220421,吉林省辽源市东丰县,东丰县,吉林省,辽源市,东丰县,125.530991,42.676935
220422,吉林省辽源市东辽县,东辽县,吉林省,辽源市,东辽县,124.991521,42.926331
220500,吉林省通化市,通化市,吉林省,通化市,,125.939697,41.728401
220501,吉林省通化市市辖区,通化市市辖区,吉林省,通化市,,125.939697,41.728401
220502,吉林省通化市东昌区,东昌区,吉林省,通化市,东昌区,125.955102,41.728498
220503,吉林省通化市二道江区,二道江区,吉林省,通化市,二道江区,126.042535,41.774053
220521,吉林省通化市通化县,通化县,吉林省,通化市,通化县,125.759259,41.679808
220523,吉林省通化市辉南县,辉南县,吉林省,通化市,辉南县,126.046912,42.684993
220524,吉林省通化市柳河县,柳河县,吉林省,通化市,柳河县,125.744735,42.284606
220581,吉林省通化市梅河口市,梅河口市,吉林省,通化市,梅河口市,125.683832,42.530341
220582,吉林省通化市集安市,集安市,吉林省,通化市,集安市,126.194031,41.125307
220600,吉林省白山市,白山市,吉林省,白山市,,126.423587,41.939994
220601,吉林省白山市市辖区,白山市市辖区,吉林省,白山市,,126.423587,41.939994
220602,吉林省白山市浑江区,浑江区,吉林省,白山市,浑江区,126.416094,41.945409
220605,吉林省白山市江源区,江源区,吉林省,白山市,江源区,126.591144,42.056773
220621,吉林省白山市抚松县,抚松县,吉林省,白山市,抚松县,127.449764,42.221208
220622,吉林省白山市靖宇县,靖宇县,吉林省,白山市,靖宇县,126.813625,42.38876
220623,吉林省白山市长白朝鲜族自治县,长白朝鲜族自治县,吉林省,白山市,长白朝鲜族自治县,128.200789,41.420018
220681,吉林省白山市临江市,临江市,吉林省,白山市,临江市,126.918087,41.811979
220700,吉林省松原市,松原市,吉林省,松原市,,124.825117,45.141789
220701,吉林省松原市市辖区,松原市市辖区,吉林省,松原市,,124.825117,45.141789
220702,吉林省松原市宁江区,宁江区,吉林省,松原市,宁江区,124.817054,45.171792
220721,吉林省松原市前郭尔罗斯蒙古族自治县,前郭尔罗斯蒙古族自治县,吉林省,松原市,前郭尔罗斯蒙古族自治县,124.823242,45.11803
220722,吉林省松原市长岭县,长岭县,吉林省,松原市,长岭县,123.967484,44.275895
220723,吉林省松原市乾安县,乾安县,吉林省,松原市,乾安县,124.041139,45.003774
220781,吉林省松原市扶余市,扶余市,吉林省,松原市,扶余市,126.049774,44.988449
220800,吉林省白城市,白城市,吉林省,白城市,,122.839024,45.619641
220801,吉林省白城市市辖区,白城市市辖区,吉林省,白城市,,122.839024,45.619641
220802,吉林省白城市洮北区,洮北区,吉林省,白城市,洮北区,122.851029,45.621716
220821,吉林省白城市镇赉县,镇赉县,吉林省,白城市,镇赉县,123.19989,45.847435
220822,吉林省白城市通榆县,通榆县,吉林省,白城市,通榆县,123.088239,44.812911
220881,吉林省白城市洮南市,洮南市,吉林省,白城市,洮南市,122.783779,45.339113
220882,吉林省白城市大安市,大安市,吉林省,白城市,大安市,124.292626,45.506996
222400,吉林省延边朝鲜族自治州,延边朝鲜族自治州,吉林省,延边朝鲜族自治州,,129.508946,42.891253
222401,吉林省延边朝鲜族自治州延吉市,延吉市,吉林省,延边朝鲜族自治州,延吉市,129.508946,42.891255
222402,吉林省延边朝鲜族自治州图们市,图们市,吉林省,延边朝鲜族自治州,图们市,129.84371,42.968044
222403,吉林省延边朝鲜族自治州敦化市,敦化市,吉林省,延边朝鲜族自治州,敦化市,128.232013,43.372413
222404,吉林省延边朝鲜族自治州珲春市,珲春市,吉林省,延边朝鲜族自治州,珲春市,130.366036,42.862821
222405,吉林省延边朝鲜族自治州龙井市,龙井市,吉林省,延边朝鲜族自治州,龙井市,129.427066,42.766311
222406,吉林省延边朝鲜族自治州和龙市,和龙市,吉林省,延边朝鲜族自治州,和龙市,129.010106,42.546675
222424,吉林省延边朝鲜族自治州汪清县,汪清县,吉林省,延边朝鲜族自治州,汪清县,129.771607,43.312522
222426,吉林省延边朝鲜族自治州安图县,安图县,吉林省,延边朝鲜族自治州,安图县,128.899807,43.111964
230000,黑龙江省,黑龙江省,黑龙江省,,,126.661669,45.742347
230100,黑龙江省哈尔滨市,哈尔滨市,黑龙江省,哈尔滨市,,126.534967,45.803775
230101,黑龙江省哈尔滨市市辖区,哈尔滨市市辖区,黑龙江省,哈尔滨市,,126.534967,45.803775
230102,黑龙江省哈尔滨市道里区,道里区,黑龙江省,哈尔滨市,道里区,126.616957,45.755777
230103,黑龙江省哈尔滨市南岗区,南岗区,黑龙江省,哈尔滨市,南岗区,126.668788,45.75997
230104,黑龙江省哈尔滨市道外区,道外区,黑龙江省,哈尔滨市,道外区,126.649451,45.792113
230108,黑龙江省哈尔滨市平房区,平房区,黑龙江省,哈尔滨市,平房区,126.629257,45.605567
230109,黑龙江省哈尔滨市松北区,松北区,黑龙江省,哈尔滨市,松北区,126.510275,45.802756
230110,黑龙江省哈尔滨市香坊区,香坊区,黑龙江省,哈尔滨市,香坊区,126.662593,45.707716
230111,黑龙江省哈尔滨市呼兰区,呼兰区,黑龙江省,哈尔滨市,呼兰区,126.587709,45.889427
230112,黑龙江省哈尔滨市阿城区,阿城区,黑龙江省,哈尔滨市,阿城区,126.958098,45.54867
230113,黑龙江省哈尔滨市双城区,双城区,黑龙江省,哈尔滨市,双城区,126.312745,45.383263
230123,黑龙江省哈尔滨市依兰县,依兰县,黑龙江省,哈尔滨市,依兰县,129.567985,46.324534
230124,黑龙江省哈尔滨市方正县,方正县,黑龙江省,哈尔滨市,方正县,128.829536,45.851695
230125,黑龙江省哈尔滨市宾县,宾县,黑龙江省,哈尔滨市,宾县,127.466634,45.745918
230126,黑龙江省哈尔滨市巴彦县,巴彦县,黑龙江省,哈尔滨市,巴彦县,127.403182,46.085379
230127,黑龙江省哈尔滨市木兰县,木兰县,黑龙江省,哈尔滨市,木兰县,128.043466,45.950582
230128,黑龙江省哈尔滨市通河县,通河县,黑龙江省,哈尔滨市,通河县,128.749352,45.972425
230129,黑龙江省哈尔滨市延寿县,延寿县,黑龙江省,哈尔滨市,延寿县,128.331644,45.451897
230183,黑龙江省哈尔滨市尚志市,尚志市,黑龙江省,哈尔滨市,尚志市,128.009895,45.209586
230184,黑龙江省哈尔滨市五常市,五常市,黑龙江省,哈尔滨市,五常市,127.167619,44.931992
230200,黑龙江省齐齐哈尔市,齐齐哈尔市,黑龙江省,齐齐哈尔市,,123.918186,47.354348
230201,黑龙江省齐齐哈尔市市辖区,齐齐哈尔市市辖区,黑龙江省,齐齐哈尔市,,123.918186,47.354348
230202,黑龙江省齐齐哈尔市龙沙区,龙沙区,黑龙江省,齐齐哈尔市,龙沙区,123.957531,47.317309
230203,黑龙江省齐齐哈尔市建华区,建华区,黑龙江省,齐齐哈尔市,建华区,123.955464,47.354364
230204,黑龙江省齐齐哈尔市铁锋区,铁锋区,黑龙江省,齐齐哈尔市,铁锋区,123.978293,47.340518
230205,黑龙江省齐齐哈尔市昂昂溪区,昂昂溪区,黑龙江省,齐齐哈尔市,昂昂溪区,123.822401,47.15516
230206,黑龙江省齐齐哈尔市富拉尔基区,富拉尔基区,黑龙江省,齐齐哈尔市,富拉尔基区,123.62919,47.208843
230207,黑龙江省齐齐哈尔市碾子山区,碾子山区,黑龙江省,齐齐哈尔市,碾子山区,122.887775,47.516872
230208,黑龙江省齐齐哈尔市梅里斯达斡尔族区,梅里斯达斡尔族区,黑龙江省,齐齐哈尔市,梅里斯达斡尔族区,123.75291,47.309537
230221,黑龙江省齐齐哈尔市龙江县,龙江县,黑龙江省,齐齐哈尔市,龙江县,123.205323,47.338665
230223,黑龙江省齐齐哈尔市依安县,依安县,黑龙江省,齐齐哈尔市,依安县,125.306279,47.893548
230224,黑龙江省齐齐哈尔市泰来县,泰来县,黑龙江省,齐齐哈尔市,泰来县,123.416631,46.393694
230225,黑龙江省齐齐哈尔市甘南县,甘南县,黑龙江省,齐齐哈尔市,甘南县,123.507429,47.922406
230227,黑龙江省齐齐哈尔市富裕县,富裕县,黑龙江省,齐齐哈尔市,富裕县,124.473924,47.77455
230229,黑龙江省齐齐哈尔市克山县,克山县,黑龙江省,齐齐哈尔市,克山县,125.875705,48.037031
230230,黑龙江省齐齐哈尔市克东县,克东县,黑龙江省,齐齐哈尔市,克东县,126.248721,48.04206
230231,黑龙江省齐齐哈尔市拜泉县,拜泉县,黑龙江省,齐齐哈尔市,拜泉县,126.100213,47.595851
230281,黑龙江省齐齐哈尔市讷河市,讷河市,黑龙江省,齐齐哈尔市,讷河市,124.884244,48.484099
230300,黑龙江省鸡西市,鸡西市,黑龙江省,鸡西市,,130.969333,45.295075
230301,黑龙江省鸡西市市辖区,鸡西市市辖区,黑龙江省,鸡西市,,130.969333,45.295075
230302,黑龙江省鸡西市鸡冠区,鸡冠区,黑龙江省,鸡西市,鸡冠区,130.980894,45.304073
230303,黑龙江省鸡西市恒山区,恒山区,黑龙江省,鸡西市,恒山区,130.904963,45.210668
230304,黑龙江省鸡西市滴道区,滴道区,黑龙江省,鸡西市,滴道区,130.843613,45.348764
230305,黑龙江省鸡西市梨树区,梨树区,黑龙江省,鸡西市,梨树区,130.69699,45.092046
230306,黑龙江省鸡西市城子河区,城子河区,黑龙江省,鸡西市,城子河区,131.011304,45.33697
230307,黑龙江省鸡西市麻山区,麻山区,黑龙江省,鸡西市,麻山区,130.478187,45.212088
230321,黑龙江省鸡西市鸡东县,鸡东县,黑龙江省,鸡西市,鸡东县,131.12408,45.260412
230381,黑龙江省鸡西市虎林市,虎林市,黑龙江省,鸡西市,虎林市,132.93721,45.762686
230382,黑龙江省鸡西市密山市,密山市,黑龙江省,鸡西市,密山市,131.846636,45.529775
230400,黑龙江省鹤岗市,鹤岗市,黑龙江省,鹤岗市,,130.297964,47.349916
230401,黑龙江省鹤岗市市辖区,鹤岗市市辖区,黑龙江省,鹤岗市,,130.297964,47.349916
230402,黑龙江省鹤岗市向阳区,向阳区,黑龙江省,鹤岗市,向阳区,130.294309,47.342478
230403,黑龙江省鹤岗市工农区,工农区,黑龙江省,鹤岗市,工农区,130.274684,47.318781
230404,黑龙江省鹤岗市南山区,南山区,黑龙江省,鹤岗市,南山区,130.287057,47.315127
230405,黑龙江省鹤岗市兴安区,兴安区,黑龙江省,鹤岗市,兴安区,130.239245,47.25285
230406,黑龙江省鹤岗市东山区,东山区,黑龙江省,鹤岗市,东山区,130.317062,47.338535
230407,黑龙江省鹤岗市兴山区,兴山区,黑龙江省,鹤岗市,兴山区,130.303574,47.357666
230421,黑龙江省鹤岗市萝北县,萝北县,黑龙江省,鹤岗市,萝北县,130.828626,47.577495
230422,黑龙江省鹤岗市绥滨县,绥滨县,黑龙江省,鹤岗市,绥滨县,131.852759,47.289116
230500,黑龙江省双鸭山市,双鸭山市,黑龙江省,双鸭山市,,131.159133,46.646508
230501,黑龙江省双鸭山市市辖区,双鸭山市市辖区,黑龙江省,双鸭山市,,131.159133,46.646508
230502,黑龙江省双鸭山市尖山区,尖山区,黑龙江省,双鸭山市,尖山区,131.158416,46.64635
230503,黑龙江省双鸭山市岭东区,岭东区,黑龙江省,双鸭山市,岭东区,131.164724,46.592721
230505,黑龙江省双鸭山市四方台区,四方台区,黑龙江省,双鸭山市,四方台区,131.334503,46.594316
230506,黑龙江省双鸭山市宝山区,宝山区,黑龙江省,双鸭山市,宝山区,131.401589,46.577167
230521,黑龙江省双鸭山市集贤县,集贤县,黑龙江省,双鸭山市,集贤县,131.140483,46.728377
230522,黑龙江省双鸭山市友谊县,友谊县,黑龙江省,双鸭山市,友谊县,131.808064,46.767299
230523,黑龙江省双鸭山市宝清县,宝清县,黑龙江省,双鸭山市,宝清县,132.197243,46.326925
230524,黑龙江省双鸭山市饶河县,饶河县,黑龙江省,双鸭山市,饶河县,134.013872,46.798164
230600,黑龙江省大庆市,大庆市,黑龙江省,大庆市,,125.103784,46.589309
230601,黑龙江省大庆市市辖区,大庆市市辖区,黑龙江省,大庆市,,125.103784,46.589309
230602,黑龙江省大庆市萨尔图区,萨尔图区,黑龙江省,大庆市,萨尔图区,125.114643,46.596356
230603,黑龙江省大庆市龙凤区,龙凤区,黑龙江省,大庆市,龙凤区,125.135326,46.562247
230604,黑龙江省大庆市让胡路区,让胡路区,黑龙江省,大庆市,让胡路区,124.870597,46.652358
230605,黑龙江省大庆市红岗区,红岗区,黑龙江省,大庆市,红岗区,124.891039,46.398418
230606,黑龙江省大庆市大同区,大同区,黑龙江省,大庆市,大同区,124.812364,46.039828
230621,黑龙江省大庆市肇州县,肇州县,黑龙江省,大庆市,肇州县,125.268643,45.699066
230622,黑龙江省大庆市肇源县,肇源县,黑龙江省,大庆市,肇源县,125.078223,45.51932
230623,黑龙江省大庆市林甸县,林甸县,黑龙江省,大庆市,林甸县,124.863603,47.171717
230624,黑龙江省大庆市杜尔伯特蒙古族自治县,杜尔伯特蒙古族自治县,黑龙江省,大庆市,杜尔伯特蒙古族自治县,124.442572,46.862817
230700,黑龙江省伊春市,伊春市,黑龙江省,伊春市,,128.841147,47.727536
230701,黑龙江省伊春市市辖区,伊春市市辖区,黑龙江省,伊春市,,128.841147,47.727536
230702,黑龙江省伊春市伊春区,伊春区,黑龙江省,伊春市,伊春区,128.907303,47.728171
230703,黑龙江省伊春市南岔区,南岔区,黑龙江省,伊春市,南岔区,129.283467,47.138035
230704,黑龙江省伊春市友好区,友好区,黑龙江省,伊春市,友好区,128.84075,47.853778
230705,黑龙江省伊春市西林区,西林区,黑龙江省,伊春市,西林区,129.312851,47.480735
230706,黑龙江省伊春市翠峦区,翠峦区,黑龙江省,伊春市,翠峦区,128.669859,47.726728
230707,黑龙江省伊春市新青区,新青区,黑龙江省,伊春市,新青区,129.5336,48.290455
230708,黑龙江省伊春市美溪区,美溪区,黑龙江省,伊春市,美溪区,129.129314,47.63509
230709,黑龙江省伊春市金山屯区,金山屯区,黑龙江省,伊春市,金山屯区,129.429117,47.413074
230710,黑龙江省伊春市五营区,五营区,黑龙江省,伊春市,五营区,129.245344,48.10791
230711,黑龙江省伊春市乌马河区,乌马河区,黑龙江省,伊春市,乌马河区,128.799478,47.727687
230712,黑龙江省伊春市汤旺河区,汤旺河区,黑龙江省,伊春市,汤旺河区,129.571108,48.454651
230713,黑龙江省伊春市带岭区,带岭区,黑龙江省,伊春市,带岭区,129.020793,47.028397
230714,黑龙江省伊春市乌伊岭区,乌伊岭区,黑龙江省,伊春市,乌伊岭区,129.43792,48.590323
230715,黑龙江省伊春市红星区,红星区,黑龙江省,伊春市,红星区,129.390983,48.239432
230716,黑龙江省伊春市上甘岭区,上甘岭区,黑龙江省,伊春市,上甘岭区,129.02426,47.974708
230722,黑龙江省伊春市嘉荫县,嘉荫县,黑龙江省,伊春市,嘉荫县,130.403564,48.889109
230781,黑龙江省伊春市铁力市,铁力市,黑龙江省,伊春市,铁力市,128.032422,46.98664
230800,黑龙江省佳木斯市,佳木斯市,黑龙江省,佳木斯市,,130.318917,46.799922
230801,黑龙江省佳木斯市市辖区,佳木斯市市辖区,黑龙江省,佳木斯市,,130.318917,46.799922
230803,黑龙江省佳木斯市向阳区,向阳区,黑龙江省,佳木斯市,向阳区,130.365346,46.80779
230804,黑龙江省佳木斯市前进区,前进区,黑龙江省,佳木斯市,前进区,130.375063,46.814103
230805,黑龙江省佳木斯市东风区,东风区,黑龙江省,佳木斯市,东风区,130.403664,46.822572
230811,黑龙江省佳木斯市郊区,郊区,黑龙江省,佳木斯市,郊区,130.327195,46.810086
230822,黑龙江省佳木斯市桦南县,桦南县,黑龙江省,佳木斯市,桦南县,130.553343,46.239185
230826,黑龙江省佳木斯市桦川县,桦川县,黑龙江省,佳木斯市,桦川县,130.719081,47.023001
230828,黑龙江省佳木斯市汤原县,汤原县,黑龙江省,佳木斯市,汤原县,129.905072,46.730706
230881,黑龙江省佳木斯市同江市,同江市,黑龙江省,佳木斯市,同江市,132.510919,47.642707
230882,黑龙江省佳木斯市富锦市,富锦市,黑龙江省,佳木斯市,富锦市,132.037686,47.250108
230883,黑龙江省佳木斯市抚远市,抚远市,黑龙江省,佳木斯市,抚远市,134.307884,48.364687
230900,黑龙江省七台河市,七台河市,黑龙江省,七台河市,,131.003138,45.771726
230901,黑龙江省七台河市市辖区,七台河市市辖区,黑龙江省,七台河市,,131.003138,45.771726
230902,黑龙江省七台河市新兴区,新兴区,黑龙江省,七台河市,新兴区,130.932143,45.81593
230903,黑龙江省七台河市桃山区,桃山区,黑龙江省,七台河市,桃山区,131.020275,45.765594
230904,黑龙江省七台河市茄子河区,茄子河区,黑龙江省,七台河市,茄子河区,131.068075,45.785215
230921,黑龙江省七台河市勃利县,勃利县,黑龙江省,七台河市,勃利县,130.592093,45.755507
231000,黑龙江省牡丹江市,牡丹江市,黑龙江省,牡丹江市,,129.633168,44.551653
231001,黑龙江省牡丹江市市辖区,牡丹江市市辖区,黑龙江省,牡丹江市,,129.633168,44.551653
231002,黑龙江省牡丹江市东安区,东安区,黑龙江省,牡丹江市,东安区,129.626642,44.58136
231003,黑龙江省牡丹江市阳明区,阳明区,黑龙江省,牡丹江市,阳明区,129.635615,44.596104
231004,黑龙江省牡丹江市爱民区,爱民区,黑龙江省,牡丹江市,爱民区,129.591657,44.596053
231005,黑龙江省牡丹江市西安区,西安区,黑龙江省,牡丹江市,西安区,129.616121,44.577625
231025,黑龙江省牡丹江市林口县,林口县,黑龙江省,牡丹江市,林口县,130.284033,45.278046
231081,黑龙江省牡丹江市绥芬河市,绥芬河市,黑龙江省,牡丹江市,绥芬河市,131.152546,44.412309
231083,黑龙江省牡丹江市海林市,海林市,黑龙江省,牡丹江市,海林市,129.380482,44.594213
231084,黑龙江省牡丹江市宁安市,宁安市,黑龙江省,牡丹江市,宁安市,129.482851,44.34072
231085,黑龙江省牡丹江市穆棱市,穆棱市,黑龙江省,牡丹江市,穆棱市,130.524437,44.918813
231086,黑龙江省牡丹江市东宁市,东宁市,黑龙江省,牡丹江市,东宁市,131.122915,44.087585
231100,黑龙江省黑河市,黑河市,黑龙江省,黑河市,,127.52856,50.245329
231101,黑龙江省黑河市市辖区,黑河市市辖区,黑龙江省,黑河市,,127.52856,50.245329
231102,黑龙江省黑河市爱辉区,爱辉区,黑龙江省,黑河市,爱辉区,127.500451,50.252106
231121,黑龙江省黑河市嫩江县,嫩江县,黑龙江省,黑河市,嫩江县,125.221192,49.185766
231123,黑龙江省黑河市逊克县,逊克县,黑龙江省,黑河市,逊克县,128.47875,49.564252
231124,黑龙江省黑河市孙吴县,孙吴县,黑龙江省,黑河市,孙吴县,127.336304,49.425652
231181,黑龙江省黑河市北安市,北安市,黑龙江省,黑河市,北安市,126.491199,48.241374
231182,黑龙江省黑河市五大连池市,五大连池市,黑龙江省,黑河市,五大连池市,126.205516,48.517257
231200,黑龙江省绥化市,绥化市,黑龙江省,绥化市,,126.968887,46.653845
231201,黑龙江省绥化市市辖区,绥化市市辖区,黑龙江省,绥化市,,126.968887,46.653845
231202,黑龙江省绥化市北林区,北林区,黑龙江省,绥化市,北林区,126.985593,46.637344
231221,黑龙江省绥化市望奎县,望奎县,黑龙江省,绥化市,望奎县,126.486076,46.832719
231222,黑龙江省绥化市兰西县,兰西县,黑龙江省,绥化市,兰西县,126.288113,46.252447
231223,黑龙江省绥化市青冈县,青冈县,黑龙江省,绥化市,青冈县,126.11386,46.689671
231224,黑龙江省绥化市庆安县,庆安县,黑龙江省,绥化市,庆安县,127.507825,46.880102
231225,黑龙江省绥化市明水县,明水县,黑龙江省,绥化市,明水县,125.906301,47.173426
231226,黑龙江省绥化市绥棱县,绥棱县,黑龙江省,绥化市,绥棱县,127.114832,47.236015
231281,黑龙江省绥化市安达市,安达市,黑龙江省,绥化市,安达市,125.352188,46.423508
231282,黑龙江省绥化市肇东市,肇东市,黑龙江省,绥化市,肇东市,125.961814,46.051126
231283,黑龙江省绥化市海伦市,海伦市,黑龙江省,绥化市,海伦市,126.973143,47.461971
232700,黑龙江省大兴安岭地区,大兴安岭地区,黑龙江省,大兴安岭地区,,124.71108,52.335206
232718,黑龙江省大兴安岭地区加格达奇区,加格达奇区,黑龙江省,大兴安岭地区,加格达奇区,124.139584,50.408724
232721,黑龙江省大兴安岭地区呼玛县,呼玛县,黑龙江省,大兴安岭地区,呼玛县,126.665319,51.725637
232722,黑龙江省大兴安岭地区塔河县,塔河县,黑龙江省,大兴安岭地区,塔河县,124.709996,52.334457
232701,黑龙江省大兴安岭地区漠河县漠河,漠河市,黑龙江省,大兴安岭地区,漠河县,122.529619,52.970721
310000,上海市,上海市,上海市,上海市,,121.473701,31.230416
310100,上海市市辖区,上海市市辖区,上海市,上海市,,121.473701,31.230416
310101,上海市黄浦区,黄浦区,上海市,上海市,黄浦区,121.46924,31.22986
310104,上海市徐汇区,徐汇区,上海市,上海市,徐汇区,121.437866,31.19919
310105,上海市长宁区,长宁区,上海市,上海市,长宁区,121.424624,31.220367
310106,上海市静安区,静安区,上海市,上海市,静安区,121.459384,31.247105
310107,上海市普陀区,普陀区,上海市,上海市,普陀区,121.395555,31.24984
310109,上海市虹口区,虹口区,上海市,上海市,虹口区,121.505133,31.2646
310110,上海市杨浦区,杨浦区,上海市,上海市,杨浦区,121.526077,31.259541
310112,上海市闵行区,闵行区,上海市,上海市,闵行区,121.381709,31.112813
310113,上海市宝山区,宝山区,上海市,上海市,宝山区,121.489612,31.405457
310114,上海市嘉定区,嘉定区,上海市,上海市,嘉定区,121.2653,31.375602
310115,上海市浦东新区,浦东新区,上海市,上海市,浦东新区,121.544379,31.221517
310116,上海市金山区,金山区,上海市,上海市,金山区,121.34197,30.741991
310117,上海市松江区,松江区,上海市,上海市,松江区,121.227747,31.032243
310118,上海市青浦区,青浦区,上海市,上海市,青浦区,121.124178,31.150681
310120,上海市奉贤区,奉贤区,上海市,上海市,奉贤区,121.474042,30.917795
310151,上海市崇明区,崇明区,上海市,上海市,崇明区,121.397417,31.623587
320000,江苏省,江苏省,江苏省,,,118.763232,32.061707
320100,江苏省南京市,南京市,江苏省,南京市,,118.796877,32.060255
320101,江苏省南京市市辖区,南京市市辖区,江苏省,南京市,,118.796877,32.060255
320102,江苏省南京市玄武区,玄武区,江苏省,南京市,玄武区,118.797861,32.048687
320104,江苏省南京市秦淮区,秦淮区,江苏省,南京市,秦淮区,118.794744,32.039133
320105,江苏省南京市建邺区,建邺区,江苏省,南京市,建邺区,118.731694,32.003552
320106,江苏省南京市鼓楼区,鼓楼区,江苏省,南京市,鼓楼区,118.76979,32.066336
320111,江苏省南京市浦口区,浦口区,江苏省,南京市,浦口区,118.627895,32.059093
320113,江苏省南京市栖霞区,栖霞区,江苏省,南京市,栖霞区,118.909246,32.096228
320114,江苏省南京市雨花台区,雨花台区,江苏省,南京市,雨花台区,118.779073,31.991347
320115,江苏省南京市江宁区,江宁区,江苏省,南京市,江宁区,118.839685,31.953702
320116,江苏省南京市六合区,六合区,江苏省,南京市,六合区,118.821401,32.322247
320117,江苏省南京市溧水区,溧水区,江苏省,南京市,溧水区,119.02828,31.651133
320118,江苏省南京市高淳区,高淳区,江苏省,南京市,高淳区,118.892085,31.328471
320200,江苏省无锡市,无锡市,江苏省,无锡市,,120.31191,31.491169
320201,江苏省无锡市市辖区,无锡市市辖区,江苏省,无锡市,,120.31191,31.491169
320205,江苏省无锡市锡山区,锡山区,江苏省,无锡市,锡山区,120.357858,31.589715
320206,江苏省无锡市惠山区,惠山区,江苏省,无锡市,惠山区,120.2985,31.681012
320211,江苏省无锡市滨湖区,滨湖区,江苏省,无锡市,滨湖区,120.27175,31.470483
320213,江苏省无锡市梁溪区,梁溪区,江苏省,无锡市,梁溪区,120.296591,31.575719
320214,江苏省无锡市新吴区,新吴区,江苏省,无锡市,新吴区,120.352778,31.550957
320281,江苏省无锡市江阴市,江阴市,江苏省,无锡市,江阴市,120.284939,31.920658
320282,江苏省无锡市宜兴市,宜兴市,江苏省,无锡市,宜兴市,119.823308,31.340637
320300,江苏省徐州市,徐州市,江苏省,徐州市,,117.284124,34.205768
320301,江苏省徐州市市辖区,徐州市市辖区,江苏省,徐州市,,117.284124,34.205768
320302,江苏省徐州市鼓楼区,鼓楼区,江苏省,徐州市,鼓楼区,117.185591,34.288511
320303,江苏省徐州市云龙区,云龙区,江苏省,徐州市,云龙区,117.25156,34.253167
320305,江苏省徐州市贾汪区,贾汪区,江苏省,徐州市,贾汪区,117.466687,34.435506
320311,江苏省徐州市泉山区,泉山区,江苏省,徐州市,泉山区,117.193805,34.244258
320312,江苏省徐州市铜山区,铜山区,江苏省,徐州市,铜山区,117.169421,34.1807
320321,江苏省徐州市丰县,丰县,江苏省,徐州市,丰县,116.595391,34.693906
320322,江苏省徐州市沛县,沛县,江苏省,徐州市,沛县,116.937532,34.721656
320324,江苏省徐州市睢宁县,睢宁县,江苏省,徐州市,睢宁县,117.941563,33.912598
320381,江苏省徐州市新沂市,新沂市,江苏省,徐州市,新沂市,118.354537,34.36958
320382,江苏省徐州市邳州市,邳州市,江苏省,徐州市,邳州市,118.012531,34.338888
320400,江苏省常州市,常州市,江苏省,常州市,,119.973987,31.810689
320401,江苏省常州市市辖区,常州市市辖区,江苏省,常州市,,119.973987,31.810689
320402,江苏省常州市天宁区,天宁区,江苏省,常州市,天宁区,119.974991,31.779619
320404,江苏省常州市钟楼区,钟楼区,江苏省,常州市,钟楼区,119.902112,31.802192
320411,江苏省常州市新北区,新北区,江苏省,常州市,新北区,119.972182,31.830641
320412,江苏省常州市武进区,武进区,江苏省,常州市,武进区,119.942437,31.701188
320413,江苏省常州市金坛区,金坛区,江苏省,常州市,金坛区,119.597897,31.723247
320481,江苏省常州市溧阳市,溧阳市,江苏省,常州市,溧阳市,119.484211,31.416911
320500,江苏省苏州市,苏州市,江苏省,苏州市,,120.585315,31.298886
320501,江苏省苏州市市辖区,苏州市市辖区,江苏省,苏州市,,120.585315,31.298886
320505,江苏省苏州市虎丘区,虎丘区,江苏省,苏州市,虎丘区,120.566833,31.294845
320506,江苏省苏州市吴中区,吴中区,江苏省,苏州市,吴中区,120.631898,31.264212
320507,江苏省苏州市相城区,相城区,江苏省,苏州市,相城区,120.642663,31.369088
320508,江苏省苏州市姑苏区,姑苏区,江苏省,苏州市,姑苏区,120.617296,31.336392
320509,江苏省苏州市吴江区,吴江区,江苏省,苏州市,吴江区,120.645158,31.138677
320571,江苏省苏州市吴中区苏州工业园区,苏州工业园区,江苏省,苏州市,吴中区,120.80712,31.351219
320581,江苏省苏州市常熟市,常熟市,江苏省,苏州市,常熟市,120.752481,31.654376
320582,江苏省苏州市张家港市,张家港市,江苏省,苏州市,张家港市,120.479033,31.899861
320583,江苏省苏州市昆山市,昆山市,江苏省,苏州市,昆山市,120.980737,31.385598
320585,江苏省苏州市太仓市,太仓市,江苏省,苏州市,太仓市,121.13055,31.457735
320600,江苏省南通市,南通市,江苏省,南通市,,120.894291,31.980171
320601,江苏省南通市市辖区,南通市市辖区,江苏省,南通市,,120.894291,31.980171
320602,江苏省南通市崇川区,崇川区,江苏省,南通市,崇川区,120.857434,32.009875
320611,江苏省南通市港闸区,港闸区,江苏省,南通市,港闸区,120.818527,32.032442
320612,江苏省南通市通州区,通州区,江苏省,南通市,通州区,121.075087,32.064161
320685,江苏省南通市海安县海安,海安市,江苏省,南通市,海安县,120.429119,32.540848
320623,江苏省南通市如东县,如东县,江苏省,南通市,如东县,121.185201,32.331766
320681,江苏省南通市启东市,启东市,江苏省,南通市,启东市,121.657441,31.808026
320682,江苏省南通市如皋市,如皋市,江苏省,南通市,如皋市,120.574946,32.370557
320684,江苏省南通市海门市,海门市,江苏省,南通市,海门市,121.181615,31.871173
320700,江苏省连云港市,连云港市,江苏省,连云港市,,119.221611,34.596653
320701,江苏省连云港市市辖区,连云港市市辖区,江苏省,连云港市,,119.221611,34.596653
320703,江苏省连云港市连云区,连云区,江苏省,连云港市,连云区,119.338788,34.760249
320706,江苏省连云港市海州区,海州区,江苏省,连云港市,海州区,119.19371,34.606756
320707,江苏省连云港市赣榆区,赣榆区,江苏省,连云港市,赣榆区,119.173331,34.841349
320722,江苏省连云港市东海县,东海县,江苏省,连云港市,东海县,118.752842,34.542309
320723,江苏省连云港市灌云县,灌云县,江苏省,连云港市,灌云县,119.239381,34.284381
320724,江苏省连云港市灌南县,灌南县,江苏省,连云港市,灌南县,119.315651,34.087135
320800,江苏省淮安市,淮安市,江苏省,淮安市,,119.015285,33.610353
320801,江苏省淮安市市辖区,淮安市市辖区,江苏省,淮安市,,119.015285,33.610353
320803,江苏省淮安市淮安区,淮安区,江苏省,淮安市,淮安区,119.141099,33.502869
320804,江苏省淮安市淮阴区,淮阴区,江苏省,淮安市,淮阴区,119.034725,33.631893
320812,江苏省淮安市清江浦区,清江浦区,江苏省,淮安市,清江浦区,119.033,33.5059
320813,江苏省淮安市洪泽区,洪泽区,江苏省,淮安市,洪泽区,118.873138,33.294223
320826,江苏省淮安市涟水县,涟水县,江苏省,淮安市,涟水县,119.260335,33.78096
320830,江苏省淮安市盱眙县,盱眙县,江苏省,淮安市,盱眙县,118.54436,33.011971
320831,江苏省淮安市金湖县,金湖县,江苏省,淮安市,金湖县,119.020585,33.025433
320900,江苏省盐城市,盐城市,江苏省,盐城市,,120.163561,33.347382
320901,江苏省盐城市市辖区,盐城市市辖区,江苏省,盐城市,,120.163561,33.347382
320902,江苏省盐城市亭湖区,亭湖区,江苏省,盐城市,亭湖区,120.197358,33.390536
320903,江苏省盐城市盐都区,盐都区,江苏省,盐城市,盐都区,120.153898,33.338094
320904,江苏省盐城市大丰区,大丰区,江苏省,盐城市,大丰区,120.500858,33.200331
320921,江苏省盐城市响水县,响水县,江苏省,盐城市,响水县,119.578364,34.199479
320922,江苏省盐城市滨海县,滨海县,江苏省,盐城市,滨海县,119.820831,33.990334
320923,江苏省盐城市阜宁县,阜宁县,江苏省,盐城市,阜宁县,119.802527,33.759325
320924,江苏省盐城市射阳县,射阳县,江苏省,盐城市,射阳县,120.258053,33.774806
320925,江苏省盐城市建湖县,建湖县,江苏省,盐城市,建湖县,119.798581,33.464204
320981,江苏省盐城市东台市,东台市,江苏省,盐城市,东台市,120.320331,32.86844
321000,江苏省扬州市,扬州市,江苏省,扬州市,,119.412966,32.39421
321001,江苏省扬州市市辖区,扬州市市辖区,江苏省,扬州市,,119.412966,32.39421
321002,江苏省扬州市广陵区,广陵区,江苏省,扬州市,广陵区,119.431849,32.39472
321003,江苏省扬州市邗江区,邗江区,江苏省,扬州市,邗江区,119.398015,32.377528
321012,江苏省扬州市江都区,江都区,江苏省,扬州市,江都区,119.569989,32.434672
321023,江苏省扬州市宝应县,宝应县,江苏省,扬州市,宝应县,119.360729,33.240392
321081,江苏省扬州市仪征市,仪征市,江苏省,扬州市,仪征市,119.184766,32.272258
321084,江苏省扬州市高邮市,高邮市,江苏省,扬州市,高邮市,119.459161,32.781659
321100,江苏省镇江市,镇江市,江苏省,镇江市,,119.425836,32.187849
321101,江苏省镇江市市辖区,镇江市市辖区,江苏省,镇江市,,119.425836,32.187849
321102,江苏省镇江市京口区,京口区,江苏省,镇江市,京口区,119.47016,32.19828
321111,江苏省镇江市润州区,润州区,江苏省,镇江市,润州区,119.411945,32.195333
321112,江苏省镇江市丹徒区,丹徒区,江苏省,镇江市,丹徒区,119.433854,32.131962
321181,江苏省镇江市丹阳市,丹阳市,江苏省,镇江市,丹阳市,119.606536,32.010117
321182,江苏省镇江市扬中市,扬中市,江苏省,镇江市,扬中市,119.797635,32.234831
321183,江苏省镇江市句容市,句容市,江苏省,镇江市,句容市,119.168695,31.944999
321200,江苏省泰州市,泰州市,江苏省,泰州市,,119.923116,32.455778
321201,江苏省泰州市市辖区,泰州市市辖区,江苏省,泰州市,,119.923116,32.455778
321202,江苏省泰州市海陵区,海陵区,江苏省,泰州市,海陵区,119.919425,32.491016
321203,江苏省泰州市高港区,高港区,江苏省,泰州市,高港区,119.881717,32.318822
321204,江苏省泰州市姜堰区,姜堰区,江苏省,泰州市,姜堰区,120.127934,32.509155
321281,江苏省泰州市兴化市,兴化市,江苏省,泰州市,兴化市,119.852541,32.910459
321282,江苏省泰州市靖江市,靖江市,江苏省,泰州市,靖江市,120.277138,31.982751
321283,江苏省泰州市泰兴市,泰兴市,江苏省,泰州市,泰兴市,120.051744,32.171854
321300,江苏省宿迁市,宿迁市,江苏省,宿迁市,,118.275198,33.963232
321301,江苏省宿迁市市辖区,宿迁市市辖区,江苏省,宿迁市,,118.275198,33.963232
321302,江苏省宿迁市宿城区,宿城区,江苏省,宿迁市,宿城区,118.242534,33.963029
321311,江苏省宿迁市宿豫区,宿豫区,江苏省,宿迁市,宿豫区,118.330782,33.946822
321322,江苏省宿迁市沭阳县,沭阳县,江苏省,宿迁市,沭阳县,118.804784,34.111022
321323,江苏省宿迁市泗阳县,泗阳县,江苏省,宿迁市,泗阳县,118.703038,33.72314
321324,江苏省宿迁市泗洪县,泗洪县,江苏省,宿迁市,泗洪县,118.223591,33.476051
330000,浙江省,浙江省,浙江省,,,120.152791,30.267446
330100,浙江省杭州市,杭州市,浙江省,杭州市,,120.15507,30.274084
330101,浙江省杭州市市辖区,杭州市市辖区,浙江省,杭州市,,120.15507,30.274084
330102,浙江省杭州市上城区,上城区,浙江省,杭州市,上城区,120.184349,30.25446
330103,浙江省杭州市下城区,下城区,浙江省,杭州市,下城区,120.180895,30.281714
330104,浙江省杭州市江干区,江干区,浙江省,杭州市,江干区,120.213843,30.262661
330105,浙江省杭州市拱墅区,拱墅区,浙江省,杭州市,拱墅区,120.141406,30.319037
330106,浙江省杭州市西湖区,西湖区,浙江省,杭州市,西湖区,120.130203,30.259324
330108,浙江省杭州市滨江区,滨江区,浙江省,杭州市,滨江区,120.146505,30.16245
330109,浙江省杭州市萧山区,萧山区,浙江省,杭州市,萧山区,120.493286,30.28333
330110,浙江省杭州市余杭区,余杭区,浙江省,杭州市,余杭区,120.245433,30.409974
330111,浙江省杭州市富阳区,富阳区,浙江省,杭州市,富阳区,119.960076,30.048692
330112,临安区,临安区,浙江省,杭州市,,119.718891,30.237881
330122,浙江省杭州市桐庐县,桐庐县,浙江省,杭州市,桐庐县,119.691434,29.793535
330127,浙江省杭州市淳安县,淳安县,浙江省,杭州市,淳安县,119.041864,29.608772
330182,浙江省杭州市建德市,建德市,浙江省,杭州市,建德市,119.281213,29.474884
330200,浙江省宁波市,宁波市,浙江省,宁波市,,121.550357,29.874556
330201,浙江省宁波市市辖区,宁波市市辖区,浙江省,宁波市,,121.550357,29.874556
330203,浙江省宁波市海曙区,海曙区,浙江省,宁波市,海曙区,121.551066,29.859772
330205,浙江省宁波市江北区,江北区,浙江省,宁波市,江北区,121.555227,29.886757
330206,浙江省宁波市北仑区,北仑区,浙江省,宁波市,北仑区,121.844618,29.899044
330211,浙江省宁波市镇海区,镇海区,浙江省,宁波市,镇海区,121.71654,29.948998
330212,浙江省宁波市鄞州区,鄞州区,浙江省,宁波市,鄞州区,121.546603,29.816511
330213,浙江省宁波市奉化区,奉化区,浙江省,宁波市,奉化区,121.517574,29.569578
330225,浙江省宁波市象山县,象山县,浙江省,宁波市,象山县,121.869339,29.476705
330226,浙江省宁波市宁海县,宁海县,浙江省,宁波市,宁海县,121.429477,29.287939
330281,浙江省宁波市余姚市,余姚市,浙江省,宁波市,余姚市,121.154594,30.037858
330282,浙江省宁波市慈溪市,慈溪市,浙江省,宁波市,慈溪市,121.266579,30.169665
330300,浙江省温州市,温州市,浙江省,温州市,,120.699366,27.994267
330301,浙江省温州市市辖区,温州市市辖区,浙江省,温州市,,120.699366,27.994267
330302,浙江省温州市鹿城区,鹿城区,浙江省,温州市,鹿城区,120.655135,28.015455
330303,浙江省温州市龙湾区,龙湾区,浙江省,温州市,龙湾区,120.811213,27.932747
330304,浙江省温州市瓯海区,瓯海区,浙江省,温州市,瓯海区,120.708827,27.914241
330305,浙江省温州市洞头区,洞头区,浙江省,温州市,洞头区,121.157249,27.836154
330324,浙江省温州市永嘉县,永嘉县,浙江省,温州市,永嘉县,120.682144,28.150591
330326,浙江省温州市平阳县,平阳县,浙江省,温州市,平阳县,120.565793,27.661918
330327,浙江省温州市苍南县,苍南县,浙江省,温州市,苍南县,120.425766,27.51828
330328,浙江省温州市文成县,文成县,浙江省,温州市,文成县,120.091498,27.786996
330329,浙江省温州市泰顺县,泰顺县,浙江省,温州市,泰顺县,119.717649,27.556884
330381,浙江省温州市瑞安市,瑞安市,浙江省,温州市,瑞安市,120.655148,27.778657
330382,浙江省温州市乐清市,乐清市,浙江省,温州市,乐清市,120.967147,28.116083
330400,浙江省嘉兴市,嘉兴市,浙江省,嘉兴市,,120.755486,30.746129
330401,浙江省嘉兴市市辖区,嘉兴市市辖区,浙江省,嘉兴市,,120.755486,30.746129
330402,浙江省嘉兴市南湖区,南湖区,浙江省,嘉兴市,南湖区,120.783025,30.747842
330411,浙江省嘉兴市秀洲区,秀洲区,浙江省,嘉兴市,秀洲区,120.709018,30.765168
330421,浙江省嘉兴市嘉善县,嘉善县,浙江省,嘉兴市,嘉善县,120.92585,30.830898
330424,浙江省嘉兴市海盐县,海盐县,浙江省,嘉兴市,海盐县,120.946263,30.526436
330481,浙江省嘉兴市海宁市,海宁市,浙江省,嘉兴市,海宁市,120.680757,30.510659
330482,浙江省嘉兴市平湖市,平湖市,浙江省,嘉兴市,平湖市,121.015142,30.677233
330483,浙江省嘉兴市桐乡市,桐乡市,浙江省,嘉兴市,桐乡市,120.565099,30.630173
330500,浙江省湖州市,湖州市,浙江省,湖州市,,120.086823,30.894348
330501,浙江省湖州市市辖区,湖州市市辖区,浙江省,湖州市,,120.086823,30.894348
330502,浙江省湖州市吴兴区,吴兴区,浙江省,湖州市,吴兴区,120.185838,30.857151
330503,浙江省湖州市南浔区,南浔区,浙江省,湖州市,南浔区,120.418512,30.84969
330521,浙江省湖州市德清县,德清县,浙江省,湖州市,德清县,119.977401,30.54251
330522,浙江省湖州市长兴县,长兴县,浙江省,湖州市,长兴县,119.910952,31.026666
330523,浙江省湖州市安吉县,安吉县,浙江省,湖州市,安吉县,119.680353,30.638675
330600,浙江省绍兴市,绍兴市,浙江省,绍兴市,,120.580232,30.029752
330601,浙江省绍兴市市辖区,绍兴市市辖区,浙江省,绍兴市,,120.580232,30.029752
330602,浙江省绍兴市越城区,越城区,浙江省,绍兴市,越城区,120.582633,29.988245
330603,浙江省绍兴市柯桥区,柯桥区,浙江省,绍兴市,柯桥区,120.495065,30.081942
330604,浙江省绍兴市上虞区,上虞区,浙江省,绍兴市,上虞区,120.868122,30.033121
330624,浙江省绍兴市新昌县,新昌县,浙江省,绍兴市,新昌县,120.903866,29.499832
330681,浙江省绍兴市诸暨市,诸暨市,浙江省,绍兴市,诸暨市,120.246863,29.708692
330683,浙江省绍兴市嵊州市,嵊州市,浙江省,绍兴市,嵊州市,120.831025,29.56141
330700,浙江省金华市,金华市,浙江省,金华市,,119.647444,29.079059
330701,浙江省金华市市辖区,金华市市辖区,浙江省,金华市,,119.647444,29.079059
330702,浙江省金华市婺城区,婺城区,浙江省,金华市,婺城区,119.571633,29.086221
330703,浙江省金华市金东区,金东区,浙江省,金华市,金东区,119.692862,29.099122
330723,浙江省金华市武义县,武义县,浙江省,金华市,武义县,119.816318,28.892721
330726,浙江省金华市浦江县,浦江县,浙江省,金华市,浦江县,119.892222,29.452477
330727,浙江省金华市磐安县,磐安县,浙江省,金华市,磐安县,120.450178,29.054048
330781,浙江省金华市兰溪市,兰溪市,浙江省,金华市,兰溪市,119.460526,29.208919
330782,浙江省金华市义乌市,义乌市,浙江省,金华市,义乌市,120.075058,29.306841
330783,浙江省金华市东阳市,东阳市,浙江省,金华市,东阳市,120.241566,29.289648
330784,浙江省金华市永康市,永康市,浙江省,金华市,永康市,120.047651,28.888555
330800,浙江省衢州市,衢州市,浙江省,衢州市,,118.859457,28.970079
330801,浙江省衢州市市辖区,衢州市市辖区,浙江省,衢州市,,118.859457,28.970079
330802,浙江省衢州市柯城区,柯城区,浙江省,衢州市,柯城区,118.871333,28.968504
330803,浙江省衢州市衢江区,衢江区,浙江省,衢州市,衢江区,118.95946,28.97978
330822,浙江省衢州市常山县,常山县,浙江省,衢州市,常山县,118.511249,28.901463
330824,浙江省衢州市开化县,开化县,浙江省,衢州市,开化县,118.415495,29.137337
330825,浙江省衢州市龙游县,龙游县,浙江省,衢州市,龙游县,119.172304,29.028319
330881,浙江省衢州市江山市,江山市,浙江省,衢州市,江山市,118.626926,28.737245
330900,浙江省舟山市,舟山市,浙江省,舟山市,,122.207215,29.985295
330901,浙江省舟山市市辖区,舟山市市辖区,浙江省,舟山市,,122.207215,29.985295
330902,浙江省舟山市定海区,定海区,浙江省,舟山市,定海区,122.106773,30.019858
330903,浙江省舟山市普陀区,普陀区,浙江省,舟山市,普陀区,122.323867,29.97176
330921,浙江省舟山市岱山县,岱山县,浙江省,舟山市,岱山县,122.226237,30.264139
330922,浙江省舟山市嵊泗县,嵊泗县,浙江省,舟山市,嵊泗县,122.451382,30.725686
331000,浙江省台州市,台州市,浙江省,台州市,,121.420757,28.656386
331001,浙江省台州市市辖区,台州市市辖区,浙江省,台州市,,121.420757,28.656386
331002,浙江省台州市椒江区,椒江区,浙江省,台州市,椒江区,121.442676,28.673726
331003,浙江省台州市黄岩区,黄岩区,浙江省,台州市,黄岩区,121.261893,28.650117
331004,浙江省台州市路桥区,路桥区,浙江省,台州市,路桥区,121.365123,28.582655
331022,浙江省台州市三门县,三门县,浙江省,台州市,三门县,121.395777,29.104873
331023,浙江省台州市天台县,天台县,浙江省,台州市,天台县,121.006725,29.144079
331024,浙江省台州市仙居县,仙居县,浙江省,台州市,仙居县,120.735081,28.849213
331081,浙江省台州市温岭市,温岭市,浙江省,台州市,温岭市,121.385604,28.372506
331082,浙江省台州市临海市,临海市,浙江省,台州市,临海市,121.145047,28.858457
331083,浙江省台州市玉环市,玉环市,浙江省,台州市,玉环市,121.231805,28.13593
331100,浙江省丽水市,丽水市,浙江省,丽水市,,119.922796,28.46763
331101,浙江省丽水市市辖区,丽水市市辖区,浙江省,丽水市,,119.922796,28.46763
331102,浙江省丽水市莲都区,莲都区,浙江省,丽水市,莲都区,119.912612,28.445836
331121,浙江省丽水市青田县,青田县,浙江省,丽水市,青田县,120.282989,28.134088
331122,浙江省丽水市缙云县,缙云县,浙江省,丽水市,缙云县,120.091573,28.659279
331123,浙江省丽水市遂昌县,遂昌县,浙江省,丽水市,遂昌县,119.276104,28.592119
331124,浙江省丽水市松阳县,松阳县,浙江省,丽水市,松阳县,119.482015,28.449171
331125,浙江省丽水市云和县,云和县,浙江省,丽水市,云和县,119.573397,28.11579
331126,浙江省丽水市庆元县,庆元县,浙江省,丽水市,庆元县,119.06259,27.61922
331127,浙江省丽水市景宁畲族自治县,景宁畲族自治县,浙江省,丽水市,景宁畲族自治县,119.635697,27.973312
331181,浙江省丽水市龙泉市,龙泉市,浙江省,丽水市,龙泉市,119.141461,28.074623
340000,安徽省,安徽省,安徽省,,,117.284922,31.861184
340100,安徽省合肥市,合肥市,安徽省,合肥市,,117.227239,31.820586
340101,安徽省合肥市市辖区,合肥市市辖区,安徽省,合肥市,,117.227239,31.820586
340102,安徽省合肥市瑶海区,瑶海区,安徽省,合肥市,瑶海区,117.309229,31.858048
340103,安徽省合肥市庐阳区,庐阳区,安徽省,合肥市,庐阳区,117.264595,31.878641
340104,安徽省合肥市蜀山区,蜀山区,安徽省,合肥市,蜀山区,117.260536,31.851158
340111,安徽省合肥市包河区,包河区,安徽省,合肥市,包河区,117.309658,31.793093
340121,安徽省合肥市长丰县,长丰县,安徽省,合肥市,长丰县,117.167564,32.478018
340122,安徽省合肥市肥东县,肥东县,安徽省,合肥市,肥东县,117.469383,31.88794
340123,安徽省合肥市肥西县,肥西县,安徽省,合肥市,肥西县,117.157981,31.70681
340124,安徽省合肥市庐江县,庐江县,安徽省,合肥市,庐江县,117.2878,31.25555
340181,安徽省合肥市巢湖市,巢湖市,安徽省,合肥市,巢湖市,117.8618,31.598628
340200,安徽省芜湖市,芜湖市,安徽省,芜湖市,,118.432941,31.352859
340201,安徽省芜湖市市辖区,芜湖市市辖区,安徽省,芜湖市,,118.432941,31.352859
340202,安徽省芜湖市镜湖区,镜湖区,安徽省,芜湖市,镜湖区,118.385146,31.340404
340203,安徽省芜湖市弋江区,弋江区,安徽省,芜湖市,弋江区,118.372655,31.311757
340207,安徽省芜湖市鸠江区,鸠江区,安徽省,芜湖市,鸠江区,118.391734,31.369373
340208,安徽省芜湖市三山区,三山区,安徽省,芜湖市,三山区,118.268101,31.219568
340221,安徽省芜湖市芜湖县,芜湖县,安徽省,芜湖市,芜湖县,118.576124,31.134809
340222,安徽省芜湖市繁昌县,繁昌县,安徽省,芜湖市,繁昌县,118.201349,31.080896
340223,安徽省芜湖市南陵县,南陵县,安徽省,芜湖市,南陵县,118.33436,30.914923
340225,安徽省芜湖市无为县,无为县,安徽省,芜湖市,无为县,117.902366,31.303168
340300,安徽省蚌埠市,蚌埠市,安徽省,蚌埠市,,117.389719,32.916287
340301,安徽省蚌埠市市辖区,蚌埠市市辖区,安徽省,蚌埠市,,117.389719,32.916287
340302,安徽省蚌埠市龙子湖区,龙子湖区,安徽省,蚌埠市,龙子湖区,117.39379,32.943014
340303,安徽省蚌埠市蚌山区,蚌山区,安徽省,蚌埠市,蚌山区,117.367614,32.944198
340304,安徽省蚌埠市禹会区,禹会区,安徽省,蚌埠市,禹会区,117.342451,32.929711
340311,安徽省蚌埠市淮上区,淮上区,安徽省,蚌埠市,淮上区,117.359331,32.965435
340321,安徽省蚌埠市怀远县,怀远县,安徽省,蚌埠市,怀远县,117.205234,32.970031
340322,安徽省蚌埠市五河县,五河县,安徽省,蚌埠市,五河县,117.879486,33.127823
340323,安徽省蚌埠市固镇县,固镇县,安徽省,蚌埠市,固镇县,117.316955,33.316899
340400,安徽省淮南市,淮南市,安徽省,淮南市,,116.999932,32.625478
340401,安徽省淮南市市辖区,淮南市市辖区,安徽省,淮南市,,116.999932,32.625478
340402,安徽省淮南市大通区,大通区,安徽省,淮南市,大通区,117.053273,32.631533
340403,安徽省淮南市田家庵区,田家庵区,安徽省,淮南市,田家庵区,117.017409,32.647155
340404,安徽省淮南市谢家集区,谢家集区,安徽省,淮南市,谢家集区,116.859048,32.599901
340405,安徽省淮南市谢家集区,八公山区,安徽省,淮南市,谢家集区,116.83349,32.631379
340406,安徽省淮南市潘集区,潘集区,安徽省,淮南市,潘集区,116.834716,32.77208
340421,安徽省淮南市凤台县,凤台县,安徽省,淮南市,凤台县,116.711051,32.709445
340422,安徽省淮南市寿县,寿县,安徽省,淮南市,寿县,116.787141,32.573306
340500,安徽省马鞍山市,马鞍山市,安徽省,马鞍山市,,118.506759,31.670452
340501,安徽省马鞍山市市辖区,马鞍山市市辖区,安徽省,马鞍山市,,118.506759,31.670452
340503,安徽省马鞍山市花山区,花山区,安徽省,马鞍山市,花山区,118.492562,31.71971
340504,安徽省马鞍山市雨山区,雨山区,安徽省,马鞍山市,雨山区,118.49856,31.682208
340506,安徽省马鞍山市博望区,博望区,安徽省,马鞍山市,博望区,118.844538,31.558471
340521,安徽省马鞍山市当涂县,当涂县,安徽省,马鞍山市,当涂县,118.497972,31.571213
340522,安徽省马鞍山市含山县,含山县,安徽省,马鞍山市,含山县,118.101421,31.735599
340523,安徽省马鞍山市和县,和县,安徽省,马鞍山市,和县,118.351405,31.741794
340600,安徽省淮北市,淮北市,安徽省,淮北市,,116.798265,33.955844
340601,安徽省淮北市市辖区,淮北市市辖区,安徽省,淮北市,,116.798265,33.955844
340602,安徽省淮北市杜集区,杜集区,安徽省,淮北市,杜集区,116.828134,33.991451
340603,安徽省淮北市相山区,相山区,安徽省,淮北市,相山区,116.794345,33.959893
340604,安徽省淮北市烈山区,烈山区,安徽省,淮北市,烈山区,116.813042,33.895139
340621,安徽省淮北市濉溪县,濉溪县,安徽省,淮北市,濉溪县,116.766299,33.915477
340700,安徽省铜陵市,铜陵市,安徽省,铜陵市,,117.812079,30.945429
340701,安徽省铜陵市市辖区,铜陵市市辖区,安徽省,铜陵市,,117.812079,30.945429
340705,安徽省铜陵市铜官区,铜官区,安徽省,铜陵市,铜官区,117.816174,30.927608
340706,安徽省铜陵市义安区,义安区,安徽省,铜陵市,义安区,122.08244,41.0023195
340711,安徽省铜陵市郊区,郊区,安徽省,铜陵市,郊区,117.80707,30.908927
340722,安徽省铜陵市枞阳县,枞阳县,安徽省,铜陵市,枞阳县,117.250622,30.705963
340800,安徽省安庆市,安庆市,安徽省,安庆市,,117.063754,30.543494
340801,安徽省安庆市市辖区,安庆市市辖区,安徽省,安庆市,,117.063754,30.543494
340802,安徽省安庆市迎江区,迎江区,安徽省,安庆市,迎江区,117.09115,30.511548
340803,安徽省安庆市大观区,大观区,安徽省,安庆市,大观区,117.02167,30.553957
340811,安徽省安庆市宜秀区,宜秀区,安徽省,安庆市,宜秀区,117.070003,30.541323
340822,安徽省安庆市怀宁县,怀宁县,安徽省,安庆市,怀宁县,116.829475,30.733825
340824,安徽省安庆市潜山县潜山,潜山市,安徽省,安庆市,潜山县,116.57677,30.628638
340825,安徽省安庆市太湖县,太湖县,安徽省,安庆市,太湖县,116.308795,30.45422
340826,安徽省安庆市宿松县,宿松县,安徽省,安庆市,宿松县,116.129105,30.153746
340827,安徽省安庆市望江县,望江县,安徽省,安庆市,望江县,116.694183,30.124428
340828,安徽省安庆市岳西县,岳西县,安徽省,安庆市,岳西县,116.359921,30.849442
340881,安徽省安庆市桐城市,桐城市,安徽省,安庆市,桐城市,116.97412,31.0358
341000,安徽省黄山市,黄山市,安徽省,黄山市,,118.337481,29.714655
341001,安徽省黄山市市辖区,黄山市市辖区,安徽省,黄山市,,118.337481,29.714655
341002,安徽省黄山市屯溪区,屯溪区,安徽省,黄山市,屯溪区,118.315329,29.696109
341003,安徽省黄山市黄山区,黄山区,安徽省,黄山市,黄山区,118.141568,30.272942
341004,安徽省黄山市徽州区,徽州区,安徽省,黄山市,徽州区,118.336751,29.827279
341021,安徽省黄山市歙县,歙县,安徽省,黄山市,歙县,118.415356,29.861308
341022,安徽省黄山市休宁县,休宁县,安徽省,黄山市,休宁县,118.199179,29.789095
341023,安徽省黄山市黟县,黟县,安徽省,黄山市,黟县,117.938373,29.924805
341024,安徽省黄山市祁门县,祁门县,安徽省,黄山市,祁门县,117.717396,29.854055
341100,安徽省滁州市,滁州市,安徽省,滁州市,,118.317106,32.301556
341101,安徽省滁州市市辖区,滁州市市辖区,安徽省,滁州市,,118.317106,32.301556
341102,安徽省滁州市琅琊区,琅琊区,安徽省,滁州市,琅琊区,118.305843,32.29453
341103,安徽省滁州市琅琊区,南谯区,安徽省,滁州市,琅琊区,118.296955,32.329842
341122,安徽省滁州市来安县,来安县,安徽省,滁州市,来安县,118.435749,32.452167
341124,安徽省滁州市全椒县,全椒县,安徽省,滁州市,全椒县,118.27309,32.085407
341125,安徽省滁州市定远县,定远县,安徽省,滁州市,定远县,117.698563,32.530982
341126,安徽省滁州市凤阳县,凤阳县,安徽省,滁州市,凤阳县,117.531623,32.874735
341181,安徽省滁州市天长市,天长市,安徽省,滁州市,天长市,119.004817,32.667571
341182,安徽省滁州市明光市,明光市,安徽省,滁州市,明光市,118.018276,32.781995
341200,安徽省阜阳市,阜阳市,安徽省,阜阳市,,115.814204,32.890124
341201,安徽省阜阳市市辖区,阜阳市市辖区,安徽省,阜阳市,,115.814204,32.890124
341202,安徽省阜阳市颍州区,颍州区,安徽省,阜阳市,颍州区,115.806942,32.883468
341203,安徽省阜阳市颍东区,颍东区,安徽省,阜阳市,颍东区,115.856735,32.91248
341204,安徽省阜阳市颍泉区,颍泉区,安徽省,阜阳市,颍泉区,115.808327,32.924918
341221,安徽省阜阳市临泉县,临泉县,安徽省,阜阳市,临泉县,115.261473,33.040261
341222,安徽省阜阳市太和县,太和县,安徽省,阜阳市,太和县,115.621934,33.160326
341225,安徽省阜阳市阜南县,阜南县,安徽省,阜阳市,阜南县,115.595644,32.658297
341226,安徽省阜阳市颍上县,颍上县,安徽省,阜阳市,颍上县,116.256789,32.653255
341282,安徽省阜阳市界首市,界首市,安徽省,阜阳市,界首市,115.374564,33.257013
341300,安徽省宿州市,宿州市,安徽省,宿州市,,116.964356,33.646373
341301,安徽省宿州市市辖区,宿州市市辖区,安徽省,宿州市,,116.964356,33.646373
341302,安徽省宿州市埇桥区,埇桥区,安徽省,宿州市,埇桥区,116.977463,33.640061
341321,安徽省宿州市砀山县,砀山县,安徽省,宿州市,砀山县,116.367095,34.442561
341322,安徽省宿州市萧县,萧县,安徽省,宿州市,萧县,116.94729,34.188728
341323,安徽省宿州市灵璧县,灵璧县,安徽省,宿州市,灵璧县,117.552462,33.552998
341324,安徽省宿州市泗县,泗县,安徽省,宿州市,泗县,117.910629,33.482982
341500,安徽省六安市,六安市,安徽省,六安市,,116.521854,31.733699
341501,安徽省六安市市辖区,六安市市辖区,安徽省,六安市,,116.521854,31.733699
341502,安徽省六安市金安区,金安区,安徽省,六安市,金安区,116.539679,31.749265
341503,安徽省六安市裕安区,裕安区,安徽省,六安市,裕安区,116.47992,31.737813
341504,安徽省六安市叶集区,叶集区,安徽省,六安市,叶集区,115.908504,31.849165
341522,安徽省六安市霍邱县,霍邱县,安徽省,六安市,霍邱县,116.277912,32.353038
341523,安徽省六安市舒城县,舒城县,安徽省,六安市,舒城县,116.948623,31.462027
341524,安徽省六安市金寨县,金寨县,安徽省,六安市,金寨县,115.934366,31.72717
341525,安徽省六安市霍山县,霍山县,安徽省,六安市,霍山县,116.332951,31.392786
341600,安徽省亳州市,亳州市,安徽省,亳州市,,115.778676,33.844582
341601,安徽省亳州市市辖区,亳州市市辖区,安徽省,亳州市,,115.778676,33.844582
341602,安徽省亳州市谯城区,谯城区,安徽省,亳州市,谯城区,115.779025,33.876235
341621,安徽省亳州市涡阳县,涡阳县,安徽省,亳州市,涡阳县,116.215665,33.492921
341622,安徽省亳州市蒙城县,蒙城县,安徽省,亳州市,蒙城县,116.564248,33.265831
341623,安徽省亳州市利辛县,利辛县,安徽省,亳州市,利辛县,116.208635,33.144724
341700,安徽省池州市,池州市,安徽省,池州市,,117.491568,30.6648
341701,安徽省池州市市辖区,池州市市辖区,安徽省,池州市,,117.491568,30.6648
341702,安徽省池州市贵池区,贵池区,安徽省,池州市,贵池区,117.567379,30.687181
341721,安徽省池州市东至县,东至县,安徽省,池州市,东至县,117.027533,30.111182
341722,安徽省池州市石台县,石台县,安徽省,池州市,石台县,117.486306,30.210313
341723,安徽省池州市青阳县,青阳县,安徽省,池州市,青阳县,117.847362,30.63923
341800,安徽省宣城市,宣城市,安徽省,宣城市,,118.758816,30.940718
341801,安徽省宣城市市辖区,宣城市市辖区,安徽省,宣城市,,118.758816,30.940718
341802,安徽省宣城市宣州区,宣州区,安徽省,宣城市,宣州区,118.756328,30.946319
341821,安徽省宣城市郎溪县,郎溪县,安徽省,宣城市,郎溪县,119.179657,31.126412
341822,安徽省宣城市广德县,广德县,安徽省,宣城市,广德县,119.420935,30.877555
341823,安徽省宣城市泾县,泾县,安徽省,宣城市,泾县,118.419864,30.688578
341824,安徽省宣城市绩溪县,绩溪县,安徽省,宣城市,绩溪县,118.578519,30.067533
341825,安徽省宣城市旌德县,旌德县,安徽省,宣城市,旌德县,118.540487,30.28635
341881,安徽省宣城市宁国市,宁国市,安徽省,宣城市,宁国市,118.982915,30.633571
350000,福建省,福建省,福建省,,,119.295144,26.100779
350100,福建省福州市,福州市,福建省,福州市,,119.296494,26.074507
350101,福建省福州市市辖区,福州市市辖区,福建省,福州市,,119.296494,26.074507
350102,福建省福州市鼓楼区,鼓楼区,福建省,福州市,鼓楼区,119.303822,26.082294
350103,福建省福州市台江区,台江区,福建省,福州市,台江区,119.314054,26.052842
350104,福建省福州市仓山区,仓山区,福建省,福州市,仓山区,119.273546,26.046744
350105,福建省福州市马尾区,马尾区,福建省,福州市,马尾区,119.455589,25.9895
350111,福建省福州市晋安区,晋安区,福建省,福州市,晋安区,119.328515,26.082105
350112,福建省福州市长乐区长乐,长乐区,福建省,福州市,长乐区,119.5045,25.9605
350121,福建省福州市闽侯县,闽侯县,福建省,福州市,闽侯县,119.131725,26.150047
350122,福建省福州市连江县,连江县,福建省,福州市,连江县,119.539704,26.197364
350123,福建省福州市罗源县,罗源县,福建省,福州市,罗源县,119.549776,26.489559
350124,福建省福州市闽清县,闽清县,福建省,福州市,闽清县,118.863361,26.221198
350125,福建省福州市永泰县,永泰县,福建省,福州市,永泰县,118.932592,25.866695
350128,福建省福州市平潭县,平潭县,福建省,福州市,平潭县,119.790168,25.49872
350181,福建省福州市福清市,福清市,福建省,福州市,福清市,119.384334,25.721143
350200,福建省厦门市,厦门市,福建省,厦门市,,118.089425,24.479833
350201,福建省厦门市市辖区,厦门市市辖区,福建省,厦门市,,118.089425,24.479833
350203,福建省厦门市思明区,思明区,福建省,厦门市,思明区,118.082658,24.445567
350205,福建省厦门市海沧区,海沧区,福建省,厦门市,海沧区,118.032818,24.484503
350206,福建省厦门市湖里区,湖里区,福建省,厦门市,湖里区,118.146769,24.512905
350211,福建省厦门市集美区,集美区,福建省,厦门市,集美区,118.097337,24.57597
350212,福建省厦门市同安区,同安区,福建省,厦门市,同安区,118.152149,24.722747
350213,福建省厦门市翔安区,翔安区,福建省,厦门市,翔安区,118.248034,24.618544
350300,福建省莆田市,莆田市,福建省,莆田市,,119.007777,25.454084
350301,福建省莆田市市辖区,莆田市市辖区,福建省,莆田市,,119.007777,25.454084
350302,福建省莆田市城厢区,城厢区,福建省,莆田市,城厢区,118.993885,25.419319
350303,福建省莆田市涵江区,涵江区,福建省,莆田市,涵江区,119.11629,25.45872
350304,福建省莆田市荔城区,荔城区,福建省,莆田市,荔城区,119.015123,25.431979
350305,福建省莆田市秀屿区,秀屿区,福建省,莆田市,秀屿区,119.105528,25.318672
350322,福建省莆田市仙游县,仙游县,福建省,莆田市,仙游县,118.691601,25.362094
350400,福建省三明市,三明市,福建省,三明市,,117.638678,26.263406
350401,福建省三明市市辖区,三明市市辖区,福建省,三明市,,117.638678,26.263406
350402,福建省三明市梅列区,梅列区,福建省,三明市,梅列区,117.645856,26.271711
350403,福建省三明市三元区,三元区,福建省,三明市,三元区,117.608045,26.23402
350421,福建省三明市明溪县,明溪县,福建省,三明市,明溪县,117.201847,26.357379
350423,福建省三明市清流县,清流县,福建省,三明市,清流县,116.816909,26.177797
350424,福建省三明市宁化县,宁化县,福建省,三明市,宁化县,116.654365,26.261754
350425,福建省三明市大田县,大田县,福建省,三明市,大田县,117.847115,25.692699
350426,福建省三明市尤溪县,尤溪县,福建省,三明市,尤溪县,118.190467,26.170171
350427,福建省三明市沙县,沙县,福建省,三明市,沙县,117.79245,26.3973
350428,福建省三明市将乐县,将乐县,福建省,三明市,将乐县,117.471373,26.728953
350429,福建省三明市泰宁县,泰宁县,福建省,三明市,泰宁县,117.17574,26.900259
350430,福建省三明市建宁县,建宁县,福建省,三明市,建宁县,116.846084,26.830902
350481,福建省三明市永安市,永安市,福建省,三明市,永安市,117.374461,25.976394
350500,福建省泉州市,泉州市,福建省,泉州市,,118.675675,24.874132
350501,福建省泉州市市辖区,泉州市市辖区,福建省,泉州市,,118.675675,24.874132
350502,福建省泉州市鲤城区,鲤城区,福建省,泉州市,鲤城区,118.586884,24.907581
350503,福建省泉州市丰泽区,丰泽区,福建省,泉州市,丰泽区,118.668527,24.871018
350504,福建省泉州市洛江区,洛江区,福建省,泉州市,洛江区,118.671193,24.939751
350505,福建省泉州市泉港区,泉港区,福建省,泉州市,泉港区,118.916309,25.119815
350521,福建省泉州市惠安县,惠安县,福建省,泉州市,惠安县,118.796605,25.030781
350524,福建省泉州市安溪县,安溪县,福建省,泉州市,安溪县,118.186289,25.055955
350525,福建省泉州市永春县,永春县,福建省,泉州市,永春县,118.294048,25.321565
350526,福建省泉州市德化县,德化县,福建省,泉州市,德化县,118.241094,25.491494
350527,福建省泉州市金门县,金门县,福建省,泉州市,金门县,118.317089,24.432706
350581,福建省泉州市石狮市,石狮市,福建省,泉州市,石狮市,118.648066,24.732204
350582,福建省泉州市晋江市,晋江市,福建省,泉州市,晋江市,118.552365,24.781681
350583,福建省泉州市南安市,南安市,福建省,泉州市,南安市,118.386279,24.960385
350600,福建省漳州市,漳州市,福建省,漳州市,,117.647481,24.512948
350601,福建省漳州市市辖区,漳州市市辖区,福建省,漳州市,,117.647481,24.512948
350602,福建省漳州市芗城区,芗城区,福建省,漳州市,芗城区,117.653975,24.5109
350603,福建省漳州市龙文区,龙文区,福建省,漳州市,龙文区,117.709755,24.503113
350622,福建省漳州市云霄县,云霄县,福建省,漳州市,云霄县,117.339573,23.957936
350623,福建省漳州市漳浦县,漳浦县,福建省,漳州市,漳浦县,117.613808,24.117102
350624,福建省漳州市诏安县,诏安县,福建省,漳州市,诏安县,117.175185,23.711579
350625,福建省漳州市长泰县,长泰县,福建省,漳州市,长泰县,117.759153,24.625449
350626,福建省漳州市东山县,东山县,福建省,漳州市,东山县,117.430061,23.701262
350627,福建省漳州市南靖县,南靖县,福建省,漳州市,南靖县,117.357321,24.514654
350628,福建省漳州市平和县,平和县,福建省,漳州市,平和县,117.314891,24.363437
350629,福建省漳州市华安县,华安县,福建省,漳州市,华安县,117.534103,25.004425
350681,福建省漳州市龙海市,龙海市,福建省,漳州市,龙海市,117.818197,24.446706
350700,福建省南平市,南平市,福建省,南平市,,118.177708,26.641768
350701,福建省南平市市辖区,南平市市辖区,福建省,南平市,,118.177708,26.641768
350702,福建省南平市延平区,延平区,福建省,南平市,延平区,118.181894,26.637457
350703,福建省南平市建阳区,建阳区,福建省,南平市,建阳区,118.120464,27.331876
350721,福建省南平市顺昌县,顺昌县,福建省,南平市,顺昌县,117.810357,26.793288
350722,福建省南平市浦城县,浦城县,福建省,南平市,浦城县,118.541256,27.917263
350723,福建省南平市光泽县,光泽县,福建省,南平市,光泽县,117.334106,27.540988
350724,福建省南平市松溪县,松溪县,福建省,南平市,松溪县,118.785468,27.526232
350725,福建省南平市政和县,政和县,福建省,南平市,政和县,118.857642,27.366104
350781,福建省南平市邵武市,邵武市,福建省,南平市,邵武市,117.492534,27.340327
350782,福建省南平市武夷山市,武夷山市,福建省,南平市,武夷山市,118.03531,27.756648
350783,福建省南平市建瓯市,建瓯市,福建省,南平市,建瓯市,118.304988,27.022727
350800,福建省龙岩市,龙岩市,福建省,龙岩市,,117.017536,25.075123
350801,福建省龙岩市市辖区,龙岩市市辖区,福建省,龙岩市,,117.017536,25.075123
350802,福建省龙岩市新罗区,新罗区,福建省,龙岩市,新罗区,117.037264,25.098292
350803,福建省龙岩市永定区,永定区,福建省,龙岩市,永定区,116.732092,24.723962
350821,福建省龙岩市长汀县,长汀县,福建省,龙岩市,长汀县,116.357581,25.833531
350823,福建省龙岩市上杭县,上杭县,福建省,龙岩市,上杭县,116.420099,25.049518
350824,福建省龙岩市武平县,武平县,福建省,龙岩市,武平县,116.100408,25.095298
350825,福建省龙岩市连城县,连城县,福建省,龙岩市,连城县,116.754473,25.710539
350881,福建省龙岩市漳平市,漳平市,福建省,龙岩市,漳平市,117.419998,25.290185
350900,福建省宁德市,宁德市,福建省,宁德市,,119.547932,26.665617
350901,福建省宁德市市辖区,宁德市市辖区,福建省,宁德市,,119.547932,26.665617
350902,福建省宁德市蕉城区,蕉城区,福建省,宁德市,蕉城区,119.526299,26.660611
350921,福建省宁德市霞浦县,霞浦县,福建省,宁德市,霞浦县,120.005643,26.885204
350922,福建省宁德市古田县,古田县,福建省,宁德市,古田县,118.746284,26.577837
350923,福建省宁德市屏南县,屏南县,福建省,宁德市,屏南县,118.985895,26.908276
350924,福建省宁德市寿宁县,寿宁县,福建省,宁德市,寿宁县,119.514987,27.454479
350925,福建省宁德市周宁县,周宁县,福建省,宁德市,周宁县,119.339025,27.104591
350926,福建省宁德市柘荣县,柘荣县,福建省,宁德市,柘荣县,119.900609,27.233933
350981,福建省宁德市福安市,福安市,福建省,宁德市,福安市,119.652171,27.087184
350982,福建省宁德市福鼎市,福鼎市,福建省,宁德市,福鼎市,120.216978,27.324479
360000,江西省,江西省,江西省,,,115.909228,28.675696
360100,江西省南昌市,南昌市,江西省,南昌市,,115.858197,28.682892
360101,江西省南昌市市辖区,南昌市市辖区,江西省,南昌市,,115.858197,28.682892
360102,江西省南昌市东湖区,东湖区,江西省,南昌市,东湖区,115.899262,28.685085
360103,江西省南昌市西湖区,西湖区,江西省,南昌市,西湖区,115.877233,28.657595
360104,江西省南昌市青云谱区,青云谱区,江西省,南昌市,青云谱区,115.925749,28.621169
360105,江西省南昌市湾里区,湾里区,江西省,南昌市,湾里区,115.730847,28.714796
360111,江西省南昌市青山湖区,青山湖区,江西省,南昌市,青山湖区,115.962144,28.682985
360112,江西省南昌市新建区,新建区,江西省,南昌市,新建区,115.815278,28.692864
360121,江西省南昌市南昌县,南昌县,江西省,南昌市,南昌县,115.944304,28.545602
360123,江西省南昌市安义县,安义县,江西省,南昌市,安义县,115.549247,28.844507
360124,江西省南昌市进贤县,进贤县,江西省,南昌市,进贤县,116.26948,28.366913
360200,江西省景德镇市,景德镇市,江西省,景德镇市,,117.178419,29.268835
360201,江西省景德镇市市辖区,景德镇市市辖区,江西省,景德镇市,,117.178419,29.268835
360202,江西省景德镇市昌江区,昌江区,江西省,景德镇市,昌江区,117.183748,29.273435
360203,江西省景德镇市珠山区,珠山区,江西省,景德镇市,珠山区,117.202893,29.299923
360222,江西省景德镇市浮梁县,浮梁县,江西省,景德镇市,浮梁县,117.215086,29.351681
360281,江西省景德镇市乐平市,乐平市,江西省,景德镇市,乐平市,117.151796,28.97844
360300,江西省萍乡市,萍乡市,江西省,萍乡市,,113.854556,27.622768
360301,江西省萍乡市市辖区,萍乡市市辖区,江西省,萍乡市,,113.854556,27.622768
360302,江西省萍乡市安源区,安源区,江西省,萍乡市,安源区,113.87073,27.615202
360313,江西省萍乡市湘东区,湘东区,江西省,萍乡市,湘东区,113.733047,27.640075
360321,江西省萍乡市莲花县,莲花县,江西省,萍乡市,莲花县,113.961516,27.127658
360322,江西省萍乡市上栗县,上栗县,江西省,萍乡市,上栗县,113.795311,27.880302
360323,江西省萍乡市芦溪县,芦溪县,江西省,萍乡市,芦溪县,114.029828,27.630806
360400,江西省九江市,九江市,江西省,九江市,,116.00193,29.705077
360401,江西省九江市市辖区,九江市市辖区,江西省,九江市,,116.00193,29.705077
360402,江西省九江市濂溪区,濂溪区,江西省,九江市,濂溪区,115.989197,29.671694
360403,江西省九江市浔阳区,浔阳区,江西省,九江市,浔阳区,115.990301,29.727593
360404,江西省九江市柴桑区柴桑区,柴桑区,江西省,九江市,柴桑区,115.911323,29.608431
360423,江西省九江市武宁县,武宁县,江西省,九江市,武宁县,115.100578,29.256323
360424,江西省九江市修水县,修水县,江西省,九江市,修水县,114.546702,29.026022
360425,江西省九江市永修县,永修县,江西省,九江市,永修县,115.832453,29.012297
360426,江西省九江市德安县,德安县,江西省,九江市,德安县,115.767484,29.298738
360428,江西省九江市都昌县,都昌县,江西省,九江市,都昌县,116.204099,29.273194
360429,江西省九江市湖口县,湖口县,江西省,九江市,湖口县,116.251947,29.731101
360430,江西省九江市彭泽县,彭泽县,江西省,九江市,彭泽县,116.549359,29.896061
360481,江西省九江市瑞昌市,瑞昌市,江西省,九江市,瑞昌市,115.681337,29.675874
360482,江西省九江市共青城市,共青城市,江西省,九江市,共青城市,115.808844,29.248317
360483,江西省九江市庐山市,庐山市,江西省,九江市,庐山市,116.04506,29.448128
360500,江西省新余市,新余市,江西省,新余市,,114.917346,27.817808
360501,江西省新余市市辖区,新余市市辖区,江西省,新余市,,114.917346,27.817808
360502,江西省新余市渝水区,渝水区,江西省,新余市,渝水区,114.944646,27.800387
360521,江西省新余市分宜县,分宜县,江西省,新余市,分宜县,114.69205,27.814758
360600,江西省鹰潭市,鹰潭市,江西省,鹰潭市,,117.069202,28.260189
360601,江西省鹰潭市市辖区,鹰潭市市辖区,江西省,鹰潭市,,117.069202,28.260189
360602,江西省鹰潭市月湖区,月湖区,江西省,鹰潭市,月湖区,117.037137,28.239153
360603,江西省鹰潭市月湖区余江,余江区,江西省,鹰潭市,月湖区,117.013288,28.20601
360681,江西省鹰潭市贵溪市,贵溪市,江西省,鹰潭市,贵溪市,117.245497,28.292519
360700,江西省赣州市,赣州市,江西省,赣州市,,114.935029,25.831829
360701,江西省赣州市市辖区,赣州市市辖区,江西省,赣州市,,114.935029,25.831829
360702,江西省赣州市章贡区,章贡区,江西省,赣州市,章贡区,114.921171,25.817816
360703,江西省赣州市南康区,南康区,江西省,赣州市,南康区,114.968751,25.8757135
360704,江西省赣州市赣县区,赣县区,江西省,赣州市,赣县区,119.0765445,33.4163705
360722,江西省赣州市信丰县,信丰县,江西省,赣州市,信丰县,114.92283,25.386704
360723,江西省赣州市大余县,大余县,江西省,赣州市,大余县,114.362112,25.401314
360724,江西省赣州市上犹县,上犹县,江西省,赣州市,上犹县,114.551138,25.785172
360725,江西省赣州市崇义县,崇义县,江西省,赣州市,崇义县,114.308267,25.681784
360726,江西省赣州市安远县,安远县,江西省,赣州市,安远县,115.393922,25.136927
360727,江西省赣州市龙南县,龙南县,江西省,赣州市,龙南县,114.789873,24.911069
360728,江西省赣州市定南县,定南县,江西省,赣州市,定南县,115.027845,24.78441
360729,江西省赣州市全南县,全南县,江西省,赣州市,全南县,114.530125,24.742403
360730,江西省赣州市宁都县,宁都县,江西省,赣州市,宁都县,116.013621,26.470996
360731,江西省赣州市于都县,于都县,江西省,赣州市,于都县,115.415508,25.952069
360732,江西省赣州市兴国县,兴国县,江西省,赣州市,兴国县,115.36319,26.337937
360733,江西省赣州市会昌县,会昌县,江西省,赣州市,会昌县,115.786057,25.600272
360734,江西省赣州市寻乌县,寻乌县,江西省,赣州市,寻乌县,115.646636,24.963371
360735,江西省赣州市石城县,石城县,江西省,赣州市,石城县,116.346995,26.314775
360781,江西省赣州市瑞金市,瑞金市,江西省,赣州市,瑞金市,116.027135,25.885555
360800,江西省吉安市,吉安市,江西省,吉安市,,114.992509,27.113443
360801,江西省吉安市市辖区,吉安市市辖区,江西省,吉安市,,114.992509,27.113443
360802,江西省吉安市吉州区,吉州区,江西省,吉安市,吉州区,114.994764,27.143801
360803,江西省吉安市青原区,青原区,江西省,吉安市,青原区,115.014812,27.081977
360821,江西省吉安市吉安县,吉安县,江西省,吉安市,吉安县,114.907733,27.03989
360822,江西省吉安市吉水县,吉水县,江西省,吉安市,吉水县,115.135507,27.229632
360823,江西省吉安市峡江县,峡江县,江西省,吉安市,峡江县,115.316566,27.582901
360824,江西省吉安市新干县,新干县,江西省,吉安市,新干县,115.387052,27.740192
360825,江西省吉安市永丰县,永丰县,江西省,吉安市,永丰县,115.44432,27.318852
360826,江西省吉安市泰和县,泰和县,江西省,吉安市,泰和县,114.908869,26.78996
360827,江西省吉安市遂川县,遂川县,江西省,吉安市,遂川县,114.520537,26.313737
360828,江西省吉安市万安县,万安县,江西省,吉安市,万安县,114.786182,26.458254
360829,江西省吉安市安福县,安福县,江西省,吉安市,安福县,114.619893,27.392874
360830,江西省吉安市永新县,永新县,江西省,吉安市,永新县,114.243096,26.945002
360881,江西省吉安市井冈山市,井冈山市,江西省,吉安市,井冈山市,114.289228,26.748081
360900,江西省宜春市,宜春市,江西省,宜春市,,114.416778,27.815619
360901,江西省宜春市市辖区,宜春市市辖区,江西省,宜春市,,114.416778,27.815619
360902,江西省宜春市袁州区,袁州区,江西省,宜春市,袁州区,114.424657,27.798846
360921,江西省宜春市奉新县,奉新县,江西省,宜春市,奉新县,115.400491,28.688423
360922,江西省宜春市万载县,万载县,江西省,宜春市,万载县,114.445523,28.106004
360923,江西省宜春市上高县,上高县,江西省,宜春市,上高县,114.947831,28.238876
360924,江西省宜春市宜丰县,宜丰县,江西省,宜春市,宜丰县,114.803515,28.393666
360925,江西省宜春市靖安县,靖安县,江西省,宜春市,靖安县,115.362629,28.861479
360926,江西省宜春市铜鼓县,铜鼓县,江西省,宜春市,铜鼓县,114.371172,28.52077
360981,江西省宜春市丰城市,丰城市,江西省,宜春市,丰城市,115.771094,28.159142
360982,江西省宜春市樟树市,樟树市,江西省,宜春市,樟树市,115.546385,28.054814
360983,江西省宜春市高安市,高安市,江西省,宜春市,高安市,115.375616,28.417255
361000,江西省抚州市,抚州市,江西省,抚州市,,116.358181,27.949217
361001,江西省抚州市市辖区,抚州市市辖区,江西省,抚州市,,116.358181,27.949217
361002,江西省抚州市临川区,临川区,江西省,抚州市,临川区,116.371066,27.970596
361003,江西省抚州市东乡区,东乡区,江西省,抚州市,东乡区,116.60356,28.247697
361021,江西省抚州市南城县,南城县,江西省,抚州市,南城县,116.63704,27.569678
361022,江西省抚州市黎川县,黎川县,江西省,抚州市,黎川县,116.907681,27.282333
361023,江西省抚州市南丰县,南丰县,江西省,抚州市,南丰县,116.525725,27.218445
361024,江西省抚州市崇仁县,崇仁县,江西省,抚州市,崇仁县,116.061101,27.764394
361025,江西省抚州市乐安县,乐安县,江西省,抚州市,乐安县,115.830481,27.428765
361026,江西省抚州市宜黄县,宜黄县,江西省,抚州市,宜黄县,116.222128,27.546146
361027,江西省抚州市金溪县,金溪县,江西省,抚州市,金溪县,116.755058,27.918959
361028,江西省抚州市资溪县,资溪县,江西省,抚州市,资溪县,117.060264,27.706102
361030,江西省抚州市广昌县,广昌县,江西省,抚州市,广昌县,116.325757,26.837267
361100,上饶市,上饶市,江西省,上饶市,,117.943433,28.454863
361101,上饶市市辖区,上饶市市辖区,江西省,上饶市,,117.943433,28.454863
361102,江西省上饶市信州区,信州区,江西省,上饶市,信州区,117.96646,28.431002
361103,江西省上饶市广丰区,广丰区,江西省,上饶市,广丰区,118.19124,28.436286
361121,江西省上饶市广信区,上饶县,江西省,上饶市,广信区,117.90785,28.448983
361123,江西省上饶市玉山县,玉山县,江西省,上饶市,玉山县,118.245124,28.682055
361124,江西省上饶市铅山县,铅山县,江西省,上饶市,铅山县,117.709451,28.315217
361125,江西省上饶市横峰县,横峰县,江西省,上饶市,横峰县,117.596452,28.407118
361126,江西省上饶市弋阳县,弋阳县,江西省,上饶市,弋阳县,117.449588,28.378044
361127,江西省上饶市余干县,余干县,江西省,上饶市,余干县,116.695647,28.702302
361128,江西省上饶市鄱阳县,鄱阳县,江西省,上饶市,鄱阳县,116.699746,29.011699
361129,江西省上饶市万年县,万年县,江西省,上饶市,万年县,117.058445,28.694582
361130,江西省上饶市婺源县,婺源县,江西省,上饶市,婺源县,117.861798,29.248086
361181,江西省上饶市德兴市,德兴市,江西省,上饶市,德兴市,117.578713,28.946464
370000,山东省,山东省,山东省,,,117.020359,36.66853
370100,山东省济南市,济南市,山东省,济南市,,117.119999,36.651216
370101,山东省济南市市辖区,济南市市辖区,山东省,济南市,,117.119999,36.651216
370102,山东省济南市历下区,历下区,山东省,济南市,历下区,117.076455,36.666412
370103,山东省济南市市中区,市中区,山东省,济南市,市中区,116.997777,36.651474
370104,山东省济南市槐荫区,槐荫区,山东省,济南市,槐荫区,116.901224,36.651441
370105,山东省济南市天桥区,天桥区,山东省,济南市,天桥区,116.987492,36.678016
370112,山东省济南市历城区,历城区,山东省,济南市,历城区,117.065237,36.680017
370113,山东省济南市长清区,长清区,山东省,济南市,长清区,116.751937,36.553571
370114,山东省济南市章丘区,章丘区,山东省,济南市,章丘区,117.526228,36.681259
370124,山东省济南市平阴县,平阴县,山东省,济南市,平阴县,116.456187,36.289265
370115,山东省济南市历城区济阳,济阳区,山东省,济南市,历城区,117.042516,36.726342
370126,山东省济南市商河县,商河县,山东省,济南市,商河县,117.157207,37.30905
370200,山东省青岛市,青岛市,山东省,青岛市,,120.382639,36.067082
370201,山东省青岛市市辖区,青岛市市辖区,山东省,青岛市,,120.382639,36.067082
370202,山东省青岛市市南区,市南区,山东省,青岛市,市南区,120.385649,36.080305
370203,山东省青岛市市北区,市北区,山东省,青岛市,市北区,120.374731,36.087609
370211,山东省青岛市黄岛区,黄岛区,山东省,青岛市,黄岛区,120.04619,35.872664
370212,山东省青岛市崂山区,崂山区,山东省,青岛市,崂山区,120.468956,36.107538
370213,山东省青岛市李沧区,李沧区,山东省,青岛市,李沧区,120.432697,36.145463
370214,山东省青岛市城阳区,城阳区,山东省,青岛市,城阳区,120.39631,36.307064
370215,山东省青岛市即墨区即墨,即墨区,山东省,青岛市,即墨区,120.453079,36.388599
370281,山东省青岛市胶州市,胶州市,山东省,青岛市,胶州市,120.033382,36.26468
370283,山东省青岛市平度市,平度市,山东省,青岛市,平度市,119.988454,36.776875
370285,山东省青岛市莱西市,莱西市,山东省,青岛市,莱西市,120.51769,36.889084
370300,山东省淄博市,淄博市,山东省,淄博市,,118.054927,36.813487
370301,山东省淄博市市辖区,淄博市市辖区,山东省,淄博市,,118.054927,36.813487
370302,山东省淄博市淄川区,淄川区,山东省,淄博市,淄川区,117.966723,36.643452
370303,山东省淄博市张店区,张店区,山东省,淄博市,张店区,118.017913,36.806674
370304,山东省淄博市博山区,博山区,山东省,淄博市,博山区,117.861677,36.494721
370305,山东省淄博市临淄区,临淄区,山东省,淄博市,临淄区,118.309118,36.826981
370306,山东省淄博市周村区,周村区,山东省,淄博市,周村区,117.869886,36.803072
370321,山东省淄博市桓台县,桓台县,山东省,淄博市,桓台县,118.097923,36.959804
370322,山东省淄博市高青县,高青县,山东省,淄博市,高青县,117.826916,37.171063
370323,山东省淄博市沂源县,沂源县,山东省,淄博市,沂源县,118.170856,36.185038
370400,山东省枣庄市,枣庄市,山东省,枣庄市,,117.323725,34.810487
370401,山东省枣庄市市辖区,枣庄市市辖区,山东省,枣庄市,,117.323725,34.810487
370402,山东省枣庄市市中区,市中区,山东省,枣庄市,市中区,117.556123,34.864114
370403,山东省枣庄市薛城区,薛城区,山东省,枣庄市,薛城区,117.263164,34.795063
370404,山东省枣庄市峄城区,峄城区,山东省,枣庄市,峄城区,117.590816,34.773263
370405,山东省枣庄市台儿庄区,台儿庄区,山东省,枣庄市,台儿庄区,117.733832,34.562528
370406,山东省枣庄市山亭区,山亭区,山东省,枣庄市,山亭区,117.461517,35.099528
370481,山东省枣庄市滕州市,滕州市,山东省,枣庄市,滕州市,117.165824,35.114156
370500,山东省东营市,东营市,山东省,东营市,,118.674767,37.434751
370501,山东省东营市市辖区,东营市市辖区,山东省,东营市,,118.674767,37.434751
370502,山东省东营市东营区,东营区,山东省,东营市,东营区,118.582184,37.448963
370503,山东省东营市河口区,河口区,山东省,东营市,河口区,118.525543,37.886162
370505,山东省东营市垦利区,垦利区,山东省,东营市,垦利区,118.7290685,37.6946695
370522,山东省东营市利津县,利津县,山东省,东营市,利津县,118.255273,37.49026
370523,山东省东营市广饶县,广饶县,山东省,东营市,广饶县,118.407107,37.053555
370600,山东省烟台市,烟台市,山东省,烟台市,,121.447935,37.463822
370601,山东省烟台市市辖区,烟台市市辖区,山东省,烟台市,,121.447935,37.463822
370602,山东省烟台市芝罘区,芝罘区,山东省,烟台市,芝罘区,121.400031,37.540687
370611,山东省烟台市福山区,福山区,山东省,烟台市,福山区,121.267741,37.498246
370612,山东省烟台市牟平区,牟平区,山东省,烟台市,牟平区,121.600512,37.386901
370613,山东省烟台市莱山区,莱山区,山东省,烟台市,莱山区,121.445151,37.511361
370634,山东省烟台市长岛县,长岛县,山东省,烟台市,长岛县,120.73658,37.921368
370681,山东省烟台市龙口市,龙口市,山东省,烟台市,龙口市,120.477813,37.646108
370682,山东省烟台市莱阳市,莱阳市,山东省,烟台市,莱阳市,120.711673,36.978941
370683,山东省烟台市莱州市,莱州市,山东省,烟台市,莱州市,119.942327,37.177017
370684,山东省烟台市蓬莱市,蓬莱市,山东省,烟台市,蓬莱市,120.758848,37.810661
370685,山东省烟台市招远市,招远市,山东省,烟台市,招远市,120.434072,37.355469
370686,山东省烟台市栖霞市,栖霞市,山东省,烟台市,栖霞市,120.849675,37.335123
370687,山东省烟台市海阳市,海阳市,山东省,烟台市,海阳市,121.158434,36.776378
370700,山东省潍坊市,潍坊市,山东省,潍坊市,,119.161755,36.706774
370701,山东省潍坊市市辖区,潍坊市市辖区,山东省,潍坊市,,119.161755,36.706774
370702,山东省潍坊市潍城区,潍城区,山东省,潍坊市,潍城区,119.024836,36.7281
370703,山东省潍坊市寒亭区,寒亭区,山东省,潍坊市,寒亭区,119.219734,36.775491
370704,山东省潍坊市坊子区,坊子区,山东省,潍坊市,坊子区,119.166485,36.654448
370705,山东省潍坊市奎文区,奎文区,山东省,潍坊市,奎文区,119.132486,36.707676
370724,山东省潍坊市临朐县,临朐县,山东省,潍坊市,临朐县,118.542982,36.512506
370725,山东省潍坊市昌乐县,昌乐县,山东省,潍坊市,昌乐县,118.829996,36.706938
370781,山东省潍坊市青州市,青州市,山东省,潍坊市,青州市,118.479636,36.6846
370782,山东省潍坊市诸城市,诸城市,山东省,潍坊市,诸城市,119.410103,35.995654
370783,山东省潍坊市寿光市,寿光市,山东省,潍坊市,寿光市,118.790652,36.85548
370784,山东省潍坊市安丘市,安丘市,山东省,潍坊市,安丘市,119.218843,36.478494
370785,山东省潍坊市高密市,高密市,山东省,潍坊市,高密市,119.755597,36.382595
370786,山东省潍坊市昌邑市,昌邑市,山东省,潍坊市,昌邑市,119.398525,36.85882
370800,山东省济宁市,济宁市,山东省,济宁市,,116.587098,35.414921
370801,山东省济宁市市辖区,济宁市市辖区,山东省,济宁市,,116.587098,35.414921
370811,山东省济宁市任城区,任城区,山东省,济宁市,任城区,116.59505,35.406596
370812,山东省济宁市兖州区,兖州区,山东省,济宁市,兖州区,116.783834,35.553144
370826,山东省济宁市微山县,微山县,山东省,济宁市,微山县,117.128828,34.806554
370827,山东省济宁市鱼台县,鱼台县,山东省,济宁市,鱼台县,116.650608,35.012749
370828,山东省济宁市金乡县,金乡县,山东省,济宁市,金乡县,116.311532,35.06662
370829,山东省济宁市嘉祥县,嘉祥县,山东省,济宁市,嘉祥县,116.342442,35.407829
370830,山东省济宁市汶上县,汶上县,山东省,济宁市,汶上县,116.489043,35.732799
370831,山东省济宁市泗水县,泗水县,山东省,济宁市,泗水县,117.251195,35.664323
370832,山东省济宁市梁山县,梁山县,山东省,济宁市,梁山县,116.096044,35.802306
370881,山东省济宁市曲阜市,曲阜市,山东省,济宁市,曲阜市,116.986503,35.580996
370883,山东省济宁市邹城市,邹城市,山东省,济宁市,邹城市,117.003743,35.405185
370900,山东省泰安市,泰安市,山东省,泰安市,,117.087614,36.200252
370901,山东省泰安市市辖区,泰安市市辖区,山东省,泰安市,,117.087614,36.200252
370902,山东省泰安市泰山区,泰山区,山东省,泰安市,泰山区,117.135354,36.192084
370911,山东省泰安市岱岳区,岱岳区,山东省,泰安市,岱岳区,117.041582,36.18799
370921,山东省泰安市宁阳县,宁阳县,山东省,泰安市,宁阳县,116.805797,35.758787
370923,山东省泰安市东平县,东平县,山东省,泰安市,东平县,116.470304,35.937102
370982,山东省泰安市新泰市,新泰市,山东省,泰安市,新泰市,117.767953,35.909032
370983,山东省泰安市肥城市,肥城市,山东省,泰安市,肥城市,116.768358,36.182572
371000,山东省威海市,威海市,山东省,威海市,,122.120419,37.513068
371001,山东省威海市市辖区,威海市市辖区,山东省,威海市,,122.120419,37.513068
371002,山东省威海市环翠区,环翠区,山东省,威海市,环翠区,122.123444,37.501991
371003,山东省威海市文登区,文登区,山东省,威海市,文登区,122.057941,37.193886
371082,山东省威海市荣成市,荣成市,山东省,威海市,荣成市,122.486658,37.16516
371083,山东省威海市乳山市,乳山市,山东省,威海市,乳山市,121.539765,36.919816
371100,山东省日照市,日照市,山东省,日照市,,119.526888,35.416377
371101,山东省日照市市辖区,日照市市辖区,山东省,日照市,,119.526888,35.416377
371102,山东省日照市东港区,东港区,山东省,日照市,东港区,119.462249,35.42547
371103,山东省日照市岚山区,岚山区,山东省,日照市,岚山区,119.318929,35.121884
371121,山东省日照市五莲县,五莲县,山东省,日照市,五莲县,119.206763,35.751927
371122,山东省日照市莒县,莒县,山东省,日照市,莒县,118.837064,35.579868
370116,山东省济南市莱芜区,莱芜区,山东省,济南市,莱芜区,116.4956035,39.989314
370117,山东省济南市钢城区,钢城区,山东省,济南市,钢城区,117.6867965,36.2148525
371300,山东省临沂市,临沂市,山东省,临沂市,,118.356448,35.104672
371301,山东省临沂市市辖区,临沂市市辖区,山东省,临沂市,,118.356448,35.104672
371302,山东省临沂市兰山区,兰山区,山东省,临沂市,兰山区,118.347731,35.051734
371311,山东省临沂市罗庄区,罗庄区,山东省,临沂市,罗庄区,118.284786,34.996741
371312,山东省临沂市河东区,河东区,山东省,临沂市,河东区,118.402893,35.089917
371321,山东省临沂市沂南县,沂南县,山东省,临沂市,沂南县,118.465213,35.549976
371322,山东省临沂市郯城县,郯城县,山东省,临沂市,郯城县,118.367263,34.613557
371323,山东省临沂市沂水县,沂水县,山东省,临沂市,沂水县,118.627918,35.79045
371324,山东省临沂市兰陵县,兰陵县,山东省,临沂市,兰陵县,118.07065,34.857149
371325,山东省临沂市费县,费县,山东省,临沂市,费县,117.977325,35.265961
371326,山东省临沂市平邑县,平邑县,山东省,临沂市,平邑县,117.640352,35.505943
371327,山东省临沂市莒南县,莒南县,山东省,临沂市,莒南县,118.835163,35.174846
371328,山东省临沂市蒙阴县,蒙阴县,山东省,临沂市,蒙阴县,117.945085,35.710032
371329,山东省临沂市临沭县,临沭县,山东省,临沂市,临沭县,118.650782,34.919852
371400,山东省德州市,德州市,山东省,德州市,,116.357464,37.434092
371401,山东省德州市市辖区,德州市市辖区,山东省,德州市,,116.357464,37.434092
371402,山东省德州市德城区,德城区,山东省,德州市,德城区,116.299471,37.450805
371403,山东省德州市陵城区,陵城区,山东省,德州市,陵城区,116.576092,37.335794
371422,山东省德州市宁津县,宁津县,山东省,德州市,宁津县,116.800306,37.65219
371423,山东省德州市庆云县,庆云县,山东省,德州市,庆云县,117.385257,37.77535
371424,山东省德州市临邑县,临邑县,山东省,德州市,临邑县,116.8668,37.189798
371425,山东省德州市齐河县,齐河县,山东省,德州市,齐河县,116.76281,36.783415
371426,山东省德州市平原县,平原县,山东省,德州市,平原县,116.434056,37.165314
371427,山东省德州市夏津县,夏津县,山东省,德州市,夏津县,116.001726,36.948371
371428,山东省德州市武城县,武城县,山东省,德州市,武城县,116.069302,37.213311
371481,山东省德州市乐陵市,乐陵市,山东省,德州市,乐陵市,117.231935,37.729907
371482,山东省德州市禹城市,禹城市,山东省,德州市,禹城市,116.638327,36.933812
371500,山东省聊城市,聊城市,山东省,聊城市,,115.985371,36.456703
371501,山东省聊城市市辖区,聊城市市辖区,山东省,聊城市,,115.985371,36.456703
371502,山东省聊城市东昌府区,东昌府区,山东省,聊城市,东昌府区,115.988491,36.434645
371521,山东省聊城市阳谷县,阳谷县,山东省,聊城市,阳谷县,115.79182,36.114392
371522,山东省聊城市莘县,莘县,山东省,聊城市,莘县,115.671191,36.233598
371523,山东省聊城市茌平县,茌平县,山东省,聊城市,茌平县,116.25527,36.580689
371524,山东省聊城市东阿县,东阿县,山东省,聊城市,东阿县,116.24758,36.334917
371525,山东省聊城市冠县,冠县,山东省,聊城市,冠县,115.44274,36.484009
371526,山东省聊城市高唐县,高唐县,山东省,聊城市,高唐县,116.230158,36.846755
371581,山东省聊城市临清市,临清市,山东省,聊城市,临清市,115.704881,36.838277
371600,山东省滨州市,滨州市,山东省,滨州市,,117.970703,37.38199
371601,山东省滨州市市辖区,滨州市市辖区,山东省,滨州市,,117.970703,37.38199
371602,山东省滨州市滨城区,滨城区,山东省,滨州市,滨城区,118.019326,37.430724
371603,山东省滨州市沾化区,沾化区,山东省,滨州市,沾化区,118.098902,37.69926
371621,山东省滨州市惠民县,惠民县,山东省,滨州市,惠民县,117.509921,37.489877
371622,山东省滨州市阳信县,阳信县,山东省,滨州市,阳信县,117.578262,37.641106
371623,山东省滨州市无棣县,无棣县,山东省,滨州市,无棣县,117.625696,37.77026
371625,山东省滨州市博兴县,博兴县,山东省,滨州市,博兴县,118.131815,37.150226
371681,山东省滨州市邹平县邹平,邹平市,山东省,滨州市,邹平县,117.766654,36.874334
371700,山东省菏泽市,菏泽市,山东省,菏泽市,,115.480656,35.23375
371701,山东省菏泽市市辖区,菏泽市市辖区,山东省,菏泽市,,115.480656,35.23375
371702,山东省菏泽市牡丹区,牡丹区,山东省,菏泽市,牡丹区,115.417827,35.252512
371703,山东省菏泽市定陶区,定陶区,山东省,菏泽市,定陶区,115.569619,35.072701
371721,山东省菏泽市曹县,曹县,山东省,菏泽市,曹县,115.542328,34.825508
371722,山东省菏泽市单县,单县,山东省,菏泽市,单县,116.107428,34.778808
371723,山东省菏泽市成武县,成武县,山东省,菏泽市,成武县,115.889765,34.952459
371724,山东省菏泽市巨野县,巨野县,山东省,菏泽市,巨野县,116.065396,35.387374
371725,山东省菏泽市郓城县,郓城县,山东省,菏泽市,郓城县,115.943613,35.599758
371726,山东省菏泽市鄄城县,鄄城县,山东省,菏泽市,鄄城县,115.510193,35.563408
371728,山东省菏泽市东明县,东明县,山东省,菏泽市,东明县,115.089905,35.289368
410000,河南省,河南省,河南省,,,113.753602,34.765515
410100,河南省郑州市,郑州市,河南省,郑州市,,113.625368,34.746599
410101,河南省郑州市市辖区,郑州市市辖区,河南省,郑州市,,113.625368,34.746599
410102,河南省郑州市中原区,中原区,河南省,郑州市,中原区,113.61285,34.748257
410103,河南省郑州市二七区,二七区,河南省,郑州市,二七区,113.640179,34.72393
410104,河南省郑州市管城回族区,管城回族区,河南省,郑州市,管城回族区,113.677548,34.7545
410105,河南省郑州市金水区,金水区,河南省,郑州市,金水区,113.660555,34.800156
410106,河南省郑州市上街区,上街区,河南省,郑州市,上街区,113.308961,34.80278
410108,河南省郑州市惠济区,惠济区,河南省,郑州市,惠济区,113.616901,34.867458
410122,河南省郑州市中牟县,中牟县,河南省,郑州市,中牟县,113.976181,34.71895
410181,河南省郑州市巩义市,巩义市,河南省,郑州市,巩义市,113.022497,34.747834
410182,河南省郑州市荥阳市,荥阳市,河南省,郑州市,荥阳市,113.440457,34.745585
410183,河南省郑州市新密市,新密市,河南省,郑州市,新密市,113.390891,34.539443
410184,河南省郑州市新郑市,新郑市,河南省,郑州市,新郑市,113.740529,34.395562
410185,河南省郑州市登封市,登封市,河南省,郑州市,登封市,113.050492,34.453667
410200,河南省开封市,开封市,河南省,开封市,,114.307581,34.797239
410201,河南省开封市市辖区,开封市市辖区,河南省,开封市,,114.307581,34.797239
410202,河南省开封市龙亭区,龙亭区,河南省,开封市,龙亭区,114.35473,34.815784
410203,河南省开封市顺河回族区,顺河回族区,河南省,开封市,顺河回族区,114.364875,34.800459
410204,河南省开封市鼓楼区,鼓楼区,河南省,开封市,鼓楼区,114.348307,34.788561
410205,河南省开封市禹王台区,禹王台区,河南省,开封市,禹王台区,114.34817,34.777104
410212,河南省开封市祥符区,祥符区,河南省,开封市,祥符区,114.441327,34.756921
410221,河南省开封市杞县,杞县,河南省,开封市,杞县,114.783041,34.549166
410222,河南省开封市通许县,通许县,河南省,开封市,通许县,114.467467,34.480433
410223,河南省开封市尉氏县,尉氏县,河南省,开封市,尉氏县,114.193081,34.411494
410225,河南省开封市兰考县,兰考县,河南省,开封市,兰考县,114.821348,34.822211
410300,河南省洛阳市,洛阳市,河南省,洛阳市,,112.45404,34.619682
410301,河南省洛阳市市辖区,洛阳市市辖区,河南省,洛阳市,,112.45404,34.619682
410302,河南省洛阳市老城区,老城区,河南省,洛阳市,老城区,112.469024,34.683646
410303,河南省洛阳市西工区,西工区,河南省,洛阳市,西工区,112.428413,34.6599
410304,河南省洛阳市瀍河回族区,瀍河回族区,河南省,洛阳市,瀍河回族区,112.500205,34.67985
410305,河南省洛阳市涧西区,涧西区,河南省,洛阳市,涧西区,112.395756,34.658034
410306,河南省洛阳市吉利区,吉利区,河南省,洛阳市,吉利区,112.589052,34.900889
410311,河南省洛阳市洛龙区,洛龙区,河南省,洛阳市,洛龙区,112.464173,34.619404
410322,河南省洛阳市孟津县,孟津县,河南省,洛阳市,孟津县,112.445252,34.825307
410323,河南省洛阳市新安县,新安县,河南省,洛阳市,新安县,112.132488,34.728584
410324,河南省洛阳市栾川县,栾川县,河南省,洛阳市,栾川县,111.615769,33.785698
410325,河南省洛阳市嵩县,嵩县,河南省,洛阳市,嵩县,112.085634,34.134517
410326,河南省洛阳市汝阳县,汝阳县,河南省,洛阳市,汝阳县,112.473139,34.15394
410327,河南省洛阳市宜阳县,宜阳县,河南省,洛阳市,宜阳县,112.179238,34.514645
410328,河南省洛阳市洛宁县,洛宁县,河南省,洛阳市,洛宁县,111.653039,34.389414
410329,河南省洛阳市伊川县,伊川县,河南省,洛阳市,伊川县,112.425651,34.42146
410381,河南省洛阳市偃师市,偃师市,河南省,洛阳市,偃师市,112.789535,34.72722
410400,河南省平顶山市,平顶山市,河南省,平顶山市,,113.192661,33.766169
410401,河南省平顶山市市辖区,平顶山市市辖区,河南省,平顶山市,,113.192661,33.766169
410402,河南省平顶山市新华区,新华区,河南省,平顶山市,新华区,113.293999,33.737365
410403,河南省平顶山市卫东区,卫东区,河南省,平顶山市,卫东区,113.335193,33.734707
410404,河南省平顶山市石龙区,石龙区,河南省,平顶山市,石龙区,112.898818,33.898713
410411,河南省平顶山市湛河区,湛河区,河南省,平顶山市,湛河区,113.320873,33.725681
410421,河南省平顶山市宝丰县,宝丰县,河南省,平顶山市,宝丰县,113.054754,33.868441
410422,河南省平顶山市叶县,叶县,河南省,平顶山市,叶县,113.357239,33.626731
410423,河南省平顶山市鲁山县,鲁山县,河南省,平顶山市,鲁山县,112.908023,33.738518
410425,河南省平顶山市郏县,郏县,河南省,平顶山市,郏县,113.212609,33.971787
410481,河南省平顶山市舞钢市,舞钢市,河南省,平顶山市,舞钢市,113.524794,33.307776
410482,河南省平顶山市汝州市,汝州市,河南省,平顶山市,汝州市,112.844517,34.16703
410500,河南省安阳市,安阳市,河南省,安阳市,,114.392392,36.097577
410501,河南省安阳市市辖区,安阳市市辖区,河南省,安阳市,,114.392392,36.097577
410502,河南省安阳市文峰区,文峰区,河南省,安阳市,文峰区,114.357082,36.090468
410503,河南省安阳市北关区,北关区,河南省,安阳市,北关区,114.355822,36.107255
410505,河南省安阳市殷都区,殷都区,河南省,安阳市,殷都区,114.30341,36.10989
410506,河南省安阳市龙安区,龙安区,河南省,安阳市,龙安区,114.323522,36.095568
410522,河南省安阳市安阳县,安阳县,河南省,安阳市,安阳县,114.130207,36.130585
410523,河南省安阳市汤阴县,汤阴县,河南省,安阳市,汤阴县,114.357763,35.924515
410526,河南省安阳市滑县,滑县,河南省,安阳市,滑县,114.518997,35.575002
410527,河南省安阳市内黄县,内黄县,河南省,安阳市,内黄县,114.901492,35.971653
410581,河南省安阳市林州市,林州市,河南省,安阳市,林州市,113.82013,36.083047
410600,河南省鹤壁市,鹤壁市,河南省,鹤壁市,,114.297272,35.747225
410601,河南省鹤壁市市辖区,鹤壁市市辖区,河南省,鹤壁市,,114.297272,35.747225
410602,河南省鹤壁市鹤山区,鹤山区,河南省,鹤壁市,鹤山区,114.163367,35.954582
410603,河南省鹤壁市山城区,山城区,河南省,鹤壁市,山城区,114.184428,35.897703
410611,河南省鹤壁市淇滨区,淇滨区,河南省,鹤壁市,淇滨区,114.298694,35.741296
410621,河南省鹤壁市浚县,浚县,河南省,鹤壁市,浚县,114.550813,35.67624
410622,河南省鹤壁市淇县,淇县,河南省,鹤壁市,淇县,114.197651,35.607762
410700,河南省新乡市,新乡市,河南省,新乡市,,113.9268,35.303004
410701,河南省新乡市市辖区,新乡市市辖区,河南省,新乡市,,113.9268,35.303004
410702,河南省新乡市红旗区,红旗区,河南省,新乡市,红旗区,113.875245,35.303851
410703,河南省新乡市卫滨区,卫滨区,河南省,新乡市,卫滨区,113.86578,35.302117
410704,河南省新乡市凤泉区,凤泉区,河南省,新乡市,凤泉区,113.915184,35.383978
410711,河南省新乡市牧野区,牧野区,河南省,新乡市,牧野区,113.908772,35.315039
410721,河南省新乡市新乡县,新乡县,河南省,新乡市,新乡县,113.805205,35.190836
410724,河南省新乡市获嘉县,获嘉县,河南省,新乡市,获嘉县,113.657433,35.259808
410725,河南省新乡市原阳县,原阳县,河南省,新乡市,原阳县,113.940115,35.065587
410726,河南省新乡市延津县,延津县,河南省,新乡市,延津县,114.205197,35.141956
410727,河南省新乡市封丘县,封丘县,河南省,新乡市,封丘县,114.418882,35.041198
410728,河南省新乡市长垣县,长垣县,河南省,新乡市,长垣县,114.668936,35.201548
410781,河南省新乡市卫辉市,卫辉市,河南省,新乡市,卫辉市,114.064907,35.398494
410782,河南省新乡市辉县市,辉县市,河南省,新乡市,辉县市,113.805468,35.462313
410800,河南省焦作市,焦作市,河南省,焦作市,,113.241823,35.215892
410801,河南省焦作市市辖区,焦作市市辖区,河南省,焦作市,,113.241823,35.215892
410802,河南省焦作市解放区,解放区,河南省,焦作市,解放区,113.230817,35.240282
410803,河南省焦作市中站区,中站区,河南省,焦作市,中站区,113.182946,35.23682
410804,河南省焦作市马村区,马村区,河南省,焦作市,马村区,113.322332,35.256108
410811,河南省焦作市山阳区,山阳区,河南省,焦作市,山阳区,113.254881,35.214507
410821,河南省焦作市修武县,修武县,河南省,焦作市,修武县,113.447755,35.223514
410822,河南省焦作市博爱县,博爱县,河南省,焦作市,博爱县,113.069211,35.166061
410823,河南省焦作市武陟县,武陟县,河南省,焦作市,武陟县,113.401679,35.099378
410825,河南省焦作市温县,温县,河南省,焦作市,温县,113.08053,34.940189
410882,河南省焦作市沁阳市,沁阳市,河南省,焦作市,沁阳市,112.943069,35.090604
410883,河南省焦作市孟州市,孟州市,河南省,焦作市,孟州市,112.789612,34.90797
410900,河南省濮阳市,濮阳市,河南省,濮阳市,,115.029215,35.761829
410901,河南省濮阳市市辖区,濮阳市市辖区,河南省,濮阳市,,115.029215,35.761829
410902,河南省濮阳市华龙区,华龙区,河南省,濮阳市,华龙区,115.074151,35.777346
410922,河南省濮阳市清丰县,清丰县,河南省,濮阳市,清丰县,115.104389,35.88518
410923,河南省濮阳市南乐县,南乐县,河南省,濮阳市,南乐县,115.204752,36.069664
410926,河南省濮阳市范县,范县,河南省,濮阳市,范县,115.504201,35.851907
410927,河南省濮阳市台前县,台前县,河南省,濮阳市,台前县,115.871906,35.96939
410928,河南省濮阳市濮阳县,濮阳县,河南省,濮阳市,濮阳县,115.029078,35.712193
411000,河南省许昌市,许昌市,河南省,许昌市,,113.85264,34.035506
411001,河南省许昌市市辖区,许昌市市辖区,河南省,许昌市,,113.85264,34.035506
411002,河南省许昌市魏都区,魏都区,河南省,许昌市,魏都区,113.822647,34.025342
411003,河南省许昌市建安区,建安区,河南省,许昌市,建安区,113.822989,34.124669
411024,河南省许昌市鄢陵县,鄢陵县,河南省,许昌市,鄢陵县,114.1774,34.102332
411025,河南省许昌市襄城县,襄城县,河南省,许昌市,襄城县,113.488847,33.866442
411081,河南省许昌市禹州市,禹州市,河南省,许昌市,禹州市,113.488478,34.140701
411082,河南省许昌市长葛市,长葛市,河南省,许昌市,长葛市,113.819888,34.194136
411100,河南省漯河市,漯河市,河南省,漯河市,,114.016539,33.581412
411101,河南省漯河市市辖区,漯河市市辖区,河南省,漯河市,,114.016539,33.581412
411102,河南省漯河市源汇区,源汇区,河南省,漯河市,源汇区,113.91071,33.58219
411103,河南省漯河市郾城区,郾城区,河南省,漯河市,郾城区,114.006944,33.587409
411104,河南省漯河市召陵区,召陵区,河南省,漯河市,召陵区,114.093902,33.586565
411121,河南省漯河市舞阳县,舞阳县,河南省,漯河市,舞阳县,113.609286,33.437877
411122,河南省漯河市临颍县,临颍县,河南省,漯河市,临颍县,113.931203,33.827304
411200,河南省三门峡市,三门峡市,河南省,三门峡市,,111.200135,34.772493
411201,河南省三门峡市市辖区,三门峡市市辖区,河南省,三门峡市,,111.200135,34.772493
411202,河南省三门峡市湖滨区,湖滨区,河南省,三门峡市,湖滨区,111.188398,34.770886
411203,河南省三门峡市陕州区,陕州区,河南省,三门峡市,陕州区,111.103563,34.720548
411221,河南省三门峡市渑池县,渑池县,河南省,三门峡市,渑池县,111.761504,34.767244
411224,河南省三门峡市卢氏县,卢氏县,河南省,三门峡市,卢氏县,111.047858,34.054324
411281,河南省三门峡市义马市,义马市,河南省,三门峡市,义马市,111.874393,34.747129
411282,河南省三门峡市灵宝市,灵宝市,河南省,三门峡市,灵宝市,110.89422,34.516828
411300,河南省南阳市,南阳市,河南省,南阳市,,112.528321,32.990833
411301,河南省南阳市市辖区,南阳市市辖区,河南省,南阳市,,112.528321,32.990833
411302,河南省南阳市宛城区,宛城区,河南省,南阳市,宛城区,112.539559,33.003784
411303,河南省南阳市卧龙区,卧龙区,河南省,南阳市,卧龙区,112.528789,32.989877
411321,河南省南阳市南召县,南召县,河南省,南阳市,南召县,112.429133,33.489877
411322,河南省南阳市方城县,方城县,河南省,南阳市,方城县,113.012494,33.254391
411323,河南省南阳市西峡县,西峡县,河南省,南阳市,西峡县,111.47353,33.307294
411324,河南省南阳市镇平县,镇平县,河南省,南阳市,镇平县,112.234698,33.034111
411325,河南省南阳市内乡县,内乡县,河南省,南阳市,内乡县,111.849392,33.044865
411326,河南省南阳市淅川县,淅川县,河南省,南阳市,淅川县,111.490964,33.13782
411327,河南省南阳市社旗县,社旗县,河南省,南阳市,社旗县,112.948245,33.056109
411328,河南省南阳市唐河县,唐河县,河南省,南阳市,唐河县,112.807637,32.681335
411329,河南省南阳市新野县,新野县,河南省,南阳市,新野县,112.360026,32.520805
411330,河南省南阳市桐柏县,桐柏县,河南省,南阳市,桐柏县,113.428287,32.380073
411381,河南省南阳市邓州市,邓州市,河南省,南阳市,邓州市,112.087278,32.687938
411400,河南省商丘市,商丘市,河南省,商丘市,,115.65637,34.414172
411401,河南省商丘市市辖区,商丘市市辖区,河南省,商丘市,,115.65637,34.414172
411402,河南省商丘市梁园区,梁园区,河南省,商丘市,梁园区,115.613965,34.443893
411403,河南省商丘市睢阳区,睢阳区,河南省,商丘市,睢阳区,115.653302,34.38839
411421,河南省商丘市民权县,民权县,河南省,商丘市,民权县,115.179594,34.647758
411422,河南省商丘市睢县,睢县,河南省,商丘市,睢县,115.071879,34.445656
411423,河南省商丘市宁陵县,宁陵县,河南省,商丘市,宁陵县,115.31369,34.460232
411424,河南省商丘市柘城县,柘城县,河南省,商丘市,柘城县,115.305843,34.091045
411425,河南省商丘市虞城县,虞城县,河南省,商丘市,虞城县,115.840511,34.402512
411426,河南省商丘市夏邑县,夏邑县,河南省,商丘市,夏邑县,116.131447,34.237554
411481,河南省商丘市永城市,永城市,河南省,商丘市,永城市,116.4495,33.929291
411500,河南省信阳市,信阳市,河南省,信阳市,,114.091023,32.146983
411501,河南省信阳市市辖区,信阳市市辖区,河南省,信阳市,,114.091023,32.146983
411502,河南省信阳市浉河区,浉河区,河南省,信阳市,浉河区,114.058713,32.116803
411503,河南省信阳市平桥区,平桥区,河南省,信阳市,平桥区,114.125656,32.101031
411521,河南省信阳市罗山县,罗山县,河南省,信阳市,罗山县,114.513012,32.203073
411522,河南省信阳市光山县,光山县,河南省,信阳市,光山县,114.919033,32.011103
411523,河南省信阳市新县,新县,河南省,信阳市,新县,114.879239,31.643918
411524,河南省信阳市商城县,商城县,河南省,信阳市,商城县,115.406862,31.798378
411525,河南省信阳市固始县,固始县,河南省,信阳市,固始县,115.654482,32.168137
411526,河南省信阳市潢川县,潢川县,河南省,信阳市,潢川县,115.051808,32.131383
411527,河南省信阳市淮滨县,淮滨县,河南省,信阳市,淮滨县,115.419538,32.473258
411528,河南省信阳市息县,息县,河南省,信阳市,息县,114.740456,32.342792
411600,河南省周口市,周口市,河南省,周口市,,114.696951,33.626149
411601,河南省周口市市辖区,周口市市辖区,河南省,周口市,,114.696951,33.626149
411602,河南省周口市川汇区,川汇区,河南省,周口市,川汇区,114.650628,33.647598
411621,河南省周口市扶沟县,扶沟县,河南省,周口市,扶沟县,114.394915,34.059862
411622,河南省周口市西华县,西华县,河南省,周口市,西华县,114.425451,33.808682
411623,河南省周口市商水县,商水县,河南省,周口市,商水县,114.611596,33.54248
411624,河南省周口市沈丘县,沈丘县,河南省,周口市,沈丘县,115.098583,33.409369
411625,河南省周口市郸城县,郸城县,河南省,周口市,郸城县,115.177189,33.644743
411626,河南省周口市淮阳县,淮阳县,河南省,周口市,淮阳县,114.886154,33.731561
411627,河南省周口市太康县,太康县,河南省,周口市,太康县,114.837887,34.063798
411628,河南省周口市鹿邑县,鹿邑县,河南省,周口市,鹿邑县,115.484454,33.86
411681,河南省周口市项城市,项城市,河南省,周口市,项城市,114.875333,33.465838
411700,河南省驻马店市,驻马店市,河南省,驻马店市,,114.022298,33.011529
411701,河南省驻马店市市辖区,驻马店市市辖区,河南省,驻马店市,,114.022298,33.011529
411702,河南省驻马店市驿城区,驿城区,河南省,驻马店市,驿城区,113.993914,32.973054
411721,河南省驻马店市西平县,西平县,河南省,驻马店市,西平县,114.021539,33.387685
411722,河南省驻马店市上蔡县,上蔡县,河南省,驻马店市,上蔡县,114.264381,33.262439
411723,河南省驻马店市平舆县,平舆县,河南省,驻马店市,平舆县,114.619159,32.96271
411724,河南省驻马店市正阳县,正阳县,河南省,驻马店市,正阳县,114.392774,32.605697
411725,河南省驻马店市确山县,确山县,河南省,驻马店市,确山县,114.02643,32.802065
411726,河南省驻马店市泌阳县,泌阳县,河南省,驻马店市,泌阳县,113.327144,32.723975
411727,河南省驻马店市汝南县,汝南县,河南省,驻马店市,汝南县,114.362379,33.006729
411728,河南省驻马店市遂平县,遂平县,河南省,驻马店市,遂平县,114.013182,33.145649
411729,河南省驻马店市新蔡县,新蔡县,河南省,驻马店市,新蔡县,114.920983,32.81148
419001,济源市,济源市,河南省,,济源市,112.602344,35.06903
420000,湖北省,湖北省,湖北省,,,114.341861,30.546498
420100,湖北省武汉市,武汉市,湖北省,武汉市,,114.305392,30.593098
420101,湖北省武汉市市辖区,武汉市市辖区,湖北省,武汉市,,114.305392,30.593098
420102,湖北省武汉市江岸区,江岸区,湖北省,武汉市,江岸区,114.27876,30.592688
420103,湖北省武汉市江汉区,江汉区,湖北省,武汉市,江汉区,114.270871,30.60143
420104,湖北省武汉市硚口区,硚口区,湖北省,武汉市,硚口区,114.26583,30.571236
420105,湖北省武汉市汉阳区,汉阳区,湖北省,武汉市,汉阳区,114.218724,30.553905
420106,湖北省武汉市武昌区,武昌区,湖北省,武汉市,武昌区,114.316223,30.554235
420107,湖北省武汉市青山区,青山区,湖北省,武汉市,青山区,114.385539,30.63963
420111,湖北省武汉市洪山区,洪山区,湖北省,武汉市,洪山区,114.343913,30.500317
420112,湖北省武汉市东西湖区,东西湖区,湖北省,武汉市,东西湖区,114.136886,30.62002
420113,湖北省武汉市汉南区,汉南区,湖北省,武汉市,汉南区,114.084445,30.308856
420114,湖北省武汉市蔡甸区,蔡甸区,湖北省,武汉市,蔡甸区,114.029328,30.582271
420115,湖北省武汉市江夏区,江夏区,湖北省,武汉市,江夏区,114.321551,30.375748
420116,湖北省武汉市黄陂区,黄陂区,湖北省,武汉市,黄陂区,114.375743,30.882557
420117,湖北省武汉市新洲区,新洲区,湖北省,武汉市,新洲区,114.801107,30.841544
420200,湖北省黄石市,黄石市,湖北省,黄石市,,115.03852,30.199652
420201,湖北省黄石市市辖区,黄石市市辖区,湖北省,黄石市,,115.03852,30.199652
420202,湖北省黄石市黄石港区,黄石港区,湖北省,黄石市,黄石港区,115.065978,30.223003
420203,湖北省黄石市西塞山区,西塞山区,湖北省,黄石市,西塞山区,115.109955,30.204924
420204,湖北省黄石市下陆区,下陆区,湖北省,黄石市,下陆区,114.961327,30.173913
420205,湖北省黄石市铁山区,铁山区,湖北省,黄石市,铁山区,114.901412,30.206592
420222,湖北省黄石市阳新县,阳新县,湖北省,黄石市,阳新县,115.215227,29.830258
420281,湖北省黄石市大冶市,大冶市,湖北省,黄石市,大冶市,114.979875,30.095643
420300,湖北省十堰市,十堰市,湖北省,十堰市,,110.79799,32.629397
420301,湖北省十堰市市辖区,十堰市市辖区,湖北省,十堰市,,110.79799,32.629397
420302,湖北省十堰市茅箭区,茅箭区,湖北省,十堰市,茅箭区,110.813621,32.591929
420303,湖北省十堰市张湾区,张湾区,湖北省,十堰市,张湾区,110.769133,32.652297
420304,湖北省十堰市郧阳区,郧阳区,湖北省,十堰市,郧阳区,110.812044,32.834802
420322,湖北省十堰市郧西县,郧西县,湖北省,十堰市,郧西县,110.425983,32.993182
420323,湖北省十堰市竹山县,竹山县,湖北省,十堰市,竹山县,110.228694,32.224875
420324,湖北省十堰市竹溪县,竹溪县,湖北省,十堰市,竹溪县,109.715304,32.318255
420325,湖北省十堰市房县,房县,湖北省,十堰市,房县,110.72667,32.040085
420381,湖北省十堰市丹江口市,丹江口市,湖北省,十堰市,丹江口市,111.513127,32.540157
420500,湖北省宜昌市,宜昌市,湖北省,宜昌市,,111.286471,30.691967
420501,湖北省宜昌市市辖区,宜昌市市辖区,湖北省,宜昌市,,111.286471,30.691967
420502,湖北省宜昌市西陵区,西陵区,湖北省,宜昌市,西陵区,111.285646,30.710782
420503,湖北省宜昌市伍家岗区,伍家岗区,湖北省,宜昌市,伍家岗区,111.361037,30.644334
420504,湖北省宜昌市点军区,点军区,湖北省,宜昌市,点军区,111.26812,30.693247
420505,湖北省宜昌市猇亭区,猇亭区,湖北省,宜昌市,猇亭区,111.43462,30.530903
420506,湖北省宜昌市夷陵区,夷陵区,湖北省,宜昌市,夷陵区,111.32638,30.770006
420525,湖北省宜昌市远安县,远安县,湖北省,宜昌市,远安县,111.640508,31.060869
420526,湖北省宜昌市兴山县,兴山县,湖北省,宜昌市,兴山县,110.746805,31.348196
420527,湖北省宜昌市秭归县,秭归县,湖北省,宜昌市,秭归县,110.977711,30.825897
420528,湖北省宜昌市长阳土家族自治县,长阳土家族自治县,湖北省,宜昌市,长阳土家族自治县,111.207242,30.472763
420529,湖北省宜昌市五峰土家族自治县,五峰土家族自治县,湖北省,宜昌市,五峰土家族自治县,110.674706,30.199688
420581,湖北省宜昌市宜都市,宜都市,湖北省,宜昌市,宜都市,111.450006,30.378327
420582,湖北省宜昌市当阳市,当阳市,湖北省,宜昌市,当阳市,111.788312,30.821266
420583,湖北省宜昌市枝江市,枝江市,湖北省,宜昌市,枝江市,111.76053,30.42594
420600,湖北省襄阳市,襄阳市,湖北省,襄阳市,,112.122414,32.008986
420601,湖北省襄阳市市辖区,襄阳市市辖区,湖北省,襄阳市,,112.122414,32.008986
420602,湖北省襄阳市襄城区,襄城区,湖北省,襄阳市,襄城区,112.133974,32.010351
420606,湖北省襄阳市樊城区,樊城区,湖北省,襄阳市,樊城区,112.135684,32.044833
420607,湖北省襄阳市襄州区,襄州区,湖北省,襄阳市,襄州区,112.211899,32.087298
420624,湖北省襄阳市南漳县,南漳县,湖北省,襄阳市,南漳县,111.838905,31.774636
420625,湖北省襄阳市谷城县,谷城县,湖北省,襄阳市,谷城县,111.652982,32.263849
420626,湖北省襄阳市保康县,保康县,湖北省,襄阳市,保康县,111.261309,31.87831
420682,湖北省襄阳市老河口市,老河口市,湖北省,襄阳市,老河口市,111.683861,32.359068
420683,湖北省襄阳市枣阳市,枣阳市,湖北省,襄阳市,枣阳市,112.771959,32.128818
420684,湖北省襄阳市宜城市,宜城市,湖北省,襄阳市,宜城市,112.257788,31.719806
420700,湖北省鄂州市,鄂州市,湖北省,鄂州市,,114.894843,30.39194
420701,湖北省鄂州市市辖区,鄂州市市辖区,湖北省,鄂州市,,114.894843,30.39194
420702,湖北省鄂州市梁子湖区,梁子湖区,湖北省,鄂州市,梁子湖区,114.684731,30.100141
420703,湖北省鄂州市华容区,华容区,湖北省,鄂州市,华容区,114.729878,30.53431
420704,湖北省鄂州市鄂城区,鄂城区,湖北省,鄂州市,鄂城区,114.891615,30.400572
420800,湖北省荆门市,荆门市,湖北省,荆门市,,112.199265,31.035423
420801,湖北省荆门市市辖区,荆门市市辖区,湖北省,荆门市,,112.199265,31.035423
420802,湖北省荆门市东宝区,东宝区,湖北省,荆门市,东宝区,112.201493,31.051852
420804,湖北省荆门市掇刀区,掇刀区,湖北省,荆门市,掇刀区,112.207833,30.973431
420882,湖北省荆门市京山县京山,京山市,湖北省,荆门市,京山县,113.119566,31.018457
420822,湖北省荆门市沙洋县,沙洋县,湖北省,荆门市,沙洋县,112.588581,30.709221
420881,湖北省荆门市钟祥市,钟祥市,湖北省,荆门市,钟祥市,112.588121,31.16782
420900,湖北省孝感市,孝感市,湖北省,孝感市,,113.916902,30.924568
420901,湖北省孝感市市辖区,孝感市市辖区,湖北省,孝感市,,113.916902,30.924568
420902,湖北省孝感市孝南区,孝南区,湖北省,孝感市,孝南区,113.910958,30.916874
420921,湖北省孝感市孝昌县,孝昌县,湖北省,孝感市,孝昌县,113.99801,31.258159
420922,湖北省孝感市大悟县,大悟县,湖北省,孝感市,大悟县,114.127022,31.561165
420923,湖北省孝感市云梦县,云梦县,湖北省,孝感市,云梦县,113.753554,31.020983
420981,湖北省孝感市应城市,应城市,湖北省,孝感市,应城市,113.562806,30.940176
420982,湖北省孝感市安陆市,安陆市,湖北省,孝感市,安陆市,113.688941,31.25561
420984,湖北省孝感市汉川市,汉川市,湖北省,孝感市,汉川市,113.839149,30.661244
421000,湖北省荆州市,荆州市,湖北省,荆州市,,112.239741,30.335165
421001,湖北省荆州市市辖区,荆州市市辖区,湖北省,荆州市,,112.239741,30.335165
421002,湖北省荆州市沙市区,沙市区,湖北省,荆州市,沙市区,112.255583,30.311056
421003,湖北省荆州市荆州区,荆州区,湖北省,荆州市,荆州区,112.190185,30.352832
421022,湖北省荆州市公安县,公安县,湖北省,荆州市,公安县,112.229648,30.058336
421023,湖北省荆州市监利县,监利县,湖北省,荆州市,监利县,112.897465,29.811574
421024,湖北省荆州市江陵县,江陵县,湖北省,荆州市,江陵县,112.424664,30.041822
421081,湖北省荆州市石首市,石首市,湖北省,荆州市,石首市,112.425454,29.720938
421083,湖北省荆州市洪湖市,洪湖市,湖北省,荆州市,洪湖市,113.47598,29.825458
421087,湖北省荆州市松滋市,松滋市,湖北省,荆州市,松滋市,111.756773,30.174522
421100,湖北省黄冈市,黄冈市,湖北省,黄冈市,,114.872316,30.453905
421101,湖北省黄冈市市辖区,黄冈市市辖区,湖北省,黄冈市,,114.872316,30.453905
421102,湖北省黄冈市黄州区,黄州区,湖北省,黄冈市,黄州区,114.879398,30.43405
421121,湖北省黄冈市团风县,团风县,湖北省,黄冈市,团风县,114.872191,30.643569
421122,湖北省黄冈市红安县,红安县,湖北省,黄冈市,红安县,114.618236,31.288153
421123,湖北省黄冈市罗田县,罗田县,湖北省,黄冈市,罗田县,115.399492,30.7831
421124,湖北省黄冈市英山县,英山县,湖北省,黄冈市,英山县,115.681259,30.734959
421125,湖北省黄冈市浠水县,浠水县,湖北省,黄冈市,浠水县,115.265535,30.451867
421126,湖北省黄冈市蕲春县,蕲春县,湖北省,黄冈市,蕲春县,115.437008,30.225964
421127,湖北省黄冈市黄梅县,黄梅县,湖北省,黄冈市,黄梅县,115.944219,30.070454
421181,湖北省黄冈市麻城市,麻城市,湖北省,黄冈市,麻城市,115.008163,31.17274
421182,湖北省黄冈市武穴市,武穴市,湖北省,黄冈市,武穴市,115.561217,29.844107
421200,湖北省咸宁市,咸宁市,湖北省,咸宁市,,114.322492,29.841443
421201,湖北省咸宁市市辖区,咸宁市市辖区,湖北省,咸宁市,,114.322492,29.841443
421202,湖北省咸宁市咸安区,咸安区,湖北省,咸宁市,咸安区,114.298711,29.852892
421221,湖北省咸宁市嘉鱼县,嘉鱼县,湖北省,咸宁市,嘉鱼县,113.939277,29.970737
421222,湖北省咸宁市通城县,通城县,湖北省,咸宁市,通城县,113.816966,29.245269
421223,湖北省咸宁市崇阳县,崇阳县,湖北省,咸宁市,崇阳县,114.039828,29.555605
421224,湖北省咸宁市通山县,通山县,湖北省,咸宁市,通山县,114.482606,29.605376
421281,湖北省咸宁市赤壁市,赤壁市,湖北省,咸宁市,赤壁市,113.900628,29.724692
421300,湖北省随州市,随州市,湖北省,随州市,,113.382458,31.690215
421301,湖北省随州市市辖区,随州市市辖区,湖北省,随州市,,113.382458,31.690215
421303,湖北省随州市曾都区,曾都区,湖北省,随州市,曾都区,113.371121,31.71628
421321,湖北省随州市随县,随县,湖北省,随州市,随县,113.299528,31.853833
421381,湖北省随州市广水市,广水市,湖北省,随州市,广水市,113.82589,31.616854
422800,湖北省恩施土家族苗族自治州,恩施土家族苗族自治州,湖北省,恩施土家族苗族自治州,,109.488172,30.272156
422801,湖北省恩施土家族苗族自治州,恩施市,湖北省,恩施土家族苗族自治州,,109.488172,30.272156
422802,湖北省恩施土家族苗族自治州利川市,利川市,湖北省,恩施土家族苗族自治州,利川市,108.909996,30.210981
422822,湖北省恩施土家族苗族自治州建始县,建始县,湖北省,恩施土家族苗族自治州,建始县,109.718202,30.596727
422823,湖北省恩施土家族苗族自治州巴东县,巴东县,湖北省,恩施土家族苗族自治州,巴东县,110.340756,31.042324
422825,湖北省恩施土家族苗族自治州宣恩县,宣恩县,湖北省,恩施土家族苗族自治州,宣恩县,109.491485,29.986899
422826,湖北省恩施土家族苗族自治州咸丰县,咸丰县,湖北省,恩施土家族苗族自治州,咸丰县,109.139726,29.665203
422827,湖北省恩施土家族苗族自治州来凤县,来凤县,湖北省,恩施土家族苗族自治州,来凤县,109.407828,29.493485
422828,湖北省恩施土家族苗族自治州鹤峰县,鹤峰县,湖北省,恩施土家族苗族自治州,鹤峰县,110.033662,29.890171
429004,仙桃市,仙桃市,湖北省,,仙桃市,113.442973,30.328407
429005,潜江市,潜江市,湖北省,,潜江市,112.900287,30.401947
429006,天门市,天门市,湖北省,,天门市,113.166558,30.66372
429021,神农架林区,神农架林区,湖北省,,神农架林区,110.675757,31.744897
430000,湖南省,湖南省,湖南省,,,112.98381,28.112444
430100,湖南省长沙市,长沙市,湖南省,长沙市,,112.938814,28.228209
430101,湖南省长沙市市辖区,长沙市市辖区,湖南省,长沙市,,112.938814,28.228209
430102,湖南省长沙市芙蓉区,芙蓉区,湖南省,长沙市,芙蓉区,113.032539,28.185386
430103,湖南省长沙市雨花区,天心区,湖南省,长沙市,雨花区,112.9962,28.14447
430104,湖南省长沙市岳麓区,岳麓区,湖南省,长沙市,岳麓区,112.93142,28.235193
430105,湖南省长沙市开福区,开福区,湖南省,长沙市,开福区,112.9842,28.205628
430111,湖南省长沙市雨花区,雨花区,湖南省,长沙市,雨花区,113.038017,28.13771
430112,湖南省长沙市望城区,望城区,湖南省,长沙市,望城区,112.819549,28.347458
430121,湖南省长沙市长沙县,长沙县,湖南省,长沙市,长沙县,113.08081,28.24615
430181,湖南省长沙市浏阳市,浏阳市,湖南省,长沙市,浏阳市,113.643076,28.162833
430182,湖南省长沙市宁乡市,宁乡市,湖南省,长沙市,宁乡市,112.551885,28.277483
430200,湖南省株洲市,株洲市,湖南省,株洲市,,113.134002,27.82755
430201,湖南省株洲市市辖区,株洲市市辖区,湖南省,株洲市,,113.134002,27.82755
430202,湖南省株洲市荷塘区,荷塘区,湖南省,株洲市,荷塘区,113.173487,27.855929
430203,湖南省株洲市芦淞区,芦淞区,湖南省,株洲市,芦淞区,113.152724,27.78507
430204,湖南省株洲市石峰区,石峰区,湖南省,株洲市,石峰区,113.117732,27.875445
430211,湖南省株洲市天元区,天元区,湖南省,株洲市,天元区,113.082216,27.826867
430212,湖南省株洲市株洲县渌口,渌口区,湖南省,株洲市,株洲县,113.139967,27.702526
430223,湖南省株洲市攸县,攸县,湖南省,株洲市,攸县,113.396404,27.014607
430224,湖南省株洲市茶陵县,茶陵县,湖南省,株洲市,茶陵县,113.53928,26.777492
430225,湖南省株洲市炎陵县,炎陵县,湖南省,株洲市,炎陵县,113.772655,26.489902
430281,湖南省株洲市醴陵市,醴陵市,湖南省,株洲市,醴陵市,113.496894,27.64613
430300,湖南省湘潭市,湘潭市,湖南省,湘潭市,,112.944049,27.829738
430301,湖南省湘潭市市辖区,湘潭市市辖区,湖南省,湘潭市,,112.944049,27.829738
430302,湖南省湘潭市雨湖区,雨湖区,湖南省,湘潭市,雨湖区,112.903317,27.854705
430304,湖南省湘潭市岳塘区,岳塘区,湖南省,湘潭市,岳塘区,112.925371,27.808646
430321,湖南省湘潭市湘潭县,湘潭县,湖南省,湘潭市,湘潭县,112.950781,27.778947
430381,湖南省湘潭市湘乡市,湘乡市,湖南省,湘潭市,湘乡市,112.550581,27.718313
430382,湖南省湘潭市韶山市,韶山市,湖南省,湘潭市,韶山市,112.52667,27.914958
430400,湖南省衡阳市,衡阳市,湖南省,衡阳市,,112.571997,26.89323
430401,湖南省衡阳市市辖区,衡阳市市辖区,湖南省,衡阳市,,112.571997,26.89323
430405,湖南省衡阳市珠晖区,珠晖区,湖南省,衡阳市,珠晖区,112.620112,26.894657
430406,湖南省衡阳市雁峰区,雁峰区,湖南省,衡阳市,雁峰区,112.616546,26.888666
430407,湖南省衡阳市石鼓区,石鼓区,湖南省,衡阳市,石鼓区,112.598089,26.943215
430408,湖南省衡阳市蒸湘区,蒸湘区,湖南省,衡阳市,蒸湘区,112.567064,26.911404
430412,湖南省衡阳市南岳区,南岳区,湖南省,衡阳市,南岳区,112.738604,27.232444
430421,湖南省衡阳市衡阳县,衡阳县,湖南省,衡阳市,衡阳县,112.370532,26.969635
430422,湖南省衡阳市衡南县,衡南县,湖南省,衡阳市,衡南县,112.677877,26.738248
430423,湖南省衡阳市衡山县,衡山县,湖南省,衡阳市,衡山县,112.868268,27.230291
430424,湖南省衡阳市衡东县,衡东县,湖南省,衡阳市,衡东县,112.953168,27.08117
430426,湖南省衡阳市祁东县,祁东县,湖南省,衡阳市,祁东县,112.090357,26.799896
430481,湖南省衡阳市耒阳市,耒阳市,湖南省,衡阳市,耒阳市,112.859795,26.422275
430482,湖南省衡阳市常宁市,常宁市,湖南省,衡阳市,常宁市,112.399995,26.420932
430500,湖南省邵阳市,邵阳市,湖南省,邵阳市,,111.467791,27.238892
430501,湖南省邵阳市市辖区,邵阳市市辖区,湖南省,邵阳市,,111.467791,27.238892
430502,湖南省邵阳市双清区,双清区,湖南省,邵阳市,双清区,111.496341,27.232708
430503,湖南省邵阳市大祥区,大祥区,湖南省,邵阳市,大祥区,111.439091,27.221452
430511,湖南省邵阳市北塔区,北塔区,湖南省,邵阳市,北塔区,111.452197,27.246489
430521,湖南省邵阳市邵东县,邵东县,湖南省,邵阳市,邵东县,111.744258,27.258942
430522,湖南省邵阳市新邵县,新邵县,湖南省,邵阳市,新邵县,111.458657,27.320918
430523,湖南省邵阳市邵阳县,邵阳县,湖南省,邵阳市,邵阳县,111.273806,26.990637
430524,湖南省邵阳市隆回县,隆回县,湖南省,邵阳市,隆回县,111.032438,27.113978
430525,湖南省邵阳市洞口县,洞口县,湖南省,邵阳市,洞口县,110.575846,27.060321
430527,湖南省邵阳市绥宁县,绥宁县,湖南省,邵阳市,绥宁县,110.155655,26.581955
430528,湖南省邵阳市新宁县,新宁县,湖南省,邵阳市,新宁县,110.856623,26.433418
430529,湖南省邵阳市城步苗族自治县,城步苗族自治县,湖南省,邵阳市,城步苗族自治县,110.32224,26.390598
430581,湖南省邵阳市武冈市,武冈市,湖南省,邵阳市,武冈市,110.631884,26.726599
430600,湖南省岳阳市,岳阳市,湖南省,岳阳市,,113.128958,29.357104
430601,湖南省岳阳市市辖区,岳阳市市辖区,湖南省,岳阳市,,113.128958,29.357104
430602,湖南省岳阳市岳阳楼区,岳阳楼区,湖南省,岳阳市,岳阳楼区,113.129702,29.371903
430603,湖南省岳阳市云溪区,云溪区,湖南省,岳阳市,云溪区,113.272313,29.472746
430611,湖南省岳阳市君山区,君山区,湖南省,岳阳市,君山区,113.006435,29.461106
430621,湖南省岳阳市岳阳县,岳阳县,湖南省,岳阳市,岳阳县,113.116418,29.144067
430623,湖南省岳阳市华容县,华容县,湖南省,岳阳市,华容县,112.540463,29.531057
430624,湖南省岳阳市湘阴县,湘阴县,湖南省,岳阳市,湘阴县,112.909426,28.689105
430626,湖南省岳阳市平江县,平江县,湖南省,岳阳市,平江县,113.581234,28.701868
430681,湖南省岳阳市汨罗市,汨罗市,湖南省,岳阳市,汨罗市,113.067259,28.80689
430682,湖南省岳阳市临湘市,临湘市,湖南省,岳阳市,临湘市,113.450423,29.476849
430700,湖南省常德市,常德市,湖南省,常德市,,111.698497,29.031673
430701,湖南省常德市市辖区,常德市市辖区,湖南省,常德市,,111.698497,29.031673
430702,湖南省常德市武陵区,武陵区,湖南省,常德市,武陵区,111.683153,29.055163
430703,湖南省常德市鼎城区,鼎城区,湖南省,常德市,鼎城区,111.680783,29.018593
430721,湖南省常德市安乡县,安乡县,湖南省,常德市,安乡县,112.171131,29.411309
430722,湖南省常德市汉寿县,汉寿县,湖南省,常德市,汉寿县,111.970514,28.906107
430723,湖南省常德市澧县,澧县,湖南省,常德市,澧县,111.758702,29.633237
430724,湖南省常德市临澧县,临澧县,湖南省,常德市,临澧县,111.647518,29.440793
430725,湖南省常德市桃源县,桃源县,湖南省,常德市,桃源县,111.488925,28.902503
430726,湖南省常德市石门县,石门县,湖南省,常德市,石门县,111.380014,29.584293
430781,湖南省常德市津市市,津市市,湖南省,常德市,津市市,111.877499,29.60548
430800,湖南省张家界市,张家界市,湖南省,张家界市,,110.479191,29.117096
430801,湖南省张家界市市辖区,张家界市市辖区,湖南省,张家界市,,110.479191,29.117096
430802,湖南省张家界市永定区,永定区,湖南省,张家界市,永定区,110.537138,29.119856
430811,湖南省张家界市武陵源区,武陵源区,湖南省,张家界市,武陵源区,110.550434,29.34573
430821,湖南省张家界市慈利县,慈利县,湖南省,张家界市,慈利县,111.139711,29.429972
430822,湖南省张家界市桑植县,桑植县,湖南省,张家界市,桑植县,110.204911,29.414264
430900,湖南省益阳市,益阳市,湖南省,益阳市,,112.35518,28.55386
430901,湖南省益阳市市辖区,益阳市市辖区,湖南省,益阳市,,112.35518,28.55386
430902,湖南省益阳市资阳区,资阳区,湖南省,益阳市,资阳区,112.324322,28.590966
430903,湖南省益阳市赫山区,赫山区,湖南省,益阳市,赫山区,112.374024,28.579343
430921,湖南省益阳市南县,南县,湖南省,益阳市,南县,112.396241,29.361338
430922,湖南省益阳市桃江县,桃江县,湖南省,益阳市,桃江县,112.155822,28.518085
430923,湖南省益阳市安化县,安化县,湖南省,益阳市,安化县,111.212846,28.374107
430981,湖南省益阳市沅江市,沅江市,湖南省,益阳市,沅江市,112.354661,28.845837
431000,湖南省郴州市,郴州市,湖南省,郴州市,,113.014717,25.770509
431001,湖南省郴州市市辖区,郴州市市辖区,湖南省,郴州市,,113.014717,25.770509
431002,湖南省郴州市北湖区,北湖区,湖南省,郴州市,北湖区,113.011035,25.784054
431003,湖南省郴州市苏仙区,苏仙区,湖南省,郴州市,苏仙区,113.042441,25.80037
431021,湖南省郴州市桂阳县,桂阳县,湖南省,郴州市,桂阳县,112.734176,25.754167
431022,湖南省郴州市宜章县,宜章县,湖南省,郴州市,宜章县,112.948811,25.400222
431023,湖南省郴州市永兴县,永兴县,湖南省,郴州市,永兴县,113.116528,26.127151
431024,湖南省郴州市嘉禾县,嘉禾县,湖南省,郴州市,嘉禾县,112.369021,25.58752
431025,湖南省郴州市临武县,临武县,湖南省,郴州市,临武县,112.563456,25.27556
431026,湖南省郴州市汝城县,汝城县,湖南省,郴州市,汝城县,113.684727,25.532816
431027,湖南省郴州市桂东县,桂东县,湖南省,郴州市,桂东县,113.944614,26.077616
431028,湖南省郴州市安仁县,安仁县,湖南省,郴州市,安仁县,113.269396,26.709056
431081,湖南省郴州市资兴市,资兴市,湖南省,郴州市,资兴市,113.236146,25.976243
431100,湖南省永州市,永州市,湖南省,永州市,,111.613445,26.420394
431101,湖南省永州市市辖区,永州市市辖区,湖南省,永州市,,111.613445,26.420394
431102,湖南省永州市零陵区,零陵区,湖南省,永州市,零陵区,111.631109,26.221936
431103,湖南省永州市冷水滩区,冷水滩区,湖南省,永州市,冷水滩区,111.592143,26.461077
431121,湖南省永州市祁阳县,祁阳县,湖南省,永州市,祁阳县,111.840657,26.58012
431122,湖南省永州市东安县,东安县,湖南省,永州市,东安县,111.314117,26.394404
431123,湖南省永州市双牌县,双牌县,湖南省,永州市,双牌县,111.659967,25.96191
431124,湖南省永州市道县,道县,湖南省,永州市,道县,111.600796,25.526438
431125,湖南省永州市江永县,江永县,湖南省,永州市,江永县,111.343911,25.273539
431126,湖南省永州市宁远县,宁远县,湖南省,永州市,宁远县,111.945805,25.570976
431127,湖南省永州市蓝山县,蓝山县,湖南省,永州市,蓝山县,112.196731,25.369898
431128,湖南省永州市新田县,新田县,湖南省,永州市,新田县,112.203287,25.904305
431129,湖南省永州市江华瑶族自治县,江华瑶族自治县,湖南省,永州市,江华瑶族自治县,111.579305,25.18559
431200,湖南省怀化市,怀化市,湖南省,怀化市,,109.998488,27.554978
431201,湖南省怀化市市辖区,怀化市市辖区,湖南省,怀化市,,109.998488,27.554978
431202,湖南省怀化市鹤城区,鹤城区,湖南省,怀化市,鹤城区,110.040315,27.578926
431221,湖南省怀化市中方县,中方县,湖南省,怀化市,中方县,109.944712,27.440139
431222,湖南省怀化市沅陵县,沅陵县,湖南省,怀化市,沅陵县,110.393844,28.452686
431223,湖南省怀化市辰溪县,辰溪县,湖南省,怀化市,辰溪县,110.183917,28.006336
431224,湖南省怀化市溆浦县,溆浦县,湖南省,怀化市,溆浦县,110.594972,27.908316
431225,湖南省怀化市会同县,会同县,湖南省,怀化市,会同县,109.735661,26.887239
431226,湖南省怀化市麻阳苗族自治县,麻阳苗族自治县,湖南省,怀化市,麻阳苗族自治县,109.802587,27.865548
431227,湖南省怀化市新晃侗族自治县,新晃侗族自治县,湖南省,怀化市,新晃侗族自治县,109.174932,27.352673
431228,湖南省怀化市芷江侗族自治县,芷江侗族自治县,湖南省,怀化市,芷江侗族自治县,109.684629,27.443499
431229,湖南省怀化市靖州苗族侗族自治县,靖州苗族侗族自治县,湖南省,怀化市,靖州苗族侗族自治县,109.696311,26.575052
431230,湖南省怀化市通道侗族自治县,通道侗族自治县,湖南省,怀化市,通道侗族自治县,109.784412,26.158054
431281,湖南省怀化市洪江市,洪江市,湖南省,怀化市,洪江市,109.836669,27.208609
431300,湖南省娄底市,娄底市,湖南省,娄底市,,111.993497,27.700062
431301,湖南省娄底市市辖区,娄底市市辖区,湖南省,娄底市,,111.993497,27.700062
431302,湖南省娄底市娄星区,娄星区,湖南省,娄底市,娄星区,112.001937,27.729907
431321,湖南省娄底市双峰县,双峰县,湖南省,娄底市,双峰县,112.175246,27.456658
431322,湖南省娄底市新化县,新化县,湖南省,娄底市,新化县,111.327412,27.726515
431381,湖南省娄底市冷水江市,冷水江市,湖南省,娄底市,冷水江市,111.435623,27.68585
431382,湖南省娄底市涟源市,涟源市,湖南省,娄底市,涟源市,111.664316,27.692542
433100,湖南省湘西土家族苗族自治州,湘西土家族苗族自治州,湖南省,湘西土家族苗族自治州,,109.739172,28.311947
433101,湖南省湘西土家族苗族自治州吉首市,吉首市,湖南省,湘西土家族苗族自治州,吉首市,109.926773,28.297201
433122,湖南省湘西土家族苗族自治州泸溪县,泸溪县,湖南省,湘西土家族苗族自治州,泸溪县,110.21961,28.216641
433123,湖南省湘西土家族苗族自治州凤凰县,凤凰县,湖南省,湘西土家族苗族自治州,凤凰县,109.581072,27.958062
433124,湖南省湘西土家族苗族自治州花垣县,花垣县,湖南省,湘西土家族苗族自治州,花垣县,109.482078,28.57203
433125,湖南省湘西土家族苗族自治州保靖县,保靖县,湖南省,湘西土家族苗族自治州,保靖县,109.660577,28.699774
433126,湖南省湘西土家族苗族自治州古丈县,古丈县,湖南省,湘西土家族苗族自治州,古丈县,109.950728,28.616935
433127,湖南省湘西土家族苗族自治州永顺县,永顺县,湖南省,湘西土家族苗族自治州,永顺县,109.851254,29.00144
433130,湖南省湘西土家族苗族自治州龙山县,龙山县,湖南省,湘西土家族苗族自治州,龙山县,109.443939,29.457663
440000,广东省,广东省,广东省,,,113.26653,23.132191
440100,广东省广州市,广州市,广东省,广州市,,113.264434,23.129162
440101,广东省广州市市辖区,广州市市辖区,广东省,广州市,,113.264434,23.129162
440103,广东省广州市荔湾区,荔湾区,广东省,广州市,荔湾区,113.244261,23.125981
440104,广东省广州市越秀区,越秀区,广东省,广州市,越秀区,113.266841,23.128524
440105,广东省广州市海珠区,海珠区,广东省,广州市,海珠区,113.317388,23.083801
440106,广东省广州市天河区,天河区,广东省,广州市,天河区,113.3612,23.12468
440111,广东省广州市白云区,白云区,广东省,广州市,白云区,113.273289,23.15729
440112,广东省广州市黄埔区,黄埔区,广东省,广州市,黄埔区,113.459749,23.106402
440113,广东省广州市番禺区,番禺区,广东省,广州市,番禺区,113.384129,22.937244
440114,广东省广州市花都区,花都区,广东省,广州市,花都区,113.220218,23.404165
440115,广东省广州市南沙区,南沙区,广东省,广州市,南沙区,113.525165,22.801624
440117,广东省广州市从化区,从化区,广东省,广州市,从化区,113.586605,23.548852
440118,广东省广州市增城区,增城区,广东省,广州市,增城区,113.81086,23.261141
440200,广东省韶关市,韶关市,广东省,韶关市,,113.597522,24.810403
440201,广东省韶关市市辖区,韶关市市辖区,广东省,韶关市,,113.597522,24.810403
440203,广东省韶关市武江区,武江区,广东省,韶关市,武江区,113.587774,24.792924
440204,广东省韶关市浈江区,浈江区,广东省,韶关市,浈江区,113.611098,24.804381
440205,广东省韶关市曲江区,曲江区,广东省,韶关市,曲江区,113.604549,24.682728
440222,广东省韶关市始兴县,始兴县,广东省,韶关市,始兴县,114.061789,24.952977
440224,广东省韶关市仁化县,仁化县,广东省,韶关市,仁化县,113.749027,25.085621
440229,广东省韶关市翁源县,翁源县,广东省,韶关市,翁源县,114.130342,24.350347
440232,广东省韶关市乳源瑶族自治县,乳源瑶族自治县,广东省,韶关市,乳源瑶族自治县,113.275883,24.776078
440233,广东省韶关市新丰县,新丰县,广东省,韶关市,新丰县,114.206867,24.05976
440281,广东省韶关市乐昌市,乐昌市,广东省,韶关市,乐昌市,113.347519,25.130136
440282,广东省韶关市南雄市,南雄市,广东省,韶关市,南雄市,114.311982,25.117753
440300,广东省深圳市,深圳市,广东省,深圳市,,114.057868,22.543099
440301,广东省深圳市市辖区,深圳市市辖区,广东省,深圳市,,114.057868,22.543099
440303,广东省深圳市罗湖区,罗湖区,广东省,深圳市,罗湖区,114.131764,22.548171
440304,广东省深圳市福田区,福田区,广东省,深圳市,福田区,114.055036,22.52153
440305,广东省深圳市南山区,南山区,广东省,深圳市,南山区,113.923552,22.528499
440306,广东省深圳市宝安区,宝安区,广东省,深圳市,宝安区,113.88402,22.555259
440307,广东省深圳市龙岗区,龙岗区,广东省,深圳市,龙岗区,114.246899,22.720968
440308,广东省深圳市盐田区,盐田区,广东省,深圳市,盐田区,114.236875,22.556499
440309,广东省深圳市龙华区,龙华区,广东省,深圳市,龙华区,117.811221,36.0586155
440310,广东省深圳市坪山区,坪山区,广东省,深圳市,坪山区,113.9358915,22.7488
440311,广东省深圳市光明区,光明区,广东省,深圳市,光明区,113.935761,22.7488655
440400,广东省珠海市,珠海市,广东省,珠海市,,113.576726,22.270715
440401,广东省珠海市市辖区,珠海市市辖区,广东省,珠海市,,113.576726,22.270715
440402,广东省珠海市香洲区,香洲区,广东省,珠海市,香洲区,113.543785,22.265811
440403,广东省珠海市斗门区,斗门区,广东省,珠海市,斗门区,113.296467,22.2092
440404,广东省珠海市金湾区,金湾区,广东省,珠海市,金湾区,113.363393,22.146874
440500,广东省汕头市,汕头市,广东省,汕头市,,116.681972,23.354091
440501,广东省汕头市市辖区,汕头市市辖区,广东省,汕头市,,116.681972,23.354091
440507,广东省汕头市龙湖区,龙湖区,广东省,汕头市,龙湖区,116.716534,23.371476
440511,广东省汕头市金平区,金平区,广东省,汕头市,金平区,116.703426,23.365613
440512,广东省汕头市濠江区,濠江区,广东省,汕头市,濠江区,116.726973,23.286079
440513,广东省汕头市潮阳区,潮阳区,广东省,汕头市,潮阳区,116.601515,23.264936
440514,广东省汕头市潮南区,潮南区,广东省,汕头市,潮南区,116.433017,23.250425
440515,广东省汕头市澄海区,澄海区,广东省,汕头市,澄海区,116.756092,23.46596
440523,广东省汕头市南澳县,南澳县,广东省,汕头市,南澳县,117.023374,23.421724
440600,广东省佛山市,佛山市,广东省,佛山市,,113.121416,23.021548
440601,广东省佛山市市辖区,佛山市市辖区,广东省,佛山市,,113.121416,23.021548
440604,广东省佛山市禅城区,禅城区,广东省,佛山市,禅城区,113.12244,23.009505
440605,广东省佛山市南海区,南海区,广东省,佛山市,南海区,113.147759,23.025412
440606,广东省佛山市顺德区,顺德区,广东省,佛山市,顺德区,113.293359,22.80524
440607,广东省佛山市三水区,三水区,广东省,佛山市,三水区,112.896668,23.156065
440608,广东省佛山市高明区,高明区,广东省,佛山市,高明区,112.892578,22.900182
440700,广东省江门市,江门市,广东省,江门市,,113.081901,22.578738
440701,广东省江门市市辖区,江门市市辖区,广东省,江门市,,113.081901,22.578738
440703,广东省江门市蓬江区,蓬江区,广东省,江门市,蓬江区,113.078521,22.595149
440704,广东省江门市江海区,江海区,广东省,江门市,江海区,113.111612,22.560474
440705,广东省江门市新会区,新会区,广东省,江门市,新会区,113.034187,22.4583
440781,广东省江门市台山市,台山市,广东省,江门市,台山市,112.79597,22.251596
440783,广东省江门市开平市,开平市,广东省,江门市,开平市,112.698545,22.376395
440784,广东省江门市鹤山市,鹤山市,广东省,江门市,鹤山市,112.964446,22.765392
440785,广东省江门市恩平市,恩平市,广东省,江门市,恩平市,112.305145,22.183206
440800,广东省湛江市,湛江市,广东省,湛江市,,110.359377,21.270707
440801,广东省湛江市市辖区,湛江市市辖区,广东省,湛江市,,110.359377,21.270707
440802,广东省湛江市赤坎区,赤坎区,广东省,湛江市,赤坎区,110.3659,21.266119
440803,广东省湛江市霞山区,霞山区,广东省,湛江市,霞山区,110.39807,21.19172
440804,广东省湛江市坡头区,坡头区,广东省,湛江市,坡头区,110.455332,21.244721
440811,广东省湛江市麻章区,麻章区,广东省,湛江市,麻章区,110.334387,21.263443
440823,广东省湛江市遂溪县,遂溪县,广东省,湛江市,遂溪县,110.250124,21.377246
440825,广东省湛江市徐闻县,徐闻县,广东省,湛江市,徐闻县,110.17675,20.325489
440881,广东省湛江市廉江市,廉江市,广东省,湛江市,廉江市,110.286209,21.6097
440882,广东省湛江市雷州市,雷州市,广东省,湛江市,雷州市,110.096749,20.914278
440883,广东省湛江市吴川市,吴川市,广东省,湛江市,吴川市,110.778411,21.441808
440900,广东省茂名市,茂名市,广东省,茂名市,,110.925456,21.662999
440901,广东省茂名市市辖区,茂名市市辖区,广东省,茂名市,,110.925456,21.662999
440902,广东省茂名市茂南区,茂南区,广东省,茂名市,茂南区,110.918026,21.641337
440904,广东省茂名市电白区,电白区,广东省,茂名市,电白区,111.013556,21.514164
440981,广东省茂名市高州市,高州市,广东省,茂名市,高州市,110.853302,21.917982
440982,广东省茂名市化州市,化州市,广东省,茂名市,化州市,110.639569,21.664044
440983,广东省茂名市信宜市,信宜市,广东省,茂名市,信宜市,110.947044,22.354385
441200,广东省肇庆市,肇庆市,广东省,肇庆市,,112.465091,23.047191
441201,广东省肇庆市市辖区,肇庆市市辖区,广东省,肇庆市,,112.465091,23.047191
441202,广东省肇庆市端州区,端州区,广东省,肇庆市,端州区,112.484848,23.052101
441203,广东省肇庆市鼎湖区,鼎湖区,广东省,肇庆市,鼎湖区,112.567588,23.158447
441204,广东省肇庆市高要区,高要区,广东省,肇庆市,高要区,112.457771,23.025668
441223,广东省肇庆市广宁县,广宁县,广东省,肇庆市,广宁县,112.44069,23.634676
441224,广东省肇庆市怀集县,怀集县,广东省,肇庆市,怀集县,112.184652,23.911899
441225,广东省肇庆市封开县,封开县,广东省,肇庆市,封开县,111.512343,23.424033
441226,广东省肇庆市德庆县,德庆县,广东省,肇庆市,德庆县,111.785937,23.143722
441284,广东省肇庆市四会市,四会市,广东省,肇庆市,四会市,112.733773,23.326504
441300,广东省惠州市,惠州市,广东省,惠州市,,114.416196,23.111847
441301,广东省惠州市市辖区,惠州市市辖区,广东省,惠州市,,114.416196,23.111847
441302,广东省惠州市惠城区,惠城区,广东省,惠州市,惠城区,114.382485,23.084109
441303,广东省惠州市惠阳区,惠阳区,广东省,惠州市,惠阳区,114.456696,22.788734
441322,广东省惠州市博罗县,博罗县,广东省,惠州市,博罗县,114.289496,23.172899
441323,广东省惠州市惠东县,惠东县,广东省,惠州市,惠东县,114.720079,22.984975
441324,广东省惠州市龙门县,龙门县,广东省,惠州市,龙门县,114.254913,23.727732
441400,广东省梅州市,梅州市,广东省,梅州市,,116.122238,24.288615
441401,广东省梅州市市辖区,梅州市市辖区,广东省,梅州市,,116.122238,24.288615
441402,广东省梅州市梅江区,梅江区,广东省,梅州市,梅江区,116.116616,24.310384
441403,广东省梅州市梅县区,梅县区,广东省,梅州市,梅县区,116.082183,24.265312
441422,广东省梅州市大埔县,大埔县,广东省,梅州市,大埔县,116.695195,24.347783
441423,广东省梅州市丰顺县,丰顺县,广东省,梅州市,丰顺县,116.182299,23.739526
441424,广东省梅州市五华县,五华县,广东省,梅州市,五华县,115.776983,23.930769
441426,广东省梅州市平远县,平远县,广东省,梅州市,平远县,115.891638,24.567262
441427,广东省梅州市蕉岭县,蕉岭县,广东省,梅州市,蕉岭县,116.171356,24.6587
441481,广东省梅州市兴宁市,兴宁市,广东省,梅州市,兴宁市,115.723805,24.126159
441500,广东省汕尾市,汕尾市,广东省,汕尾市,,115.375278,22.786211
441501,广东省汕尾市市辖区,汕尾市市辖区,广东省,汕尾市,,115.375278,22.786211
441502,广东省汕尾市城区,城区,广东省,汕尾市,城区,115.365029,22.778699
441521,广东省汕尾市海丰县,海丰县,广东省,汕尾市,海丰县,115.323436,22.966586
441523,广东省汕尾市陆河县,陆河县,广东省,汕尾市,陆河县,115.660143,23.301617
441581,广东省汕尾市陆丰市,陆丰市,广东省,汕尾市,陆丰市,115.65226,22.917576
441600,广东省河源市,河源市,广东省,河源市,,114.700447,23.743538
441601,广东省河源市市辖区,河源市市辖区,广东省,河源市,,114.700447,23.743538
441602,广东省河源市源城区,源城区,广东省,河源市,源城区,114.702517,23.733969
441621,广东省河源市紫金县,紫金县,广东省,河源市,紫金县,115.184061,23.635271
441622,广东省河源市龙川县,龙川县,广东省,河源市,龙川县,115.259872,24.100066
441623,广东省河源市连平县,连平县,广东省,河源市,连平县,114.488714,24.369588
441624,广东省河源市和平县,和平县,广东省,河源市,和平县,114.938684,24.44218
441625,广东省河源市东源县,东源县,广东省,河源市,东源县,114.74638,23.788393
441700,广东省阳江市,阳江市,广东省,阳江市,,111.982232,21.857958
441701,广东省阳江市市辖区,阳江市市辖区,广东省,阳江市,,111.982232,21.857958
441702,广东省阳江市江城区,江城区,广东省,阳江市,江城区,111.955059,21.861787
441704,广东省阳江市阳东区,阳东区,广东省,阳江市,阳东区,112.006338,21.868358
441721,广东省阳江市阳西县,阳西县,广东省,阳江市,阳西县,111.617849,21.752396
441781,广东省阳江市阳春市,阳春市,广东省,阳江市,阳春市,111.791539,22.170438
441800,广东省清远市,清远市,广东省,清远市,,113.056031,23.681763
441801,广东省清远市市辖区,清远市市辖区,广东省,清远市,,113.056031,23.681763
441802,广东省清远市清城区,清城区,广东省,清远市,清城区,113.062692,23.697899
441803,广东省清远市清新区,清新区,广东省,清远市,清新区,113.017749,23.734673
441821,广东省清远市佛冈县,佛冈县,广东省,清远市,佛冈县,113.531607,23.879192
441823,广东省清远市阳山县,阳山县,广东省,清远市,阳山县,112.641363,24.465359
441825,广东省清远市连山壮族瑶族自治县,连山壮族瑶族自治县,广东省,清远市,连山壮族瑶族自治县,112.093617,24.570491
441826,广东省清远市连南瑶族自治县,连南瑶族自治县,广东省,清远市,连南瑶族自治县,112.287012,24.726017
441881,广东省清远市英德市,英德市,广东省,清远市,英德市,113.402376,24.205024
441882,广东省清远市连州市,连州市,广东省,清远市,连州市,112.377361,24.780966
441900,广东省东莞市,东莞市,广东省,东莞市,,113.751765,23.020536
442000,广东省中山市,中山市,广东省,中山市,,113.392782,22.517645
442101,广东省东沙群岛,东沙群岛,广东省,,,116.007965,21.072651
445100,广东省潮州市,潮州市,广东省,潮州市,,116.622603,23.65695
445101,广东省潮州市市辖区,潮州市市辖区,广东省,潮州市,,116.622603,23.65695
445102,广东省潮州市湘桥区,湘桥区,广东省,潮州市,湘桥区,116.628632,23.674536
445103,广东省潮州市潮安区,潮安区,广东省,潮州市,潮安区,116.678204,23.462613
445122,广东省潮州市饶平县,饶平县,广东省,潮州市,饶平县,117.0039,23.663824
445200,广东省揭阳市,揭阳市,广东省,揭阳市,,116.372831,23.549993
445201,广东省揭阳市市辖区,揭阳市市辖区,广东省,揭阳市,,116.372831,23.549993
445202,广东省揭阳市榕城区,榕城区,广东省,揭阳市,榕城区,116.367035,23.525229
445203,广东省揭阳市揭东区,揭东区,广东省,揭阳市,揭东区,116.412015,23.566127
445222,广东省揭阳市揭西县,揭西县,广东省,揭阳市,揭西县,115.841838,23.431294
445224,广东省揭阳市惠来县,惠来县,广东省,揭阳市,惠来县,116.29515,23.033267
445281,广东省揭阳市普宁市,普宁市,广东省,揭阳市,普宁市,116.166004,23.297642
445300,广东省云浮市,云浮市,广东省,云浮市,,112.044491,22.915094
445301,广东省云浮市市辖区,云浮市市辖区,广东省,云浮市,,112.044491,22.915094
445302,广东省云浮市云城区,云城区,广东省,云浮市,云城区,112.043832,22.928097
445303,广东省云浮市云安区,云安区,广东省,云浮市,云安区,112.003209,23.07102
445321,广东省云浮市新兴县,新兴县,广东省,云浮市,新兴县,112.225335,22.69569
445322,广东省云浮市郁南县,郁南县,广东省,云浮市,郁南县,111.535249,23.234627
445381,广东省云浮市罗定市,罗定市,广东省,云浮市,罗定市,111.569667,22.768939
450000,广西壮族自治区,广西壮族自治区,广西壮族自治区,,,108.327546,22.815478
450100,广西壮族自治区南宁市,南宁市,广西壮族自治区,南宁市,,108.366543,22.817002
450101,广西壮族自治区南宁市市辖区,南宁市市辖区,广西壮族自治区,南宁市,,108.366543,22.817002
450102,广西壮族自治区南宁市兴宁区,兴宁区,广西壮族自治区,南宁市,兴宁区,108.368871,22.854021
450103,广西壮族自治区南宁市青秀区,青秀区,广西壮族自治区,南宁市,青秀区,108.494024,22.785879
450105,广西壮族自治区南宁市江南区,江南区,广西壮族自治区,南宁市,江南区,108.273158,22.781632
450107,广西壮族自治区南宁市西乡塘区,西乡塘区,广西壮族自治区,南宁市,西乡塘区,108.306886,22.83277
450108,广西壮族自治区南宁市良庆区,良庆区,广西壮族自治区,南宁市,良庆区,108.322102,22.75909
450109,广西壮族自治区南宁市邕宁区,邕宁区,广西壮族自治区,南宁市,邕宁区,108.487369,22.75839
450110,广西壮族自治区南宁市武鸣区,武鸣区,广西壮族自治区,南宁市,武鸣区,108.274712,23.158693
450123,广西壮族自治区南宁市隆安县,隆安县,广西壮族自治区,南宁市,隆安县,107.696153,23.166028
450124,广西壮族自治区南宁市马山县,马山县,广西壮族自治区,南宁市,马山县,108.176979,23.708192
450125,广西壮族自治区南宁市上林县,上林县,广西壮族自治区,南宁市,上林县,108.604921,23.431936
450126,广西壮族自治区南宁市宾阳县,宾阳县,广西壮族自治区,南宁市,宾阳县,108.810326,23.217832
450127,广西壮族自治区南宁市横县,横县,广西壮族自治区,南宁市,横县,109.261384,22.679932
450200,广西壮族自治区柳州市,柳州市,广西壮族自治区,柳州市,,109.415953,24.325502
450201,广西壮族自治区柳州市市辖区,柳州市市辖区,广西壮族自治区,柳州市,,109.415953,24.325502
450202,广西壮族自治区柳州市城中区,城中区,广西壮族自治区,柳州市,城中区,109.410736,24.315602
450203,广西壮族自治区柳州市鱼峰区,鱼峰区,广西壮族自治区,柳州市,鱼峰区,109.452442,24.318517
450204,广西壮族自治区柳州市柳南区,柳南区,广西壮族自治区,柳州市,柳南区,109.385519,24.336229
450205,广西壮族自治区柳州市柳北区,柳北区,广西壮族自治区,柳州市,柳北区,109.40205,24.362691
450206,广西壮族自治区柳州市柳江区,柳江区,广西壮族自治区,柳州市,柳江区,109.32638,24.254892
450222,广西壮族自治区柳州市柳城县,柳城县,广西壮族自治区,柳州市,柳城县,109.24473,24.651518
450223,广西壮族自治区柳州市鹿寨县,鹿寨县,广西壮族自治区,柳州市,鹿寨县,109.750638,24.472897
450224,广西壮族自治区柳州市融安县,融安县,广西壮族自治区,柳州市,融安县,109.397538,25.22455
450225,广西壮族自治区柳州市融水苗族自治县,融水苗族自治县,广西壮族自治区,柳州市,融水苗族自治县,109.256334,25.065934
450226,广西壮族自治区柳州市三江侗族自治县,三江侗族自治县,广西壮族自治区,柳州市,三江侗族自治县,109.607675,25.783198
450300,广西壮族自治区桂林市,桂林市,广西壮族自治区,桂林市,,110.290194,25.273566
450301,广西壮族自治区桂林市市辖区,桂林市市辖区,广西壮族自治区,桂林市,,110.290194,25.273566
450302,广西壮族自治区桂林市秀峰区,秀峰区,广西壮族自治区,桂林市,秀峰区,110.264183,25.273625
450303,广西壮族自治区桂林市叠彩区,叠彩区,广西壮族自治区,桂林市,叠彩区,110.301723,25.314001
450304,广西壮族自治区桂林市象山区,象山区,广西壮族自治区,桂林市,象山区,110.281082,25.261687
450305,广西壮族自治区桂林市七星区,七星区,广西壮族自治区,桂林市,七星区,110.317826,25.252701
450311,广西壮族自治区桂林市雁山区,雁山区,广西壮族自治区,桂林市,雁山区,110.28669,25.101935
450312,广西壮族自治区桂林市临桂区,临桂区,广西壮族自治区,桂林市,临桂区,110.212463,25.238628
450321,广西壮族自治区桂林市阳朔县,阳朔县,广西壮族自治区,桂林市,阳朔县,110.496593,24.778481
450323,广西壮族自治区桂林市灵川县,灵川县,广西壮族自治区,桂林市,灵川县,110.325636,25.409747
450324,广西壮族自治区桂林市全州县,全州县,广西壮族自治区,桂林市,全州县,111.072926,25.928617
450325,广西壮族自治区桂林市兴安县,兴安县,广西壮族自治区,桂林市,兴安县,110.67167,25.611705
450326,广西壮族自治区桂林市永福县,永福县,广西壮族自治区,桂林市,永福县,109.983076,24.979856
450327,广西壮族自治区桂林市灌阳县,灌阳县,广西壮族自治区,桂林市,灌阳县,111.160851,25.489383
450328,广西壮族自治区桂林市龙胜各族自治县,龙胜各族自治县,广西壮族自治区,桂林市,龙胜各族自治县,110.011238,25.797931
450329,广西壮族自治区桂林市资源县,资源县,广西壮族自治区,桂林市,资源县,110.6527,26.042443
450330,广西壮族自治区桂林市平乐县,平乐县,广西壮族自治区,桂林市,平乐县,110.643305,24.633362
450381,广西壮族自治区桂林市荔浦市,荔浦市,广西壮族自治区,桂林市,荔浦市,110.6150135,24.499683
450332,广西壮族自治区桂林市恭城瑶族自治县,恭城瑶族自治县,广西壮族自治区,桂林市,恭城瑶族自治县,110.82841,24.831682
450400,广西壮族自治区梧州市,梧州市,广西壮族自治区,梧州市,,111.279115,23.476962
450401,广西壮族自治区梧州市市辖区,梧州市市辖区,广西壮族自治区,梧州市,,111.279115,23.476962
450403,广西壮族自治区梧州市万秀区,万秀区,广西壮族自治区,梧州市,万秀区,111.320542,23.472962
450405,广西壮族自治区梧州市长洲区,长洲区,广西壮族自治区,梧州市,长洲区,111.274777,23.485695
450406,广西壮族自治区梧州市龙圩区,龙圩区,广西壮族自治区,梧州市,龙圩区,111.246035,23.40996
450421,广西壮族自治区梧州市苍梧县,苍梧县,广西壮族自治区,梧州市,苍梧县,111.544008,23.845097
450422,广西壮族自治区梧州市藤县,藤县,广西壮族自治区,梧州市,藤县,110.914849,23.374984
450423,广西壮族自治区梧州市蒙山县,蒙山县,广西壮族自治区,梧州市,蒙山县,110.525003,24.19357
450481,广西壮族自治区梧州市岑溪市,岑溪市,广西壮族自治区,梧州市,岑溪市,110.994913,22.91835
450500,广西壮族自治区北海市,北海市,广西壮族自治区,北海市,,109.119927,21.481254
450501,广西壮族自治区北海市市辖区,北海市市辖区,广西壮族自治区,北海市,,109.119927,21.481254
450502,广西壮族自治区北海市海城区,海城区,广西壮族自治区,北海市,海城区,109.11721,21.475005
450503,广西壮族自治区北海市银海区,银海区,广西壮族自治区,北海市,银海区,109.13999,21.449219
450512,广西壮族自治区北海市铁山港区,铁山港区,广西壮族自治区,北海市,铁山港区,109.421581,21.529128
450521,广西壮族自治区北海市合浦县,合浦县,广西壮族自治区,北海市,合浦县,109.207336,21.660936
450600,广西壮族自治区防城港市,防城港市,广西壮族自治区,防城港市,,108.353846,21.68686
450601,广西壮族自治区防城港市市辖区,防城港市市辖区,广西壮族自治区,防城港市,,108.353846,21.68686
450602,广西壮族自治区防城港市港口区,港口区,广西壮族自治区,防城港市,港口区,108.380144,21.643384
450603,广西壮族自治区防城港市防城区,防城区,广西壮族自治区,防城港市,防城区,108.353499,21.769212
450621,广西壮族自治区防城港市上思县,上思县,广西壮族自治区,防城港市,上思县,107.983626,22.153672
450681,广西壮族自治区防城港市东兴市,东兴市,广西壮族自治区,防城港市,东兴市,107.971826,21.547822
450700,广西壮族自治区钦州市,钦州市,广西壮族自治区,钦州市,,108.654146,21.979933
450701,广西壮族自治区钦州市市辖区,钦州市市辖区,广西壮族自治区,钦州市,,108.654146,21.979933
450702,广西壮族自治区钦州市钦南区,钦南区,广西壮族自治区,钦州市,钦南区,108.65721,21.93886
450703,广西壮族自治区钦州市钦北区,钦北区,广西壮族自治区,钦州市,钦北区,108.44911,22.132761
450721,广西壮族自治区钦州市灵山县,灵山县,广西壮族自治区,钦州市,灵山县,109.291007,22.416537
450722,广西壮族自治区钦州市浦北县,浦北县,广西壮族自治区,钦州市,浦北县,109.556953,22.271651
450800,广西壮族自治区贵港市,贵港市,广西壮族自治区,贵港市,,109.598926,23.11153
450801,广西壮族自治区贵港市市辖区,贵港市市辖区,广西壮族自治区,贵港市,,109.598926,23.11153
450802,广西壮族自治区贵港市港北区,港北区,广西壮族自治区,贵港市,港北区,109.57224,23.111531
450803,广西壮族自治区贵港市港南区,港南区,广西壮族自治区,贵港市,港南区,109.599557,23.075573
450804,广西壮族自治区贵港市覃塘区,覃塘区,广西壮族自治区,贵港市,覃塘区,109.452662,23.127149
450821,广西壮族自治区贵港市平南县,平南县,广西壮族自治区,贵港市,平南县,110.392168,23.539127
450881,广西壮族自治区贵港市桂平市,桂平市,广西壮族自治区,贵港市,桂平市,110.079379,23.394326
450900,广西壮族自治区玉林市,玉林市,广西壮族自治区,玉林市,,110.164756,22.636379
450901,广西壮族自治区玉林市市辖区,玉林市市辖区,广西壮族自治区,玉林市,,110.164756,22.636379
450902,广西壮族自治区玉林市玉州区,玉州区,广西壮族自治区,玉林市,玉州区,110.151088,22.628062
450903,广西壮族自治区玉林市福绵区,福绵区,广西壮族自治区,玉林市,福绵区,110.059439,22.585557
450921,广西壮族自治区玉林市容县,容县,广西壮族自治区,玉林市,容县,110.557874,22.857823
450922,广西壮族自治区玉林市陆川县,陆川县,广西壮族自治区,玉林市,陆川县,110.264052,22.321048
450923,广西壮族自治区玉林市博白县,博白县,广西壮族自治区,玉林市,博白县,109.975985,22.273048
450924,广西壮族自治区玉林市兴业县,兴业县,广西壮族自治区,玉林市,兴业县,109.876855,22.820746
450981,广西壮族自治区玉林市北流市,北流市,广西壮族自治区,玉林市,北流市,110.354215,22.708311
451000,广西壮族自治区百色市,百色市,广西壮族自治区,百色市,,106.618201,23.902333
451001,广西壮族自治区百色市市辖区,百色市市辖区,广西壮族自治区,百色市,,106.618201,23.902333
451002,广西壮族自治区百色市右江区,右江区,广西壮族自治区,百色市,右江区,106.618645,23.901383
451021,广西壮族自治区百色市田阳县,田阳县,广西壮族自治区,百色市,田阳县,106.915418,23.735682
451022,广西壮族自治区百色市田东县,田东县,广西壮族自治区,百色市,田东县,107.126081,23.597194
451023,广西壮族自治区百色市平果县,平果县,广西壮族自治区,百色市,平果县,107.58981,23.329376
451024,广西壮族自治区百色市德保县,德保县,广西壮族自治区,百色市,德保县,106.615374,23.32345
451026,广西壮族自治区百色市那坡县,那坡县,广西壮族自治区,百色市,那坡县,105.83253,23.387441
451027,广西壮族自治区百色市凌云县,凌云县,广西壮族自治区,百色市,凌云县,106.56131,24.347557
451028,广西壮族自治区百色市乐业县,乐业县,广西壮族自治区,百色市,乐业县,106.556519,24.776827
451029,广西壮族自治区百色市田林县,田林县,广西壮族自治区,百色市,田林县,106.228538,24.294488
451030,广西壮族自治区百色市西林县,西林县,广西壮族自治区,百色市,西林县,105.093837,24.48981
451031,广西壮族自治区百色市隆林各族自治县,隆林各族自治县,广西壮族自治区,百色市,隆林各族自治县,105.34404,24.770896
451081,广西壮族自治区百色市靖西市,靖西市,广西壮族自治区,百色市,靖西市,106.417549,23.134766
451100,广西壮族自治区贺州市,贺州市,广西壮族自治区,贺州市,,111.566694,24.403582
451101,广西壮族自治区贺州市市辖区,贺州市市辖区,广西壮族自治区,贺州市,,111.566694,24.403582
451102,广西壮族自治区贺州市八步区,八步区,广西壮族自治区,贺州市,八步区,111.552077,24.411811
451103,广西壮族自治区贺州市平桂区,平桂区,广西壮族自治区,贺州市,平桂区,111.1092045,24.1624695
451121,广西壮族自治区贺州市昭平县,昭平县,广西壮族自治区,贺州市,昭平县,110.811287,24.16948
451122,广西壮族自治区贺州市钟山县,钟山县,广西壮族自治区,贺州市,钟山县,111.303111,24.526022
451123,广西壮族自治区贺州市富川瑶族自治县,富川瑶族自治县,广西壮族自治区,贺州市,富川瑶族自治县,111.277389,24.814444
451200,广西壮族自治区河池市,河池市,广西壮族自治区,河池市,,108.085261,24.692931
451201,广西壮族自治区河池市市辖区,河池市市辖区,广西壮族自治区,河池市,,108.085261,24.692931
451202,广西壮族自治区河池市金城江区,金城江区,广西壮族自治区,河池市,金城江区,108.037277,24.689703
451203,广西壮族自治区河池市宜州区,宜州区,广西壮族自治区,河池市,宜州区,111.479786,24.453898
451221,广西壮族自治区河池市南丹县,南丹县,广西壮族自治区,河池市,南丹县,107.540722,24.974486
451222,广西壮族自治区河池市天峨县,天峨县,广西壮族自治区,河池市,天峨县,107.173802,24.999108
451223,广西壮族自治区河池市凤山县,凤山县,广西壮族自治区,河池市,凤山县,107.042191,24.546876
451224,广西壮族自治区河池市东兰县,东兰县,广西壮族自治区,河池市,东兰县,107.374294,24.510842
451225,广西壮族自治区河池市罗城仫佬族自治县,罗城仫佬族自治县,广西壮族自治区,河池市,罗城仫佬族自治县,108.904761,24.777421
451226,广西壮族自治区河池市环江毛南族自治县,环江毛南族自治县,广西壮族自治区,河池市,环江毛南族自治县,108.258028,24.825664
451227,广西壮族自治区河池市巴马瑶族自治县,巴马瑶族自治县,广西壮族自治区,河池市,巴马瑶族自治县,107.258588,24.142299
451228,广西壮族自治区河池市都安瑶族自治县,都安瑶族自治县,广西壮族自治区,河池市,都安瑶族自治县,108.105312,23.932675
451229,广西壮族自治区河池市大化瑶族自治县,大化瑶族自治县,广西壮族自治区,河池市,大化瑶族自治县,107.99815,23.736457
451300,广西壮族自治区来宾市,来宾市,广西壮族自治区,来宾市,,109.221465,23.750306
451301,广西壮族自治区来宾市市辖区,来宾市市辖区,广西壮族自治区,来宾市,,109.221465,23.750306
451302,广西壮族自治区来宾市兴宾区,兴宾区,广西壮族自治区,来宾市,兴宾区,109.233247,23.736153
451321,广西壮族自治区来宾市忻城县,忻城县,广西壮族自治区,来宾市,忻城县,108.665666,24.066235
451322,广西壮族自治区来宾市象州县,象州县,广西壮族自治区,来宾市,象州县,109.683985,23.958528
451323,广西壮族自治区来宾市武宣县,武宣县,广西壮族自治区,来宾市,武宣县,109.663207,23.59411
451324,广西壮族自治区来宾市金秀瑶族自治县,金秀瑶族自治县,广西壮族自治区,来宾市,金秀瑶族自治县,110.189462,24.130374
451381,广西壮族自治区来宾市合山市,合山市,广西壮族自治区,来宾市,合山市,108.886082,23.806536
451400,广西壮族自治区崇左市,崇左市,广西壮族自治区,崇左市,,107.364711,22.376532
451401,广西壮族自治区崇左市市辖区,崇左市市辖区,广西壮族自治区,崇左市,,107.364711,22.376532
451402,广西壮族自治区崇左市江州区,江州区,广西壮族自治区,崇左市,江州区,107.353437,22.405325
451421,广西壮族自治区崇左市扶绥县,扶绥县,广西壮族自治区,崇左市,扶绥县,107.904187,22.635013
451422,广西壮族自治区崇左市宁明县,宁明县,广西壮族自治区,崇左市,宁明县,107.076457,22.140192
451423,广西壮族自治区崇左市龙州县,龙州县,广西壮族自治区,崇左市,龙州县,106.854451,22.342797
451424,广西壮族自治区崇左市大新县,大新县,广西壮族自治区,崇左市,大新县,107.200654,22.829288
451425,广西壮族自治区崇左市天等县,天等县,广西壮族自治区,崇左市,天等县,107.143433,23.081394
451481,广西壮族自治区崇左市凭祥市,凭祥市,广西壮族自治区,崇左市,凭祥市,106.766293,22.094485
460000,海南省,海南省,海南省,,,110.349228,20.017377
460100,海南省海口市,海口市,海南省,海口市,,110.198293,20.044001
460101,海南省海口市市辖区,海口市市辖区,海南省,海口市,,110.198293,20.044001
460105,海南省海口市秀英区,秀英区,海南省,海口市,秀英区,110.293561,20.007969
460106,海南省海口市龙华区,龙华区,海南省,海口市,龙华区,110.328492,20.031007
460107,海南省海口市琼山区,琼山区,海南省,海口市,琼山区,110.353972,20.00317
460108,海南省海口市美兰区,美兰区,海南省,海口市,美兰区,110.366357,20.029083
460200,海南省三亚市,三亚市,海南省,三亚市,,109.511909,18.252847
460201,海南省三亚市市辖区,三亚市市辖区,海南省,三亚市,,109.511909,18.252847
460202,海南省三亚市海棠区,海棠区,海南省,三亚市,海棠区,109.760778,18.407516
460203,海南省三亚市吉阳区,吉阳区,海南省,三亚市,吉阳区,109.57833,18.281397
460204,海南省三亚市天涯区,天涯区,海南省,三亚市,天涯区,109.506357,18.24734
460205,海南省三亚市崖州区,崖州区,海南省,三亚市,崖州区,109.174313,18.352212
460300,海南省三沙市,三沙市,海南省,三沙市,,112.338695,16.831839
460301,海南省三沙市市辖区,三沙市市辖区,海南省,三沙市,,112.338695,16.831839
460321,海南省三沙市西沙群岛西沙群岛,西沙群岛,海南省,三沙市,西沙群岛,112.026538,16.330358
460322,海南省三沙市南沙群岛,南沙群岛,海南省,三沙市,南沙群岛,116.749998,11.471888
460323,海南省三沙市中沙群岛的岛礁及其海域,中沙群岛的岛礁及其海域,海南省,三沙市,中沙群岛的岛礁及其海域,117.740071,15.112856
460400,海南省儋州市,儋州市,海南省,儋州市,,109.580811,19.521134
469001,五指山市,五指山市,海南省,,五指山市,109.516925,18.775146
469002,琼海市,琼海市,海南省,,琼海市,110.474581,19.25914
469005,文昌市,文昌市,海南省,,文昌市,110.797717,19.543422
469006,万宁市,万宁市,海南省,,万宁市,110.391073,18.795143
469007,东方市,东方市,海南省,,东方市,108.651815,19.095351
469021,海南省定安县,定安县,海南省,,定安县,110.358891,19.681434
469022,海南省屯昌县,屯昌县,海南省,,屯昌县,110.103415,19.351766
469023,海南省澄迈县,澄迈县,海南省,,澄迈县,110.006755,19.738521
469024,海南省临高县,临高县,海南省,,临高县,109.690508,19.912026
469025,海南省白沙黎族自治县,白沙黎族自治县,海南省,,白沙黎族自治县,109.451484,19.224823
469026,海南省昌江黎族自治县,昌江黎族自治县,海南省,,昌江黎族自治县,109.055724,19.298062
469027,海南省乐东黎族自治县,乐东黎族自治县,海南省,,乐东黎族自治县,109.173055,18.75026
469028,海南省陵水黎族自治县,陵水黎族自治县,海南省,,陵水黎族自治县,110.037504,18.506048
469029,海南省保亭黎族苗族自治县,保亭黎族苗族自治县,海南省,,保亭黎族苗族自治县,109.702392,18.638189
469030,海南省琼中黎族苗族自治县,琼中黎族苗族自治县,海南省,,琼中黎族苗族自治县,109.838389,19.033369
500000,重庆市,重庆市,重庆市,重庆市,,106.551556,29.563009
500100,重庆市市辖区,重庆市市辖区,重庆市,重庆市,,106.551556,29.563009
500101,重庆市万州区,万州区,重庆市,重庆市,万州区,108.408661,30.807667
500102,重庆市涪陵区,涪陵区,重庆市,重庆市,涪陵区,107.389298,29.703113
500103,重庆市渝中区,渝中区,重庆市,重庆市,渝中区,106.568892,29.55275
500104,重庆市大渡口区,大渡口区,重庆市,重庆市,大渡口区,106.482347,29.484527
500105,重庆市江北区,江北区,重庆市,重庆市,江北区,106.574271,29.606703
500106,重庆市沙坪坝区,沙坪坝区,重庆市,重庆市,沙坪坝区,106.456878,29.541145
500107,重庆市九龙坡区,九龙坡区,重庆市,重庆市,九龙坡区,106.53192,29.51419
500108,重庆市南岸区,南岸区,重庆市,重庆市,南岸区,106.644428,29.500297
500109,重庆市北碚区,北碚区,重庆市,重庆市,北碚区,106.445122,29.822616
500110,重庆市綦江区,綦江区,重庆市,重庆市,綦江区,106.651362,29.028067
500111,重庆市大足区,大足区,重庆市,重庆市,大足区,105.721733,29.707032
500112,重庆市渝北区,渝北区,重庆市,重庆市,渝北区,106.631187,29.718143
500113,重庆市巴南区,巴南区,重庆市,重庆市,巴南区,106.53384,29.375528
500114,重庆市黔江区,黔江区,重庆市,重庆市,黔江区,108.770678,29.53361
500115,重庆市长寿区,长寿区,重庆市,重庆市,长寿区,107.081283,29.857996
500116,重庆市江津区,江津区,重庆市,重庆市,江津区,106.259281,29.290069
500117,重庆市合川区,合川区,重庆市,重庆市,合川区,106.27613,29.972084
500118,重庆市永川区,永川区,重庆市,重庆市,永川区,105.927376,29.356117
500119,重庆市南川区,南川区,重庆市,重庆市,南川区,107.099266,29.157891
500120,重庆市璧山区,璧山区,重庆市,重庆市,璧山区,106.227305,29.592024
500151,重庆市铜梁区,铜梁区,重庆市,重庆市,铜梁区,106.056404,29.844811
500152,重庆市潼南区,潼南区,重庆市,重庆市,潼南区,105.840556,30.191013
500153,重庆市荣昌区,荣昌区,重庆市,重庆市,荣昌区,105.594623,29.405002
500154,重庆市开州区,开州区,重庆市,重庆市,开州区,108.393135,31.160711
500155,重庆市梁平区,梁平区,重庆市,重庆市,梁平区,107.769581,30.65423
500156,重庆市武隆区,武隆区,重庆市,重庆市,武隆区,107.760025,29.325601
500200,重庆市,重庆市,重庆市,县,,106.551556,29.563009
500229,重庆市城口县,城口县,重庆市,重庆市,城口县,108.664214,31.947633
500230,重庆市丰都县,丰都县,重庆市,重庆市,丰都县,107.730895,29.8635
500231,重庆市垫江县,垫江县,重庆市,重庆市,垫江县,107.33339,30.327717
500233,重庆市忠县,忠县,重庆市,重庆市,忠县,108.039002,30.29956
500235,重庆市云阳县,云阳县,重庆市,重庆市,云阳县,108.697324,30.930613
500236,重庆市奉节县,奉节县,重庆市,重庆市,奉节县,109.463987,31.018498
500237,重庆市巫山县,巫山县,重庆市,重庆市,巫山县,109.879153,31.074834
500238,重庆市巫溪县,巫溪县,重庆市,重庆市,巫溪县,109.570062,31.398604
500240,重庆市石柱土家族自治县,石柱土家族自治县,重庆市,重庆市,石柱土家族自治县,108.114069,29.999285
500241,重庆市秀山土家族苗族自治县,秀山土家族苗族自治县,重庆市,重庆市,秀山土家族苗族自治县,109.007094,28.447997
500242,重庆市酉阳土家族苗族自治县,酉阳土家族苗族自治县,重庆市,重庆市,酉阳土家族苗族自治县,108.767747,28.841244
500243,重庆市彭水苗族土家族自治县,彭水苗族土家族自治县,重庆市,重庆市,彭水苗族土家族自治县,108.165538,29.293902
510000,四川省,四川省,四川省,,,104.075931,30.651651
510100,四川省成都市,成都市,四川省,成都市,,104.066541,30.572269
510101,四川省成都市市辖区,成都市市辖区,四川省,成都市,,104.066541,30.572269
510104,四川省成都市锦江区,锦江区,四川省,成都市,锦江区,104.080989,30.657689
510105,四川省成都市青羊区,青羊区,四川省,成都市,青羊区,104.062499,30.674406
510106,四川省成都市金牛区,金牛区,四川省,成都市,金牛区,104.117422,30.763102
510107,四川省成都市武侯区,武侯区,四川省,成都市,武侯区,104.04339,30.641982
510108,四川省成都市成华区,成华区,四川省,成都市,成华区,104.101255,30.660122
510112,四川省成都市龙泉驿区,龙泉驿区,四川省,成都市,龙泉驿区,104.274632,30.556507
510113,四川省成都市青白江区,青白江区,四川省,成都市,青白江区,104.250877,30.878681
510114,四川省成都市新都区,新都区,四川省,成都市,新都区,104.158705,30.823499
510115,四川省成都市温江区,温江区,四川省,成都市,温江区,103.837104,30.69046
510116,四川省成都市双流区,双流区,四川省,成都市,双流区,103.951908,30.333027
510117,四川省成都市郫都区,郫都区,四川省,成都市,郫都区,103.901092,30.795854
510121,四川省成都市金堂县,金堂县,四川省,成都市,金堂县,104.412005,30.862017
510129,四川省成都市大邑县,大邑县,四川省,成都市,大邑县,103.511875,30.572269
510131,四川省成都市蒲江县,蒲江县,四川省,成都市,蒲江县,103.506498,30.196789
510132,四川省成都市新津县,新津县,四川省,成都市,新津县,103.811345,30.410222
510181,四川省成都市都江堰市,都江堰市,四川省,成都市,都江堰市,103.650219,30.975943
510182,四川省成都市彭州市,彭州市,四川省,成都市,彭州市,103.958013,30.990165
510183,四川省成都市邛崃市,邛崃市,四川省,成都市,邛崃市,103.464156,30.410275
510184,四川省成都市崇州市,崇州市,四川省,成都市,崇州市,103.673001,30.630122
510185,四川省成都市简阳市,简阳市,四川省,成都市,简阳市,104.546773,30.410754
510300,四川省自贡市,自贡市,四川省,自贡市,,104.778442,29.33903
510301,四川省自贡市市辖区,自贡市市辖区,四川省,自贡市,,104.778442,29.33903
510302,四川省自贡市自流井区,自流井区,四川省,自贡市,自流井区,104.777191,29.33743
510303,四川省自贡市贡井区,贡井区,四川省,自贡市,贡井区,104.715117,29.345546
510304,四川省自贡市大安区,大安区,四川省,自贡市,大安区,104.773968,29.363634
510311,四川省自贡市沿滩区,沿滩区,四川省,自贡市,沿滩区,104.874073,29.272581
510321,四川省自贡市荣县,荣县,四川省,自贡市,荣县,104.417388,29.44541
510322,四川省自贡市富顺县,富顺县,四川省,自贡市,富顺县,104.975048,29.18143
510400,四川省攀枝花市,攀枝花市,四川省,攀枝花市,,101.718637,26.582347
510401,四川省攀枝花市市辖区,攀枝花市市辖区,四川省,攀枝花市,,101.718637,26.582347
510402,四川省攀枝花市东区,东区,四川省,攀枝花市,东区,101.718637,26.582347
510403,四川省攀枝花市西区,西区,四川省,攀枝花市,西区,101.718637,26.582347
510411,四川省攀枝花市仁和区,仁和区,四川省,攀枝花市,仁和区,101.738528,26.497765
510421,四川省攀枝花市米易县,米易县,四川省,攀枝花市,米易县,102.110339,26.890689
510422,四川省攀枝花市盐边县,盐边县,四川省,攀枝花市,盐边县,101.855071,26.683213
510500,泸州市,泸州市,四川省,泸州市,,105.442258,28.871811
510501,泸州市市辖区,泸州市市辖区,四川省,泸州市,,105.442258,28.871811
510502,四川省泸州市江阳区,江阳区,四川省,泸州市,江阳区,105.435009,28.878818
510503,四川省泸州市纳溪区,纳溪区,四川省,泸州市,纳溪区,105.371151,28.773428
510504,四川省泸州市龙马潭区,龙马潭区,四川省,泸州市,龙马潭区,105.437765,28.913221
510521,四川省泸州市泸县,泸县,四川省,泸州市,泸县,105.381893,29.151534
510522,四川省泸州市合江县,合江县,四川省,泸州市,合江县,105.831067,28.811203
510524,四川省泸州市叙永县,叙永县,四川省,泸州市,叙永县,105.444765,28.155801
510525,四川省泸州市古蔺县,古蔺县,四川省,泸州市,古蔺县,105.812602,28.038802
510600,四川省德阳市,德阳市,四川省,德阳市,,104.397894,31.126855
510601,四川省德阳市市辖区,德阳市市辖区,四川省,德阳市,,104.397894,31.126855
510603,四川省德阳市旌阳区,旌阳区,四川省,德阳市,旌阳区,104.416943,31.142498
510623,四川省德阳市中江县,中江县,四川省,德阳市,中江县,104.678749,31.033051
510604,四川省德阳市罗江区罗江,罗江区,四川省,德阳市,罗江区,104.509602,31.296847
510681,四川省德阳市广汉市,广汉市,四川省,德阳市,广汉市,104.282331,30.976165
510682,四川省德阳市什邡市,什邡市,四川省,德阳市,什邡市,104.167501,31.12678
510683,四川省德阳市绵竹市,绵竹市,四川省,德阳市,绵竹市,104.22075,31.338077
510700,四川省绵阳市,绵阳市,四川省,绵阳市,,104.679114,31.46745
510701,四川省绵阳市市辖区,绵阳市市辖区,四川省,绵阳市,,104.679114,31.46745
510703,四川省绵阳市涪城区,涪城区,四川省,绵阳市,涪城区,104.750215,31.47083
510704,四川省绵阳市游仙区,游仙区,四川省,绵阳市,游仙区,104.766393,31.473779
510705,四川省绵阳市安州区,安州区,四川省,绵阳市,安州区,104.567187,31.534886
510722,四川省绵阳市三台县,三台县,四川省,绵阳市,三台县,105.094586,31.095979
510723,四川省绵阳市盐亭县,盐亭县,四川省,绵阳市,盐亭县,105.389453,31.208363
510725,四川省绵阳市梓潼县,梓潼县,四川省,绵阳市,梓潼县,105.170845,31.642718
510726,四川省绵阳市北川羌族自治县,北川羌族自治县,四川省,绵阳市,北川羌族自治县,104.46797,31.617203
510727,四川省绵阳市平武县,平武县,四川省,绵阳市,平武县,104.555583,32.409675
510781,四川省绵阳市江油市,江油市,四川省,绵阳市,江油市,104.745877,31.778025
510800,四川省广元市,广元市,四川省,广元市,,105.843357,32.435435
510801,四川省广元市市辖区,广元市市辖区,四川省,广元市,,105.843357,32.435435
510802,四川省广元市利州区,利州区,四川省,广元市,利州区,105.845218,32.433898
510811,四川省广元市昭化区,昭化区,四川省,广元市,昭化区,105.964121,32.322788
510812,四川省广元市朝天区,朝天区,四川省,广元市,朝天区,105.890445,32.643982
510821,四川省广元市旺苍县,旺苍县,四川省,广元市,旺苍县,106.289905,32.228917
510822,四川省广元市青川县,青川县,四川省,广元市,青川县,105.238842,32.575485
510823,四川省广元市剑阁县,剑阁县,四川省,广元市,剑阁县,105.524766,32.287723
510824,四川省广元市苍溪县,苍溪县,四川省,广元市,苍溪县,105.934801,31.732432
510900,四川省遂宁市,遂宁市,四川省,遂宁市,,105.592898,30.532847
510901,四川省遂宁市市辖区,遂宁市市辖区,四川省,遂宁市,,105.592898,30.532847
510903,四川省遂宁市船山区,船山区,四川省,遂宁市,船山区,105.568297,30.525475
510904,四川省遂宁市安居区,安居区,四川省,遂宁市,安居区,105.456342,30.355379
510921,四川省遂宁市蓬溪县,蓬溪县,四川省,遂宁市,蓬溪县,105.70757,30.757575
510922,四川省遂宁市射洪县,射洪县,四川省,遂宁市,射洪县,105.388405,30.870986
510923,四川省遂宁市大英县,大英县,四川省,遂宁市,大英县,105.236904,30.594337
511000,四川省内江市,内江市,四川省,内江市,,105.058433,29.580228
511001,四川省内江市市辖区,内江市市辖区,四川省,内江市,,105.058433,29.580228
511002,四川省内江市市中区,市中区,四川省,内江市,市中区,105.067597,29.587053
511011,四川省内江市东兴区,东兴区,四川省,内江市,东兴区,105.07549,29.592756
511024,四川省内江市威远县,威远县,四川省,内江市,威远县,104.668879,29.52744
511025,四川省内江市资中县,资中县,四川省,内江市,资中县,104.851944,29.764059
511083,四川省内江市隆昌市,隆昌市,四川省,内江市,隆昌市,105.287612,29.339476
511100,乐山市,乐山市,四川省,乐山市,,103.765568,29.552106
511101,乐山市市辖区,乐山市市辖区,四川省,乐山市,,103.765568,29.552106
511102,四川省乐山市市中区,市中区,四川省,乐山市,市中区,103.76133,29.555375
511111,四川省乐山市沙湾区,沙湾区,四川省,乐山市,沙湾区,103.549991,29.413091
511112,四川省乐山市五通桥区,五通桥区,四川省,乐山市,五通桥区,103.818009,29.406932
511113,四川省乐山市金口河区,金口河区,四川省,乐山市,金口河区,103.078621,29.244345
511123,四川省乐山市犍为县,犍为县,四川省,乐山市,犍为县,103.949326,29.208171
511124,四川省乐山市井研县,井研县,四川省,乐山市,井研县,104.069726,29.651287
511126,四川省乐山市夹江县,夹江县,四川省,乐山市,夹江县,103.571657,29.73763
511129,四川省乐山市沐川县,沐川县,四川省,乐山市,沐川县,103.902335,28.956647
511132,四川省乐山市峨边彝族自治县,峨边彝族自治县,四川省,乐山市,峨边彝族自治县,103.262048,29.230425
511133,四川省乐山市马边彝族自治县,马边彝族自治县,四川省,乐山市,马边彝族自治县,103.546348,28.835521
511181,四川省乐山市峨眉山市,峨眉山市,四川省,乐山市,峨眉山市,103.484504,29.601199
511300,四川省南充市,南充市,四川省,南充市,,106.110698,30.837793
511301,四川省南充市市辖区,南充市市辖区,四川省,南充市,,106.110698,30.837793
511302,四川省南充市顺庆区,顺庆区,四川省,南充市,顺庆区,106.092399,30.796486
511303,四川省南充市高坪区,高坪区,四川省,南充市,高坪区,106.118808,30.781623
511304,四川省南充市嘉陵区,嘉陵区,四川省,南充市,嘉陵区,106.071793,30.758748
511321,四川省南充市南部县,南部县,四川省,南充市,南部县,106.036584,31.347467
511322,四川省南充市营山县,营山县,四川省,南充市,营山县,106.56542,31.076461
511323,四川省南充市蓬安县,蓬安县,四川省,南充市,蓬安县,106.412151,31.029097
511324,四川省南充市仪陇县,仪陇县,四川省,南充市,仪陇县,106.303042,31.271562
511325,四川省南充市西充县,西充县,四川省,南充市,西充县,105.900878,30.995669
511381,四川省南充市阆中市,阆中市,四川省,南充市,阆中市,106.005047,31.558357
511400,四川省眉山市,眉山市,四川省,眉山市,,103.848538,30.075439
511401,四川省眉山市市辖区,眉山市市辖区,四川省,眉山市,,103.848538,30.075439
511402,四川省眉山市东坡区,东坡区,四川省,眉山市,东坡区,103.831752,30.042345
511403,四川省眉山市彭山区,彭山区,四川省,眉山市,彭山区,103.87295,30.193056
511421,四川省眉山市仁寿县,仁寿县,四川省,眉山市,仁寿县,104.134082,29.99563
511423,四川省眉山市洪雅县,洪雅县,四川省,眉山市,洪雅县,103.372863,29.90489
511424,四川省眉山市丹棱县,丹棱县,四川省,眉山市,丹棱县,103.512733,30.014448
511425,四川省眉山市青神县,青神县,四川省,眉山市,青神县,103.846688,29.831358
511500,四川省宜宾市,宜宾市,四川省,宜宾市,,104.643215,28.751768
511501,四川省宜宾市市辖区,宜宾市市辖区,四川省,宜宾市,,104.643215,28.751768
511502,四川省宜宾市翠屏区翠屏区,翠屏区,四川省,宜宾市,翠屏区,104.644534,28.758563
511503,四川省宜宾市南溪区,南溪区,四川省,宜宾市,南溪区,104.969882,28.845626
511504,四川省宜宾市叙州区,叙州区,四川省,宜宾市,叙州区,108.63628,24.485263
511523,四川省宜宾市江安县,江安县,四川省,宜宾市,江安县,105.066943,28.723999
511524,四川省宜宾市长宁县长宁县,长宁县,四川省,宜宾市,长宁县,104.914158,28.577349
511525,四川省宜宾市高县高县,高县,四川省,宜宾市,高县,104.518187,28.435036
511526,四川省宜宾市珙县珙县,珙县,四川省,宜宾市,珙县,104.713083,28.443674
511527,四川省宜宾市筠连县,筠连县,四川省,宜宾市,筠连县,104.510988,28.16386
511528,四川省宜宾市兴文县,兴文县,四川省,宜宾市,兴文县,105.236325,28.303614
511529,四川省宜宾市屏山县屏山县,屏山县,四川省,宜宾市,屏山县,104.156008,28.708446
511600,四川省广安市,广安市,四川省,广安市,,106.633212,30.455961
511601,四川省广安市市辖区,广安市市辖区,四川省,广安市,,106.633212,30.455961
511602,四川省广安市广安区,广安区,四川省,广安市,广安区,106.641608,30.474003
511603,四川省广安市前锋区,前锋区,四川省,广安市,前锋区,106.893277,30.4963
511621,四川省广安市岳池县,岳池县,四川省,广安市,岳池县,106.440114,30.537863
511622,四川省广安市武胜县,武胜县,四川省,广安市,武胜县,106.295764,30.348772
511623,四川省广安市邻水县,邻水县,四川省,广安市,邻水县,106.93038,30.334769
511681,四川省广安市华蓥市,华蓥市,四川省,广安市,华蓥市,106.783088,30.390435
511700,四川省达州市,达州市,四川省,达州市,,107.468023,31.209571
511701,四川省达州市市辖区,达州市市辖区,四川省,达州市,,107.468023,31.209571
511702,四川省达州市通川区,通川区,四川省,达州市,通川区,107.504517,31.214724
511703,四川省达州市达川区,达川区,四川省,达州市,达川区,107.511845,31.196118
511722,四川省达州市宣汉县,宣汉县,四川省,达州市,宣汉县,107.727191,31.353835
511723,四川省达州市开江县,开江县,四川省,达州市,开江县,107.868736,31.082987
511724,四川省达州市大竹县,大竹县,四川省,达州市,大竹县,107.204744,30.736266
511725,四川省达州市渠县,渠县,四川省,达州市,渠县,106.972996,30.836659
511781,四川省达州市万源市,万源市,四川省,达州市,万源市,108.034657,32.081631
511800,四川省雅安市,雅安市,四川省,雅安市,,103.013261,29.980537
511801,四川省雅安市市辖区,雅安市市辖区,四川省,雅安市,,103.013261,29.980537
511802,四川省雅安市雨城区,雨城区,四川省,雅安市,雨城区,103.033083,30.005447
511803,四川省雅安市名山区,名山区,四川省,雅安市,名山区,103.109185,30.069954
511822,四川省雅安市荥经县,荥经县,四川省,雅安市,荥经县,102.846738,29.792931
511823,四川省雅安市汉源县,汉源县,四川省,雅安市,汉源县,102.645453,29.347187
511824,四川省雅安市石棉县,石棉县,四川省,雅安市,石棉县,102.359462,29.227874
511825,四川省雅安市天全县,天全县,四川省,雅安市,天全县,102.758317,30.066713
511826,四川省雅安市芦山县,芦山县,四川省,雅安市,芦山县,102.92826,30.144084
511827,四川省雅安市宝兴县,宝兴县,四川省,雅安市,宝兴县,102.814531,30.368126
511900,四川省巴中市,巴中市,四川省,巴中市,,106.747477,31.867903
511901,四川省巴中市市辖区,巴中市市辖区,四川省,巴中市,,106.747477,31.867903
511902,四川省巴中市巴州区,巴州区,四川省,巴中市,巴州区,106.768878,31.851478
511903,四川省巴中市恩阳区,恩阳区,四川省,巴中市,恩阳区,106.655347,31.786691
511921,四川省巴中市通江县,通江县,四川省,巴中市,通江县,107.245033,31.911705
511922,四川省巴中市南江县,南江县,四川省,巴中市,南江县,106.828697,32.346589
511923,四川省巴中市平昌县,平昌县,四川省,巴中市,平昌县,107.104008,31.560874
512000,四川省资阳市,资阳市,四川省,资阳市,,104.627636,30.128901
512001,四川省资阳市市辖区,资阳市市辖区,四川省,资阳市,,104.627636,30.128901
512002,四川省资阳市雁江区,雁江区,四川省,资阳市,雁江区,104.677096,30.10821
512021,四川省资阳市安岳县,安岳县,四川省,资阳市,安岳县,105.335613,30.097246
512022,四川省资阳市乐至县,乐至县,四川省,资阳市,乐至县,105.019916,30.275487
513200,四川省阿坝藏族羌族自治州,阿坝藏族羌族自治州,四川省,阿坝藏族羌族自治州,,102.224653,31.899413
513201,四川省阿坝藏族羌族自治州马尔康市,马尔康市,四川省,阿坝藏族羌族自治州,马尔康市,102.206504,31.905813
513221,四川省阿坝藏族羌族自治州汶川县,汶川县,四川省,阿坝藏族羌族自治州,汶川县,103.590387,31.476822
513222,四川省阿坝藏族羌族自治州理县,理县,四川省,阿坝藏族羌族自治州,理县,103.166853,31.436473
513223,四川省阿坝藏族羌族自治州茂县,茂县,四川省,阿坝藏族羌族自治州,茂县,103.853522,31.681154
513224,四川省阿坝藏族羌族自治州松潘县,松潘县,四川省,阿坝藏族羌族自治州,松潘县,103.604698,32.655325
513225,四川省阿坝藏族羌族自治州九寨沟县,九寨沟县,四川省,阿坝藏族羌族自治州,九寨沟县,104.243841,33.252056
513226,四川省阿坝藏族羌族自治州金川县,金川县,四川省,阿坝藏族羌族自治州,金川县,102.063829,31.476277
513227,四川省阿坝藏族羌族自治州小金县,小金县,四川省,阿坝藏族羌族自治州,小金县,102.364373,30.999031
513228,四川省阿坝藏族羌族自治州黑水县,黑水县,四川省,阿坝藏族羌族自治州,黑水县,102.990108,32.061895
513230,四川省阿坝藏族羌族自治州壤塘县,壤塘县,四川省,阿坝藏族羌族自治州,壤塘县,100.978526,32.265796
513231,四川省阿坝藏族羌族自治州阿坝县,阿坝县,四川省,阿坝藏族羌族自治州,阿坝县,101.706655,32.902459
513232,四川省阿坝藏族羌族自治州若尔盖县,若尔盖县,四川省,阿坝藏族羌族自治州,若尔盖县,102.961798,33.575892
513233,四川省阿坝藏族羌族自治州红原县,红原县,四川省,阿坝藏族羌族自治州,红原县,102.544405,32.790891
513300,四川省甘孜藏族自治州,甘孜藏族自治州,四川省,甘孜藏族自治州,,101.96231,30.04952
513301,四川省甘孜藏族自治州康定市,康定市,四川省,甘孜藏族自治州,康定市,101.957146,29.998436
513322,四川省甘孜藏族自治州泸定县,泸定县,四川省,甘孜藏族自治州,泸定县,102.234618,29.91416
513323,四川省甘孜藏族自治州丹巴县,丹巴县,四川省,甘孜藏族自治州,丹巴县,101.890358,30.878577
513324,四川省甘孜藏族自治州九龙县,九龙县,四川省,甘孜藏族自治州,九龙县,101.507294,29.000348
513325,四川省甘孜藏族自治州雅江县,雅江县,四川省,甘孜藏族自治州,雅江县,101.014425,30.031533
513326,四川省甘孜藏族自治州道孚县,道孚县,四川省,甘孜藏族自治州,道孚县,101.125237,30.979545
513327,四川省甘孜藏族自治州炉霍县,炉霍县,四川省,甘孜藏族自治州,炉霍县,100.676372,31.39179
513328,四川省甘孜藏族自治州甘孜县,甘孜县,四川省,甘孜藏族自治州,甘孜县,99.992671,31.622934
513329,四川省甘孜藏族自治州新龙县,新龙县,四川省,甘孜藏族自治州,新龙县,100.311369,30.939169
513330,四川省甘孜藏族自治州德格县,德格县,四川省,甘孜藏族自治州,德格县,98.580915,31.806118
513331,四川省甘孜藏族自治州白玉县,白玉县,四川省,甘孜藏族自治州,白玉县,98.824182,31.209913
513332,四川省甘孜藏族自治州石渠县,石渠县,四川省,甘孜藏族自治州,石渠县,98.1029,32.97896
513333,四川省甘孜藏族自治州色达县,色达县,四川省,甘孜藏族自治州,色达县,100.332743,32.268129
513334,四川省甘孜藏族自治州理塘县,理塘县,四川省,甘孜藏族自治州,理塘县,100.269818,29.996049
513335,四川省甘孜藏族自治州巴塘县,巴塘县,四川省,甘孜藏族自治州,巴塘县,99.110712,30.004677
513336,四川省甘孜藏族自治州乡城县,乡城县,四川省,甘孜藏族自治州,乡城县,99.798435,28.931172
513337,四川省甘孜藏族自治州稻城县,稻城县,四川省,甘孜藏族自治州,稻城县,100.298403,29.037007
513338,四川省甘孜藏族自治州得荣县,得荣县,四川省,甘孜藏族自治州,得荣县,99.286335,28.713037
513400,四川省凉山彝族自治州,凉山彝族自治州,四川省,凉山彝族自治州,,102.267335,27.88161
513401,四川省凉山彝族自治州西昌市,西昌市,四川省,凉山彝族自治州,西昌市,102.264449,27.894504
513422,四川省凉山彝族自治州木里藏族自治县,木里藏族自治县,四川省,凉山彝族自治州,木里藏族自治县,101.280206,27.928835
513423,四川省凉山彝族自治州盐源县,盐源县,四川省,凉山彝族自治州,盐源县,101.509188,27.422645
513424,四川省凉山彝族自治州德昌县,德昌县,四川省,凉山彝族自治州,德昌县,102.17567,27.402839
513425,四川省凉山彝族自治州会理县,会理县,四川省,凉山彝族自治州,会理县,102.244683,26.655026
513426,四川省凉山彝族自治州会东县,会东县,四川省,凉山彝族自治州,会东县,102.577961,26.634669
513427,四川省凉山彝族自治州宁南县,宁南县,四川省,凉山彝族自治州,宁南县,102.759634,27.066384
513428,四川省凉山彝族自治州普格县,普格县,四川省,凉山彝族自治州,普格县,102.540901,27.376413
513429,四川省凉山彝族自治州布拖县,布拖县,四川省,凉山彝族自治州,布拖县,102.811631,27.706192
513430,四川省凉山彝族自治州金阳县,金阳县,四川省,凉山彝族自治州,金阳县,103.248772,27.696861
513431,四川省凉山彝族自治州昭觉县,昭觉县,四川省,凉山彝族自治州,昭觉县,102.842611,28.014088
513432,四川省凉山彝族自治州喜德县,喜德县,四川省,凉山彝族自治州,喜德县,102.412518,28.306726
513433,四川省凉山彝族自治州冕宁县,冕宁县,四川省,凉山彝族自治州,冕宁县,102.17701,28.549657
513434,四川省凉山彝族自治州越西县,越西县,四川省,凉山彝族自治州,越西县,102.50768,28.639801
513435,四川省凉山彝族自治州甘洛县,甘洛县,四川省,凉山彝族自治州,甘洛县,102.771749,28.966069
513436,四川省凉山彝族自治州美姑县,美姑县,四川省,凉山彝族自治州,美姑县,103.13218,28.32864
513437,四川省凉山彝族自治州雷波县,雷波县,四川省,凉山彝族自治州,雷波县,103.571696,28.262683
520000,贵州省,贵州省,贵州省,,,106.70741,26.598194
520100,贵州省贵阳市,贵阳市,贵州省,贵阳市,,106.630153,26.647661
520101,贵州省贵阳市市辖区,贵阳市市辖区,贵州省,贵阳市,,106.630153,26.647661
520102,贵州省贵阳市南明区,南明区,贵州省,贵阳市,南明区,106.68876,26.570062
520103,贵州省贵阳市云岩区,云岩区,贵州省,贵阳市,云岩区,106.724426,26.604594
520111,贵州省贵阳市花溪区,花溪区,贵州省,贵阳市,花溪区,106.67026,26.409818
520112,贵州省贵阳市乌当区,乌当区,贵州省,贵阳市,乌当区,106.750625,26.630845
520113,贵州省贵阳市白云区,白云区,贵州省,贵阳市,白云区,106.623007,26.678562
520115,贵州省贵阳市观山湖区,观山湖区,贵州省,贵阳市,观山湖区,106.622453,26.60145
520121,贵州省贵阳市开阳县,开阳县,贵州省,贵阳市,开阳县,106.96509,27.057764
520122,贵州省贵阳市息烽县,息烽县,贵州省,贵阳市,息烽县,106.740408,27.090479
520123,贵州省贵阳市修文县,修文县,贵州省,贵阳市,修文县,106.592108,26.838926
520181,贵州省贵阳市清镇市,清镇市,贵州省,贵阳市,清镇市,106.470715,26.556079
520200,贵州省六盘水市,六盘水市,贵州省,六盘水市,,104.830359,26.592666
520201,贵州省六盘水市钟山区,钟山区,贵州省,六盘水市,钟山区,104.843555,26.574979
520203,贵州省六盘水市六枝特区,六枝特区,贵州省,六盘水市,六枝特区,105.480029,26.201228
520221,贵州省六盘水市水城县,水城县,贵州省,六盘水市,水城县,104.957831,26.547904
520281,贵州省六盘水市盘州市,盘州市,贵州省,六盘水市,盘州市,104.533079,28.690092
520300,贵州省遵义市,遵义市,贵州省,遵义市,,106.927389,27.725654
520301,贵州省遵义市市辖区,遵义市市辖区,贵州省,遵义市,,106.927389,27.725654
520302,贵州省遵义市红花岗区,红花岗区,贵州省,遵义市,红花岗区,106.893709,27.644755
520303,贵州省遵义市汇川区,汇川区,贵州省,遵义市,汇川区,106.93427,27.750125
520304,贵州省遵义市播州区,播州区,贵州省,遵义市,播州区,104.471401,25.7100505
520322,贵州省遵义市桐梓县,桐梓县,贵州省,遵义市,桐梓县,106.825644,28.133583
520323,贵州省遵义市绥阳县,绥阳县,贵州省,遵义市,绥阳县,107.191222,27.946222
520324,贵州省遵义市正安县,正安县,贵州省,遵义市,正安县,107.453945,28.553285
520325,贵州省遵义市道真仡佬族苗族自治县,道真仡佬族苗族自治县,贵州省,遵义市,道真仡佬族苗族自治县,107.613133,28.862425
520326,贵州省遵义市务川仡佬族苗族自治县,务川仡佬族苗族自治县,贵州省,遵义市,务川仡佬族苗族自治县,107.898957,28.563086
520327,贵州省遵义市凤冈县,凤冈县,贵州省,遵义市,凤冈县,107.716356,27.954695
520328,贵州省遵义市湄潭县,湄潭县,贵州省,遵义市,湄潭县,107.465407,27.749055
520329,贵州省遵义市余庆县,余庆县,贵州省,遵义市,余庆县,107.905278,27.21542
520330,贵州省遵义市习水县,习水县,贵州省,遵义市,习水县,106.197138,28.33127
520381,贵州省遵义市赤水市,赤水市,贵州省,遵义市,赤水市,105.697472,28.590337
520382,贵州省遵义市仁怀市,仁怀市,贵州省,遵义市,仁怀市,106.400342,27.79165
520400,贵州省安顺市,安顺市,贵州省,安顺市,,105.947593,26.253072
520401,贵州省安顺市市辖区,安顺市市辖区,贵州省,安顺市,,105.947593,26.253072
520402,贵州省安顺市西秀区,西秀区,贵州省,安顺市,西秀区,105.965535,26.245433
520403,贵州省安顺市平坝区,平坝区,贵州省,安顺市,平坝区,106.255557,26.405502
520422,贵州省安顺市普定县,普定县,贵州省,安顺市,普定县,105.743196,26.301446
520423,贵州省安顺市镇宁布依族苗族自治县,镇宁布依族苗族自治县,贵州省,安顺市,镇宁布依族苗族自治县,105.770402,26.057362
520424,贵州省安顺市关岭布依族苗族自治县,关岭布依族苗族自治县,贵州省,安顺市,关岭布依族苗族自治县,105.618745,25.943856
520425,贵州省安顺市紫云苗族布依族自治县,紫云苗族布依族自治县,贵州省,安顺市,紫云苗族布依族自治县,106.08434,25.751052
520500,贵州省毕节市,毕节市,贵州省,毕节市,,105.283992,27.302589
520502,贵州省毕节市七星关区,七星关区,贵州省,毕节市,七星关区,105.305138,27.298494
520521,贵州省毕节市大方县,大方县,贵州省,毕节市,大方县,105.611656,27.137097
520522,贵州省毕节市黔西县,黔西县,贵州省,毕节市,黔西县,106.033544,27.007713
520523,贵州省毕节市金沙县,金沙县,贵州省,毕节市,金沙县,106.220228,27.459214
520524,贵州省毕节市织金县,织金县,贵州省,毕节市,织金县,105.770542,26.66345
520525,贵州省毕节市纳雍县,纳雍县,贵州省,毕节市,纳雍县,105.382715,26.777645
520526,贵州省毕节市威宁彝族回族苗族自治县,威宁彝族回族苗族自治县,贵州省,毕节市,威宁彝族回族苗族自治县,104.278733,26.856193
520527,贵州省毕节市赫章县,赫章县,贵州省,毕节市,赫章县,104.727418,27.123079
520600,贵州省铜仁市,铜仁市,贵州省,铜仁市,,109.189598,27.731514
520602,贵州省铜仁市碧江区,碧江区,贵州省,铜仁市,碧江区,109.181122,27.690653
520603,贵州省铜仁市万山区,万山区,贵州省,铜仁市,万山区,109.213644,27.517896
520621,贵州省铜仁市江口县,江口县,贵州省,铜仁市,江口县,108.839557,27.69965
520622,贵州省铜仁市玉屏侗族自治县,玉屏侗族自治县,贵州省,铜仁市,玉屏侗族自治县,108.91468,27.243012
520623,贵州省铜仁市石阡县,石阡县,贵州省,铜仁市,石阡县,108.223612,27.513829
520624,贵州省铜仁市思南县,思南县,贵州省,铜仁市,思南县,108.253873,27.93756
520625,贵州省铜仁市印江土家族苗族自治县,印江土家族苗族自治县,贵州省,铜仁市,印江土家族苗族自治县,108.409752,27.994247
520626,贵州省铜仁市德江县,德江县,贵州省,铜仁市,德江县,108.119807,28.263964
520627,贵州省铜仁市沿河土家族自治县,沿河土家族自治县,贵州省,铜仁市,沿河土家族自治县,108.50387,28.563928
520628,贵州省铜仁市松桃苗族自治县,松桃苗族自治县,贵州省,铜仁市,松桃苗族自治县,109.202886,28.154071
522300,贵州省黔西南布依族苗族自治州,黔西南布依族苗族自治州,贵州省,黔西南布依族苗族自治州,,104.906396,25.087825
522301,贵州省黔西南布依族苗族自治州兴义市,兴义市,贵州省,黔西南布依族苗族自治州,兴义市,104.895467,25.09204
522302,贵州省黔西南布依族苗族自治州兴义市兴仁,兴仁市,贵州省,黔西南布依族苗族自治州,兴义市,105.043557,25.218623
522323,贵州省黔西南布依族苗族自治州普安县,普安县,贵州省,黔西南布依族苗族自治州,普安县,104.953063,25.784135
522324,贵州省黔西南布依族苗族自治州晴隆县,晴隆县,贵州省,黔西南布依族苗族自治州,晴隆县,105.218991,25.834784
522325,贵州省黔西南布依族苗族自治州贞丰县,贞丰县,贵州省,黔西南布依族苗族自治州,贞丰县,105.649864,25.38576
522326,贵州省黔西南布依族苗族自治州望谟县,望谟县,贵州省,黔西南布依族苗族自治州,望谟县,106.09385,25.171024
522327,贵州省黔西南布依族苗族自治州册亨县,册亨县,贵州省,黔西南布依族苗族自治州,册亨县,105.811593,24.983663
522328,贵州省黔西南布依族苗族自治州安龙县,安龙县,贵州省,黔西南布依族苗族自治州,安龙县,105.442701,25.099014
522600,贵州省黔东南苗族侗族自治州,黔东南苗族侗族自治州,贵州省,黔东南苗族侗族自治州,,107.982859,26.583442
522601,贵州省黔东南苗族侗族自治州凯里市,凯里市,贵州省,黔东南苗族侗族自治州,凯里市,107.981212,26.566867
522622,贵州省黔东南苗族侗族自治州黄平县,黄平县,贵州省,黔东南苗族侗族自治州,黄平县,107.916412,26.905396
522623,贵州省黔东南苗族侗族自治州施秉县,施秉县,贵州省,黔东南苗族侗族自治州,施秉县,108.12438,27.03292
522624,贵州省黔东南苗族侗族自治州三穗县,三穗县,贵州省,黔东南苗族侗族自治州,三穗县,108.675267,26.952968
522625,贵州省黔东南苗族侗族自治州镇远县,镇远县,贵州省,黔东南苗族侗族自治州,镇远县,108.429691,27.04911
522626,贵州省黔东南苗族侗族自治州岑巩县,岑巩县,贵州省,黔东南苗族侗族自治州,岑巩县,108.81606,27.173887
522627,贵州省黔东南苗族侗族自治州天柱县,天柱县,贵州省,黔东南苗族侗族自治州,天柱县,109.207757,26.909678
522628,贵州省黔东南苗族侗族自治州锦屏县,锦屏县,贵州省,黔东南苗族侗族自治州,锦屏县,109.200534,26.676233
522629,贵州省黔东南苗族侗族自治州剑河县,剑河县,贵州省,黔东南苗族侗族自治州,剑河县,108.441501,26.728274
522630,贵州省黔东南苗族侗族自治州台江县,台江县,贵州省,黔东南苗族侗族自治州,台江县,108.321245,26.667525
522631,贵州省黔东南苗族侗族自治州黎平县,黎平县,贵州省,黔东南苗族侗族自治州,黎平县,109.136658,26.230424
522632,贵州省黔东南苗族侗族自治州榕江县,榕江县,贵州省,黔东南苗族侗族自治州,榕江县,108.521881,25.931893
522633,贵州省黔东南苗族侗族自治州从江县,从江县,贵州省,黔东南苗族侗族自治州,从江县,108.905329,25.753009
522634,贵州省黔东南苗族侗族自治州雷山县,雷山县,贵州省,黔东南苗族侗族自治州,雷山县,108.07754,26.378443
522635,贵州省黔东南苗族侗族自治州麻江县,麻江县,贵州省,黔东南苗族侗族自治州,麻江县,107.589359,26.491105
522636,贵州省黔东南苗族侗族自治州丹寨县,丹寨县,贵州省,黔东南苗族侗族自治州,丹寨县,107.788728,26.19832
522700,贵州省黔南布依族苗族自治州,黔南布依族苗族自治州,贵州省,黔南布依族苗族自治州,,107.522097,26.254092
522701,贵州省黔南布依族苗族自治州都匀市,都匀市,贵州省,黔南布依族苗族自治州,都匀市,107.518847,26.259427
522702,贵州省黔南布依族苗族自治州福泉市,福泉市,贵州省,黔南布依族苗族自治州,福泉市,107.520386,26.686335
522722,贵州省黔南布依族苗族自治州荔波县,荔波县,贵州省,黔南布依族苗族自治州,荔波县,107.88645,25.410654
522723,贵州省黔南布依族苗族自治州贵定县,贵定县,贵州省,黔南布依族苗族自治州,贵定县,107.232889,26.557071
522725,贵州省黔南布依族苗族自治州瓮安县,瓮安县,贵州省,黔南布依族苗族自治州,瓮安县,107.471555,27.078472
522726,贵州省黔南布依族苗族自治州独山县,独山县,贵州省,黔南布依族苗族自治州,独山县,107.545048,25.822132
522727,贵州省黔南布依族苗族自治州平塘县,平塘县,贵州省,黔南布依族苗族自治州,平塘县,107.323077,25.831955
522728,贵州省黔南布依族苗族自治州罗甸县,罗甸县,贵州省,黔南布依族苗族自治州,罗甸县,106.751418,25.424845
522729,贵州省黔南布依族苗族自治州长顺县,长顺县,贵州省,黔南布依族苗族自治州,长顺县,106.447376,26.022116
522730,贵州省黔南布依族苗族自治州龙里县,龙里县,贵州省,黔南布依族苗族自治州,龙里县,106.979524,26.453154
522731,贵州省黔南布依族苗族自治州惠水县,惠水县,贵州省,黔南布依族苗族自治州,惠水县,106.657089,26.132061
522732,贵州省黔南布依族苗族自治州三都水族自治县,三都水族自治县,贵州省,黔南布依族苗族自治州,三都水族自治县,107.869749,25.983202
530000,云南省,云南省,云南省,,,102.710002,25.045806
530100,云南省昆明市,昆明市,云南省,昆明市,,102.832891,24.880095
530101,云南省昆明市市辖区,昆明市市辖区,云南省,昆明市,,102.832891,24.880095
530102,云南省昆明市五华区,五华区,云南省,昆明市,五华区,102.706959,25.043652
530103,云南省昆明市盘龙区,盘龙区,云南省,昆明市,盘龙区,102.751907,25.116106
530111,云南省昆明市官渡区,官渡区,云南省,昆明市,官渡区,102.743812,25.015105
530112,云南省昆明市西山区,西山区,云南省,昆明市,西山区,102.664376,25.038297
530113,云南省昆明市东川区,东川区,云南省,昆明市,东川区,103.187825,26.082873
530114,云南省昆明市呈贡区,呈贡区,云南省,昆明市,呈贡区,102.821468,24.885532
530115,云南省昆明市晋宁区,晋宁区,云南省,昆明市,晋宁区,106.829437,27.53634
530124,云南省昆明市富民县,富民县,云南省,昆明市,富民县,102.4976,25.221935
530125,云南省昆明市宜良县,宜良县,云南省,昆明市,宜良县,103.141296,24.919715
530126,云南省昆明市石林彝族自治县,石林彝族自治县,云南省,昆明市,石林彝族自治县,103.290785,24.771798
530127,云南省昆明市嵩明县,嵩明县,云南省,昆明市,嵩明县,103.036908,25.338644
530128,云南省昆明市禄劝彝族苗族自治县,禄劝彝族苗族自治县,云南省,昆明市,禄劝彝族苗族自治县,102.471518,25.551332
530129,云南省昆明市寻甸回族彝族自治县,寻甸回族彝族自治县,云南省,昆明市,寻甸回族彝族自治县,103.256604,25.558175
530181,云南省昆明市安宁市,安宁市,云南省,昆明市,安宁市,102.478494,24.919493
530300,云南省曲靖市,曲靖市,云南省,曲靖市,,103.796167,25.489999
530301,云南省曲靖市市辖区,曲靖市市辖区,云南省,曲靖市,,103.796167,25.489999
530302,云南省曲靖市麒麟区,麒麟区,云南省,曲靖市,麒麟区,103.805012,25.495241
530303,云南省曲靖市沾益区,沾益区,云南省,曲靖市,沾益区,103.2039115,24.8417585
530304,云南省曲靖市宣威市马龙,马龙区,云南省,曲靖市,宣威市,104.520734,26.403423
530322,云南省曲靖市陆良县,陆良县,云南省,曲靖市,陆良县,103.666663,25.030051
530323,云南省曲靖市师宗县,师宗县,云南省,曲靖市,师宗县,103.985478,24.822403
530324,云南省曲靖市罗平县,罗平县,云南省,曲靖市,罗平县,104.308675,24.884626
530325,云南省曲靖市富源县,富源县,云南省,曲靖市,富源县,104.255015,25.674238
530326,云南省曲靖市会泽县,会泽县,云南省,曲靖市,会泽县,103.297361,26.417947
530381,云南省曲靖市宣威市,宣威市,云南省,曲靖市,宣威市,104.104497,26.219759
530400,云南省玉溪市,玉溪市,云南省,玉溪市,,102.546543,24.352036
530401,云南省玉溪市市辖区,玉溪市市辖区,云南省,玉溪市,,102.546543,24.352036
530402,云南省玉溪市红塔区,红塔区,云南省,玉溪市,红塔区,102.540179,24.341098
530403,云南省玉溪市江川区,江川区,云南省,玉溪市,江川区,102.75376,24.287586
530422,云南省玉溪市澄江县,澄江县,云南省,玉溪市,澄江县,102.908248,24.673734
530423,云南省玉溪市通海县,通海县,云南省,玉溪市,通海县,102.760039,24.112205
530424,云南省玉溪市华宁县,华宁县,云南省,玉溪市,华宁县,102.928835,24.192761
530425,云南省玉溪市易门县,易门县,云南省,玉溪市,易门县,102.162531,24.671651
530426,云南省玉溪市峨山彝族自治县,峨山彝族自治县,云南省,玉溪市,峨山彝族自治县,102.405819,24.168957
530427,云南省玉溪市新平彝族傣族自治县,新平彝族傣族自治县,云南省,玉溪市,新平彝族傣族自治县,101.990157,24.070051
530428,云南省玉溪市元江哈尼族彝族傣族自治县,元江哈尼族彝族傣族自治县,云南省,玉溪市,元江哈尼族彝族傣族自治县,101.998103,23.596503
530500,云南省保山市,保山市,云南省,保山市,,99.161761,25.112046
530501,云南省保山市市辖区,保山市市辖区,云南省,保山市,,99.161761,25.112046
530502,云南省保山市隆阳区,隆阳区,云南省,保山市,隆阳区,99.165607,25.121154
530521,云南省保山市施甸县,施甸县,云南省,保山市,施甸县,99.189221,24.723064
530523,云南省保山市龙陵县,龙陵县,云南省,保山市,龙陵县,98.68923,24.586766
530524,云南省保山市昌宁县,昌宁县,云南省,保山市,昌宁县,99.605142,24.827839
530581,云南省保山市腾冲市,腾冲市,云南省,保山市,腾冲市,98.485333,25.033111
530600,云南省昭通市,昭通市,云南省,昭通市,,103.717465,27.338257
530601,云南省昭通市市辖区,昭通市市辖区,云南省,昭通市,,103.717465,27.338257
530602,云南省昭通市昭阳区,昭阳区,云南省,昭通市,昭阳区,103.706539,27.320075
530621,云南省昭通市鲁甸县,鲁甸县,云南省,昭通市,鲁甸县,103.558042,27.186659
530622,云南省昭通市巧家县,巧家县,云南省,昭通市,巧家县,102.930164,26.908461
530623,云南省昭通市盐津县,盐津县,云南省,昭通市,盐津县,104.234442,28.10871
530624,云南省昭通市大关县,大关县,云南省,昭通市,大关县,103.891146,27.747978
530625,云南省昭通市永善县,永善县,云南省,昭通市,永善县,103.638067,28.229113
530626,云南省昭通市绥江县,绥江县,云南省,昭通市,绥江县,103.968978,28.5921
530627,云南省昭通市镇雄县,镇雄县,云南省,昭通市,镇雄县,104.873579,27.441668
530628,云南省昭通市彝良县,彝良县,云南省,昭通市,彝良县,104.048289,27.625419
530629,云南省昭通市威信县,威信县,云南省,昭通市,威信县,105.049027,27.846901
530681,云南省昭通市,水富市,云南省,昭通市,水富市,103.82219,25.600555
530700,云南省丽江市,丽江市,云南省,丽江市,,100.22775,26.855047
530701,云南省丽江市市辖区,丽江市市辖区,云南省,丽江市,,100.22775,26.855047
530702,云南省丽江市古城区,古城区,云南省,丽江市,古城区,100.225766,26.87719
530721,云南省丽江市玉龙纳西族自治县,玉龙纳西族自治县,云南省,丽江市,玉龙纳西族自治县,100.236955,26.82146
530722,云南省丽江市永胜县,永胜县,云南省,丽江市,永胜县,100.750795,26.684225
530723,云南省丽江市华坪县,华坪县,云南省,丽江市,华坪县,101.266195,26.629211
530724,云南省丽江市宁蒗彝族自治县,宁蒗彝族自治县,云南省,丽江市,宁蒗彝族自治县,100.852001,27.282071
530800,云南省普洱市,普洱市,云南省,普洱市,,100.966512,22.825065
530801,云南省普洱市市辖区,普洱市市辖区,云南省,普洱市,,100.966512,22.825065
530802,云南省普洱市思茅区,思茅区,云南省,普洱市,思茅区,100.977165,22.78691
530821,云南省普洱市宁洱哈尼族彝族自治县,宁洱哈尼族彝族自治县,云南省,普洱市,宁洱哈尼族彝族自治县,101.045317,23.06175
530822,云南省普洱市墨江哈尼族自治县,墨江哈尼族自治县,云南省,普洱市,墨江哈尼族自治县,101.692461,23.431894
530823,云南省普洱市景东彝族自治县,景东彝族自治县,云南省,普洱市,景东彝族自治县,100.833877,24.446731
530824,云南省普洱市景谷傣族彝族自治县,景谷傣族彝族自治县,云南省,普洱市,景谷傣族彝族自治县,100.702871,23.497028
530825,云南省普洱市镇沅彝族哈尼族拉祜族自治县,镇沅彝族哈尼族拉祜族自治县,云南省,普洱市,镇沅彝族哈尼族拉祜族自治县,101.108595,24.004442
530826,云南省普洱市江城哈尼族彝族自治县,江城哈尼族彝族自治县,云南省,普洱市,江城哈尼族彝族自治县,101.86212,22.585868
530827,云南省普洱市孟连傣族拉祜族佤族自治县,孟连傣族拉祜族佤族自治县,云南省,普洱市,孟连傣族拉祜族佤族自治县,99.584157,22.3291
530828,云南省普洱市澜沧拉祜族自治县,澜沧拉祜族自治县,云南省,普洱市,澜沧拉祜族自治县,99.931975,22.555905
530829,云南省普洱市西盟佤族自治县,西盟佤族自治县,云南省,普洱市,西盟佤族自治县,99.590124,22.644508
530900,云南省临沧市,临沧市,云南省,临沧市,,100.079583,23.877573
530901,云南省临沧市市辖区,临沧市市辖区,云南省,临沧市,,100.079583,23.877573
530902,云南省临沧市临翔区,临翔区,云南省,临沧市,临翔区,100.082523,23.895137
530921,云南省临沧市凤庆县,凤庆县,云南省,临沧市,凤庆县,99.92846,24.580424
530922,云南省临沧市云县,云县,云南省,临沧市,云县,100.123248,24.437061
530923,云南省临沧市永德县,永德县,云南省,临沧市,永德县,99.25934,24.018357
530924,云南省临沧市镇康县,镇康县,云南省,临沧市,镇康县,98.825285,23.762584
530925,云南省临沧市双江拉祜族佤族布朗族傣族自治县,双江拉祜族佤族布朗族傣族自治县,云南省,临沧市,双江拉祜族佤族布朗族傣族自治县,99.827698,23.473499
530926,云南省临沧市耿马傣族佤族自治县,耿马傣族佤族自治县,云南省,临沧市,耿马傣族佤族自治县,99.397127,23.538092
530927,云南省临沧市沧源佤族自治县,沧源佤族自治县,云南省,临沧市,沧源佤族自治县,99.246197,23.146712
532300,云南省楚雄彝族自治州,楚雄彝族自治州,云南省,楚雄彝族自治州,,101.528068,25.045532
532301,云南省楚雄彝族自治州,楚雄市,云南省,楚雄彝族自治州,,101.528068,25.045532
532322,云南省楚雄彝族自治州双柏县,双柏县,云南省,楚雄彝族自治州,双柏县,101.641937,24.688875
532323,云南省楚雄彝族自治州牟定县,牟定县,云南省,楚雄彝族自治州,牟定县,101.546566,25.313122
532324,云南省楚雄彝族自治州南华县,南华县,云南省,楚雄彝族自治州,南华县,101.273577,25.192293
532325,云南省楚雄彝族自治州姚安县,姚安县,云南省,楚雄彝族自治州,姚安县,101.241728,25.504173
532326,云南省楚雄彝族自治州大姚县,大姚县,云南省,楚雄彝族自治州,大姚县,101.336617,25.729513
532327,云南省楚雄彝族自治州永仁县,永仁县,云南省,楚雄彝族自治州,永仁县,101.666133,26.049464
532328,云南省楚雄彝族自治州元谋县,元谋县,云南省,楚雄彝族自治州,元谋县,101.87452,25.704338
532329,云南省楚雄彝族自治州武定县,武定县,云南省,楚雄彝族自治州,武定县,102.404338,25.530389
532331,云南省楚雄彝族自治州禄丰县,禄丰县,云南省,楚雄彝族自治州,禄丰县,102.079027,25.150111
532500,云南省红河哈尼族彝族自治州,红河哈尼族彝族自治州,云南省,红河哈尼族彝族自治州,,103.374799,23.36313
532501,云南省红河哈尼族彝族自治州个旧市,个旧市,云南省,红河哈尼族彝族自治州,个旧市,103.160034,23.359121
532502,云南省红河哈尼族彝族自治州开远市,开远市,云南省,红河哈尼族彝族自治州,开远市,103.267143,23.714316
532503,云南省红河哈尼族彝族自治州蒙自市,蒙自市,云南省,红河哈尼族彝族自治州,蒙自市,103.364905,23.396201
532504,云南省红河哈尼族彝族自治州弥勒市,弥勒市,云南省,红河哈尼族彝族自治州,弥勒市,103.414874,24.411912
532523,云南省红河哈尼族彝族自治州屏边苗族自治县,屏边苗族自治县,云南省,红河哈尼族彝族自治州,屏边苗族自治县,103.687612,22.98356
532524,云南省红河哈尼族彝族自治州建水县,建水县,云南省,红河哈尼族彝族自治州,建水县,102.826557,23.6347
532525,云南省红河哈尼族彝族自治州石屏县,石屏县,云南省,红河哈尼族彝族自治州,石屏县,102.494984,23.705936
532527,云南省红河哈尼族彝族自治州泸西县,泸西县,云南省,红河哈尼族彝族自治州,泸西县,103.766196,24.532025
532528,云南省红河哈尼族彝族自治州元阳县,元阳县,云南省,红河哈尼族彝族自治州,元阳县,102.835223,23.219932
532529,云南省红河哈尼族彝族自治州红河县,红河县,云南省,红河哈尼族彝族自治州,红河县,102.4206,23.369161
532530,云南省红河哈尼族彝族自治州金平苗族瑶族傣族自治县,金平苗族瑶族傣族自治县,云南省,红河哈尼族彝族自治州,金平苗族瑶族傣族自治县,103.226448,22.779543
532531,云南省红河哈尼族彝族自治州绿春县,绿春县,云南省,红河哈尼族彝族自治州,绿春县,102.392463,22.993718
532532,云南省红河哈尼族彝族自治州河口瑶族自治县,河口瑶族自治县,云南省,红河哈尼族彝族自治州,河口瑶族自治县,103.93935,22.529404
532600,云南省文山壮族苗族自治州,文山壮族苗族自治州,云南省,文山壮族苗族自治州,,104.216248,23.400733
532601,云南省文山壮族苗族自治州,文山市,云南省,文山壮族苗族自治州,,104.216248,23.400733
532622,云南省文山壮族苗族自治州砚山县,砚山县,云南省,文山壮族苗族自治州,砚山县,104.337242,23.605865
532623,云南省文山壮族苗族自治州西畴县,西畴县,云南省,文山壮族苗族自治州,西畴县,104.672597,23.437782
532624,云南省文山壮族苗族自治州麻栗坡县,麻栗坡县,云南省,文山壮族苗族自治州,麻栗坡县,104.702799,23.125714
532625,云南省文山壮族苗族自治州马关县,马关县,云南省,文山壮族苗族自治州,马关县,104.394158,23.012915
532626,云南省文山壮族苗族自治州丘北县,丘北县,云南省,文山壮族苗族自治州,丘北县,104.19582,24.041919
532627,云南省文山壮族苗族自治州广南县,广南县,云南省,文山壮族苗族自治州,广南县,105.054981,24.045941
532628,云南省文山壮族苗族自治州富宁县,富宁县,云南省,文山壮族苗族自治州,富宁县,105.630999,23.625283
532800,云南省西双版纳傣族自治州,西双版纳傣族自治州,云南省,西双版纳傣族自治州,,100.797777,22.007351
532801,云南省西双版纳傣族自治州景洪市,景洪市,云南省,西双版纳傣族自治州,景洪市,100.771679,22.000143
532822,云南省西双版纳傣族自治州勐海县,勐海县,云南省,西双版纳傣族自治州,勐海县,100.452548,21.957354
532823,云南省西双版纳傣族自治州勐腊县,勐腊县,云南省,西双版纳傣族自治州,勐腊县,101.564636,21.459233
532900,云南省大理白族自治州,大理白族自治州,云南省,大理白族自治州,,100.267638,25.606486
532901,云南省大理白族自治州,大理市,云南省,大理白族自治州,,100.267638,25.606486
532922,云南省大理白族自治州漾濞彝族自治县,漾濞彝族自治县,云南省,大理白族自治州,漾濞彝族自治县,99.958015,25.670148
532923,云南省大理白族自治州祥云县,祥云县,云南省,大理白族自治州,祥云县,100.550946,25.48385
532924,云南省大理白族自治州宾川县,宾川县,云南省,大理白族自治州,宾川县,100.575412,25.827182
532925,云南省大理白族自治州弥渡县,弥渡县,云南省,大理白族自治州,弥渡县,100.490991,25.343804
532926,云南省大理白族自治州南涧彝族自治县,南涧彝族自治县,云南省,大理白族自治州,南涧彝族自治县,100.509036,25.04351
532927,云南省大理白族自治州巍山彝族回族自治县,巍山彝族回族自治县,云南省,大理白族自治州,巍山彝族回族自治县,100.307175,25.227212
532928,云南省大理白族自治州永平县,永平县,云南省,大理白族自治州,永平县,99.541236,25.464681
532929,云南省大理白族自治州云龙县,云龙县,云南省,大理白族自治州,云龙县,99.371121,25.885596
532930,云南省大理白族自治州洱源县,洱源县,云南省,大理白族自治州,洱源县,99.951054,26.11116
532931,云南省大理白族自治州剑川县,剑川县,云南省,大理白族自治州,剑川县,99.905559,26.537033
532932,云南省大理白族自治州鹤庆县,鹤庆县,云南省,大理白族自治州,鹤庆县,100.176498,26.560231
533100,云南省德宏傣族景颇族自治州,德宏傣族景颇族自治州,云南省,德宏傣族景颇族自治州,,98.584895,24.433353
533102,云南省德宏傣族景颇族自治州瑞丽市,瑞丽市,云南省,德宏傣族景颇族自治州,瑞丽市,97.855477,24.017836
533103,云南省德宏傣族景颇族自治州芒市,芒市,云南省,德宏傣族景颇族自治州,芒市,98.588086,24.43369
533122,云南省德宏傣族景颇族自治州梁河县,梁河县,云南省,德宏傣族景颇族自治州,梁河县,98.296657,24.804232
533123,云南省德宏傣族景颇族自治州盈江县,盈江县,云南省,德宏傣族景颇族自治州,盈江县,97.943613,24.691283
533124,云南省德宏傣族景颇族自治州陇川县,陇川县,云南省,德宏傣族景颇族自治州,陇川县,97.792105,24.182965
533300,云南省怒江傈僳族自治州,怒江傈僳族自治州,云南省,怒江傈僳族自治州,,98.853097,25.852547
533301,云南省怒江傈僳族自治州泸水市,泸水市,云南省,怒江傈僳族自治州,泸水市,98.857977,25.82288
533323,云南省怒江傈僳族自治州福贡县,福贡县,云南省,怒江傈僳族自治州,福贡县,98.869132,26.901832
533324,云南省怒江傈僳族自治州贡山独龙族怒族自治县,贡山独龙族怒族自治县,云南省,怒江傈僳族自治州,贡山独龙族怒族自治县,98.665965,27.740999
533325,云南省怒江傈僳族自治州兰坪白族普米族自治县,兰坪白族普米族自治县,云南省,怒江傈僳族自治州,兰坪白族普米族自治县,99.416677,26.453571
533400,云南省迪庆藏族自治州,迪庆藏族自治州,云南省,迪庆藏族自治州,,99.702234,27.818882
533401,云南省迪庆藏族自治州香格里拉市,香格里拉市,云南省,迪庆藏族自治州,香格里拉市,99.700836,27.829743
533422,云南省迪庆藏族自治州德钦县,德钦县,云南省,迪庆藏族自治州,德钦县,98.911561,28.486162
533423,云南省迪庆藏族自治州维西傈僳族自治县,维西傈僳族自治县,云南省,迪庆藏族自治州,维西傈僳族自治县,99.287173,27.177162
540000,西藏自治区,西藏自治区,西藏自治区,,,91.117212,29.646922
540100,西藏自治区拉萨市,拉萨市,西藏自治区,拉萨市,,91.140856,29.645554
540101,西藏自治区拉萨市市辖区,拉萨市市辖区,西藏自治区,拉萨市,,91.140856,29.645554
540102,西藏自治区拉萨市城关区,城关区,西藏自治区,拉萨市,城关区,91.140435,29.654792
540103,西藏自治区拉萨市堆龙德庆区,堆龙德庆区,西藏自治区,拉萨市,堆龙德庆区,104.4168895,28.6299275
540104,西藏自治区拉萨市达孜县达孜,达孜区,西藏自治区,拉萨市,达孜县,91.50013,29.819293
540121,西藏自治区拉萨市林周县,林周县,西藏自治区,拉萨市,林周县,91.265288,29.893545
540122,西藏自治区拉萨市当雄县,当雄县,西藏自治区,拉萨市,当雄县,91.101162,30.473119
540123,西藏自治区拉萨市尼木县,尼木县,西藏自治区,拉萨市,尼木县,90.164524,29.431832
540124,西藏自治区拉萨市曲水县,曲水县,西藏自治区,拉萨市,曲水县,90.743853,29.353059
540127,西藏自治区拉萨市墨竹工卡县,墨竹工卡县,西藏自治区,拉萨市,墨竹工卡县,91.730866,29.834132
540200,西藏自治区日喀则市,日喀则市,西藏自治区,日喀则市,,88.880583,29.266869
540202,西藏自治区日喀则市桑珠孜区,桑珠孜区,西藏自治区,日喀则市,桑珠孜区,88.88727,29.270389
540221,西藏自治区日喀则市南木林县,南木林县,西藏自治区,日喀则市,南木林县,89.099243,29.682331
540222,西藏自治区日喀则市江孜县,江孜县,西藏自治区,日喀则市,江孜县,89.605574,28.911659
540223,西藏自治区日喀则市定日县,定日县,西藏自治区,日喀则市,定日县,87.12612,28.658743
540224,西藏自治区日喀则市萨迦县,萨迦县,西藏自治区,日喀则市,萨迦县,88.021674,28.899664
540225,西藏自治区日喀则市拉孜县,拉孜县,西藏自治区,日喀则市,拉孜县,87.637041,29.08166
540226,西藏自治区日喀则市昂仁县,昂仁县,西藏自治区,日喀则市,昂仁县,87.236051,29.294802
540227,西藏自治区日喀则市谢通门县,谢通门县,西藏自治区,日喀则市,谢通门县,88.26162,29.432641
540228,西藏自治区日喀则市白朗县,白朗县,西藏自治区,日喀则市,白朗县,89.097806,28.814286
540229,西藏自治区日喀则市仁布县,仁布县,西藏自治区,日喀则市,仁布县,89.841984,29.230933
540230,西藏自治区日喀则市康马县,康马县,西藏自治区,日喀则市,康马县,89.681663,28.555627
540231,西藏自治区日喀则市定结县,定结县,西藏自治区,日喀则市,定结县,87.765872,28.364159
540232,西藏自治区日喀则市仲巴县,仲巴县,西藏自治区,日喀则市,仲巴县,84.03153,29.770279
540233,西藏自治区日喀则市亚东县,亚东县,西藏自治区,日喀则市,亚东县,88.907094,27.484806
540234,西藏自治区日喀则市吉隆县,吉隆县,西藏自治区,日喀则市,吉隆县,85.297535,28.852394
540235,西藏自治区日喀则市聂拉木县,聂拉木县,西藏自治区,日喀则市,聂拉木县,85.982237,28.155186
540236,西藏自治区日喀则市萨嘎县,萨嘎县,西藏自治区,日喀则市,萨嘎县,85.232941,29.328818
540237,西藏自治区日喀则市岗巴县,岗巴县,西藏自治区,日喀则市,岗巴县,88.520031,28.274601
540300,西藏自治区昌都市,昌都市,西藏自治区,昌都市,,97.17202,31.140969
540302,西藏自治区昌都市卡若区,卡若区,西藏自治区,昌都市,卡若区,97.180437,31.138507
540321,西藏自治区昌都市江达县,江达县,西藏自治区,昌都市,江达县,98.21843,31.499202
540322,西藏自治区昌都市贡觉县,贡觉县,西藏自治区,昌都市,贡觉县,98.27097,30.860099
540323,西藏自治区昌都市类乌齐县,类乌齐县,西藏自治区,昌都市,类乌齐县,96.600246,31.211601
540324,西藏自治区昌都市丁青县,丁青县,西藏自治区,昌都市,丁青县,95.595761,31.412405
540325,西藏自治区昌都市察雅县,察雅县,西藏自治区,昌都市,察雅县,97.568752,30.653943
540326,西藏自治区昌都市八宿县,八宿县,西藏自治区,昌都市,八宿县,96.917836,30.053209
540327,西藏自治区昌都市左贡县,左贡县,西藏自治区,昌都市,左贡县,97.841022,29.671069
540328,西藏自治区昌都市芒康县,芒康县,西藏自治区,昌都市,芒康县,98.593113,29.679908
540329,西藏自治区昌都市洛隆县,洛隆县,西藏自治区,昌都市,洛隆县,95.824567,30.741571
540330,西藏自治区昌都市边坝县,边坝县,西藏自治区,昌都市,边坝县,94.7078,30.933652
540400,西藏自治区林芝市,林芝市,西藏自治区,林芝市,,94.361558,29.648943
540402,西藏自治区林芝市巴宜区,巴宜区,西藏自治区,林芝市,巴宜区,94.360994,29.653727
540421,西藏自治区林芝市工布江达县,工布江达县,西藏自治区,林芝市,工布江达县,93.246077,29.88528
540422,西藏自治区林芝市米林县,米林县,西藏自治区,林芝市,米林县,92.607229,27.7129445
540423,西藏自治区林芝市墨脱县,墨脱县,西藏自治区,林芝市,墨脱县,95.332241,29.325734
540424,西藏自治区林芝市波密县,波密县,西藏自治区,林芝市,波密县,95.768158,29.858766
540425,西藏自治区林芝市察隅县,察隅县,西藏自治区,林芝市,察隅县,97.465014,28.660234
540426,西藏自治区林芝市朗县,朗县,西藏自治区,林芝市,朗县,93.074702,29.046337
540500,西藏自治区山南市,山南市,西藏自治区,山南市,,91.773134,29.237137
540502,西藏自治区山南市乃东区,乃东区,西藏自治区,山南市,乃东区,91.761539,29.224904
540521,西藏自治区山南市扎囊县,扎囊县,西藏自治区,山南市,扎囊县,91.33725,29.245114
540522,西藏自治区山南市贡嘎县,贡嘎县,西藏自治区,山南市,贡嘎县,90.98414,29.289455
540523,西藏自治区山南市桑日县,桑日县,西藏自治区,山南市,桑日县,92.015818,29.259189
540524,西藏自治区山南市琼结县,琼结县,西藏自治区,山南市,琼结县,91.683881,29.024625
540525,西藏自治区山南市曲松县,曲松县,西藏自治区,山南市,曲松县,92.203739,29.062826
540526,西藏自治区山南市措美县,措美县,西藏自治区,山南市,措美县,91.433509,28.438202
540527,西藏自治区山南市洛扎县,洛扎县,西藏自治区,山南市,洛扎县,90.859992,28.385713
540528,西藏自治区山南市加查县,加查县,西藏自治区,山南市,加查县,92.593993,29.14029
540529,西藏自治区山南市隆子县,隆子县,西藏自治区,山南市,隆子县,93.075015,28.6263415
540530,西藏自治区山南市错那县,错那县,西藏自治区,山南市,错那县,92.879442,28.489975
540531,西藏自治区山南市浪卡子县,浪卡子县,西藏自治区,山南市,浪卡子县,90.397977,28.968031
540600,西藏自治区那曲市,那曲市,西藏自治区,那曲市,,94.035462,29.282958
540602,西藏自治区那曲市色尼区,色尼区,西藏自治区,那曲市,色尼区,92.1616095,31.4838155
540621,西藏自治区那曲市嘉黎县,嘉黎县,西藏自治区,那曲市,嘉黎县,92.053367,31.4696885
540622,西藏自治区那曲市比如县,比如县,西藏自治区,那曲市,比如县,93.232394,30.6408615
540623,西藏自治区那曲市聂荣县,聂荣县,西藏自治区,那曲市,聂荣县,93.6804975,31.4802955
540624,西藏自治区那曲市安多县,安多县,西藏自治区,那曲市,安多县,92.3042045,32.1078175
540625,西藏自治区那曲市申扎县,申扎县,西藏自治区,那曲市,申扎县,91.6818055,32.265089
540626,西藏自治区那曲市索县,索县,西藏自治区,那曲市,索县,88.7107115,30.930551
540627,西藏自治区那曲市班戈县,班戈县,西藏自治区,那曲市,班戈县,93.785497,31.8869635
540628,西藏自治区那曲市巴青县,巴青县,西藏自治区,那曲市,巴青县,90.0108155,31.392457
540629,西藏自治区那曲市尼玛县,尼玛县,西藏自治区,那曲市,尼玛县,94.053304,31.9185155
540630,西藏自治区那曲市双湖县,双湖县,西藏自治区,那曲市,双湖县,87.2376305,31.7847465
542500,西藏自治区阿里地区,阿里地区,西藏自治区,阿里地区,,80.105804,32.501111
542521,西藏自治区阿里地区普兰县,普兰县,西藏自治区,阿里地区,普兰县,81.176237,30.294402
542522,西藏自治区阿里地区札达县,札达县,西藏自治区,阿里地区,札达县,79.802706,31.479217
542523,西藏自治区阿里地区噶尔县,噶尔县,西藏自治区,阿里地区,噶尔县,80.096419,32.491488
542524,西藏自治区阿里地区日土县,日土县,西藏自治区,阿里地区,日土县,79.732427,33.381359
542525,西藏自治区阿里地区革吉县,革吉县,西藏自治区,阿里地区,革吉县,81.145433,32.387233
542526,西藏自治区阿里地区改则县,改则县,西藏自治区,阿里地区,改则县,84.06259,32.302713
542527,西藏自治区阿里地区措勤县,措勤县,西藏自治区,阿里地区,措勤县,85.159494,31.016769
610000,陕西省,陕西省,陕西省,,,108.954239,34.265472
610100,陕西省西安市,西安市,陕西省,西安市,,108.940174,34.341568
610101,陕西省西安市市辖区,西安市市辖区,陕西省,西安市,,108.940174,34.341568
610102,陕西省西安市新城区,新城区,陕西省,西安市,新城区,108.960747,34.266451
610103,陕西省西安市碑林区,碑林区,陕西省,西安市,碑林区,108.934235,34.230769
610104,陕西省西安市莲湖区,莲湖区,陕西省,西安市,莲湖区,108.944041,34.264995
610111,陕西省西安市灞桥区,灞桥区,陕西省,西安市,灞桥区,109.064671,34.273409
610112,陕西省西安市未央区,未央区,陕西省,西安市,未央区,108.94685,34.292873
610113,陕西省西安市雁塔区,雁塔区,陕西省,西安市,雁塔区,108.926593,34.213389
610114,陕西省西安市阎良区,阎良区,陕西省,西安市,阎良区,109.226102,34.662234
610115,陕西省西安市临潼区,临潼区,陕西省,西安市,临潼区,109.214238,34.367275
610116,陕西省西安市长安区,长安区,陕西省,西安市,长安区,108.906917,34.159016
610117,陕西省西安市高陵区,高陵区,陕西省,西安市,高陵区,109.088297,34.53483
610118,陕西省西安市鄠邑区,鄠邑区,陕西省,西安市,鄠邑区,108.605011,34.108626
610122,陕西省西安市蓝田县,蓝田县,陕西省,西安市,蓝田县,109.323479,34.151624
610124,陕西省西安市周至县,周至县,陕西省,西安市,周至县,108.222154,34.163621
610200,陕西省铜川市,铜川市,陕西省,铜川市,,108.945233,34.896756
610201,陕西省铜川市市辖区,铜川市市辖区,陕西省,铜川市,,108.945233,34.896756
610202,陕西省铜川市王益区,王益区,陕西省,铜川市,王益区,109.075578,35.068964
610203,陕西省铜川市印台区,印台区,陕西省,铜川市,印台区,109.099975,35.114492
610204,陕西省铜川市耀州区,耀州区,陕西省,铜川市,耀州区,108.980514,34.908916
610222,陕西省铜川市宜君县,宜君县,陕西省,铜川市,宜君县,109.116932,35.398577
610300,陕西省宝鸡市,宝鸡市,陕西省,宝鸡市,,107.237974,34.361979
610301,陕西省宝鸡市市辖区,宝鸡市市辖区,陕西省,宝鸡市,,107.237974,34.361979
610302,陕西省宝鸡市渭滨区,渭滨区,陕西省,宝鸡市,渭滨区,107.149968,34.371184
610303,陕西省宝鸡市金台区,金台区,陕西省,宝鸡市,金台区,107.146806,34.376069
610304,陕西省宝鸡市陈仓区,陈仓区,陕西省,宝鸡市,陈仓区,107.363567,34.354701
610322,陕西省宝鸡市凤翔县,凤翔县,陕西省,宝鸡市,凤翔县,107.400737,34.521218
610323,陕西省宝鸡市岐山县,岐山县,陕西省,宝鸡市,岐山县,107.621054,34.443459
610324,陕西省宝鸡市扶风县,扶风县,陕西省,宝鸡市,扶风县,107.900219,34.375411
610326,陕西省宝鸡市眉县,眉县,陕西省,宝鸡市,眉县,107.749767,34.274247
610327,陕西省宝鸡市陇县,陇县,陕西省,宝鸡市,陇县,106.864397,34.89305
610328,陕西省宝鸡市千阳县,千阳县,陕西省,宝鸡市,千阳县,107.132442,34.642381
610329,陕西省宝鸡市麟游县,麟游县,陕西省,宝鸡市,麟游县,107.793525,34.677902
610330,陕西省宝鸡市凤县,凤县,陕西省,宝鸡市,凤县,106.515756,33.908469
610331,陕西省宝鸡市太白县,太白县,陕西省,宝鸡市,太白县,107.319116,34.058401
610400,咸阳市,咸阳市,陕西省,咸阳市,,108.708991,34.329605
610401,咸阳市市辖区,咸阳市市辖区,陕西省,咸阳市,,108.708991,34.329605
610402,陕西省咸阳市秦都区,秦都区,陕西省,咸阳市,秦都区,108.706272,34.329567
610403,陕西省咸阳市杨陵区,杨陵区,陕西省,咸阳市,杨陵区,108.084732,34.272117
610404,陕西省咸阳市渭城区,渭城区,陕西省,咸阳市,渭城区,108.737213,34.361988
610422,陕西省咸阳市三原县,三原县,陕西省,咸阳市,三原县,108.940509,34.617382
610423,陕西省咸阳市泾阳县,泾阳县,陕西省,咸阳市,泾阳县,108.842623,34.527114
610424,陕西省咸阳市乾县,乾县,陕西省,咸阳市,乾县,108.239473,34.527551
610425,陕西省咸阳市礼泉县,礼泉县,陕西省,咸阳市,礼泉县,108.425018,34.481764
610426,陕西省咸阳市永寿县,永寿县,陕西省,咸阳市,永寿县,108.142311,34.691979
610482,陕西省咸阳市彬州市,彬州市,陕西省,咸阳市,彬州市,88.8385005,33.18856
610428,陕西省咸阳市长武县,长武县,陕西省,咸阳市,长武县,107.798757,35.205886
610429,陕西省咸阳市旬邑县,旬邑县,陕西省,咸阳市,旬邑县,108.333986,35.111978
610430,陕西省咸阳市淳化县,淳化县,陕西省,咸阳市,淳化县,108.580681,34.79925
610431,陕西省咸阳市武功县,武功县,陕西省,咸阳市,武功县,108.200398,34.260204
610481,陕西省咸阳市兴平市,兴平市,陕西省,咸阳市,兴平市,108.490475,34.299221
610500,陕西省渭南市,渭南市,陕西省,渭南市,,109.509786,34.499995
610501,陕西省渭南市市辖区,渭南市市辖区,陕西省,渭南市,,109.509786,34.499995
610502,陕西省渭南市临渭区,临渭区,陕西省,渭南市,临渭区,109.492726,34.498192
610503,陕西省渭南市华州区,华州区,陕西省,渭南市,华州区,109.761417,34.511949
610522,陕西省渭南市潼关县,潼关县,陕西省,渭南市,潼关县,110.24635,34.544296
610523,陕西省渭南市大荔县,大荔县,陕西省,渭南市,大荔县,109.941658,34.797184
610524,陕西省渭南市合阳县,合阳县,陕西省,渭南市,合阳县,110.149466,35.237986
610525,陕西省渭南市澄城县,澄城县,陕西省,渭南市,澄城县,109.93235,35.190245
610526,陕西省渭南市蒲城县,蒲城县,陕西省,渭南市,蒲城县,109.586506,34.955855
610527,陕西省渭南市白水县,白水县,陕西省,渭南市,白水县,109.590671,35.177452
610528,陕西省渭南市富平县,富平县,陕西省,渭南市,富平县,109.180331,34.751086
610581,陕西省渭南市韩城市,韩城市,陕西省,渭南市,韩城市,110.442847,35.476788
610582,陕西省渭南市华阴市,华阴市,陕西省,渭南市,华阴市,110.092301,34.566096
610600,陕西省延安市,延安市,陕西省,延安市,,109.489727,36.585455
610601,陕西省延安市市辖区,延安市市辖区,陕西省,延安市,,109.489727,36.585455
610602,陕西省延安市宝塔区,宝塔区,陕西省,延安市,宝塔区,109.493106,36.591266
610603,陕西省延安市安塞区,安塞区,陕西省,延安市,安塞区,109.328842,36.863854
610621,陕西省延安市延长县,延长县,陕西省,延安市,延长县,110.012334,36.579313
610622,陕西省延安市延川县,延川县,陕西省,延安市,延川县,110.193514,36.878117
610623,陕西省延安市子长县,子长县,陕西省,延安市,子长县,109.675234,37.142668
610625,陕西省延安市志丹县,志丹县,陕西省,延安市,志丹县,108.768432,36.822194
610626,陕西省延安市吴起县,吴起县,陕西省,延安市,吴起县,108.175933,36.927216
610627,陕西省延安市甘泉县,甘泉县,陕西省,延安市,甘泉县,109.35102,36.276526
610628,陕西省延安市富县,富县,陕西省,延安市,富县,109.379711,35.98801
610629,陕西省延安市洛川县,洛川县,陕西省,延安市,洛川县,109.432369,35.761975
610630,陕西省延安市宜川县,宜川县,陕西省,延安市,宜川县,110.168963,36.050178
610631,陕西省延安市黄龙县,黄龙县,陕西省,延安市,黄龙县,109.840373,35.584467
610632,陕西省延安市黄陵县,黄陵县,陕西省,延安市,黄陵县,109.262961,35.579428
610700,陕西省汉中市,汉中市,陕西省,汉中市,,107.023323,33.06748
610701,陕西省汉中市市辖区,汉中市市辖区,陕西省,汉中市,,107.023323,33.06748
610702,陕西省汉中市汉台区,汉台区,陕西省,汉中市,汉台区,107.031856,33.067771
610703,陕西省汉中市南郑区,南郑区,陕西省,汉中市,南郑区,108.077524,35.0439545
610722,陕西省汉中市城固县,城固县,陕西省,汉中市,城固县,107.33393,33.157131
610723,陕西省汉中市洋县,洋县,陕西省,汉中市,洋县,107.545837,33.222739
610724,陕西省汉中市西乡县,西乡县,陕西省,汉中市,西乡县,107.766614,32.983101
610725,陕西省汉中市勉县,勉县,陕西省,汉中市,勉县,106.673221,33.153553
610726,陕西省汉中市宁强县,宁强县,陕西省,汉中市,宁强县,106.257171,32.829694
610727,陕西省汉中市略阳县,略阳县,陕西省,汉中市,略阳县,106.156718,33.327281
610728,陕西省汉中市镇巴县,镇巴县,陕西省,汉中市,镇巴县,107.895035,32.536704
610729,陕西省汉中市留坝县,留坝县,陕西省,汉中市,留坝县,106.920808,33.617571
610730,陕西省汉中市佛坪县,佛坪县,陕西省,汉中市,佛坪县,107.990539,33.524359
610800,陕西省榆林市,榆林市,陕西省,榆林市,,109.734589,38.28539
610801,陕西省榆林市市辖区,榆林市市辖区,陕西省,榆林市,,109.734589,38.28539
610802,陕西省榆林市榆阳区,榆阳区,陕西省,榆林市,榆阳区,109.720309,38.277029
610803,陕西省榆林市横山区,横山区,陕西省,榆林市,横山区,109.294346,37.962209
610822,陕西省榆林市府谷县,府谷县,陕西省,榆林市,府谷县,111.067366,39.028116
610824,陕西省榆林市靖边县,靖边县,陕西省,榆林市,靖边县,108.793988,37.599438
610825,陕西省榆林市定边县,定边县,陕西省,榆林市,定边县,107.601267,37.594612
610826,陕西省榆林市绥德县,绥德县,陕西省,榆林市,绥德县,110.263362,37.50294
610827,陕西省榆林市米脂县,米脂县,陕西省,榆林市,米脂县,110.183754,37.755417
610828,陕西省榆林市佳县,佳县,陕西省,榆林市,佳县,110.491345,38.019511
610829,陕西省榆林市吴堡县,吴堡县,陕西省,榆林市,吴堡县,110.739673,37.452068
610830,陕西省榆林市清涧县,清涧县,陕西省,榆林市,清涧县,110.121209,37.088878
610831,陕西省榆林市子洲县,子洲县,陕西省,榆林市,子洲县,110.03525,37.610683
610881,陕西省榆林市神木市,神木市,陕西省,榆林市,神木市,110.498868,38.842498
610900,陕西省安康市,安康市,陕西省,安康市,,109.029022,32.684714
610901,陕西省安康市市辖区,安康市市辖区,陕西省,安康市,,109.029022,32.684714
610902,陕西省安康市汉滨区,汉滨区,陕西省,安康市,汉滨区,109.026836,32.695173
610921,陕西省安康市汉阴县,汉阴县,陕西省,安康市,汉阴县,108.508745,32.893026
610922,陕西省安康市石泉县,石泉县,陕西省,安康市,石泉县,108.247887,33.038408
610923,陕西省安康市宁陕县,宁陕县,陕西省,安康市,宁陕县,108.314283,33.310527
610924,陕西省安康市紫阳县,紫阳县,陕西省,安康市,紫阳县,108.534229,32.520246
610925,陕西省安康市岚皋县,岚皋县,陕西省,安康市,岚皋县,108.902049,32.307001
610926,陕西省安康市平利县,平利县,陕西省,安康市,平利县,109.361864,32.388854
610927,陕西省安康市镇坪县,镇坪县,陕西省,安康市,镇坪县,109.526873,31.883672
610928,陕西省安康市旬阳县,旬阳县,陕西省,安康市,旬阳县,109.365265,32.834086
610929,陕西省安康市白河县,白河县,陕西省,安康市,白河县,110.112629,32.809026
611000,陕西省商洛市,商洛市,陕西省,商洛市,,109.940477,33.870422
611001,陕西省商洛市市辖区,商洛市市辖区,陕西省,商洛市,,109.940477,33.870422
611002,陕西省商洛市商州区,商州区,陕西省,商洛市,商州区,109.941241,33.862703
611021,陕西省商洛市洛南县,洛南县,陕西省,商洛市,洛南县,110.148509,34.090838
611022,陕西省商洛市丹凤县,丹凤县,陕西省,商洛市,丹凤县,110.331676,33.698185
611023,陕西省商洛市商南县,商南县,陕西省,商洛市,商南县,110.881807,33.530995
611024,陕西省商洛市山阳县,山阳县,陕西省,商洛市,山阳县,109.88229,33.532172
611025,陕西省商洛市镇安县,镇安县,陕西省,商洛市,镇安县,109.152893,33.423357
611026,陕西省商洛市柞水县,柞水县,陕西省,商洛市,柞水县,109.114207,33.68611
620000,甘肃省,甘肃省,甘肃省,,,103.826308,36.059421
620100,甘肃省兰州市,兰州市,甘肃省,兰州市,,103.834303,36.061089
620101,甘肃省兰州市市辖区,兰州市市辖区,甘肃省,兰州市,,103.834303,36.061089
620102,甘肃省兰州市城关区,城关区,甘肃省,兰州市,城关区,103.825255,36.057054
620103,甘肃省兰州市七里河区,七里河区,甘肃省,兰州市,七里河区,103.785866,36.065915
620104,甘肃省兰州市西固区,西固区,甘肃省,兰州市,西固区,103.627964,36.088431
620105,甘肃省兰州市安宁区,安宁区,甘肃省,兰州市,安宁区,103.71909,36.103927
620111,甘肃省兰州市红古区,红古区,甘肃省,兰州市,红古区,102.859323,36.345669
620121,甘肃省兰州市永登县,永登县,甘肃省,兰州市,永登县,103.26038,36.736513
620122,甘肃省兰州市皋兰县,皋兰县,甘肃省,兰州市,皋兰县,103.947377,36.332663
620123,甘肃省兰州市榆中县,榆中县,甘肃省,兰州市,榆中县,104.112527,35.843056
620200,甘肃省嘉峪关市,嘉峪关市,甘肃省,嘉峪关市,,98.289152,39.77313
620201,甘肃省嘉峪关市市辖区,嘉峪关市市辖区,甘肃省,嘉峪关市,,98.289152,39.77313
620300,甘肃省金昌市,金昌市,甘肃省,金昌市,,102.188043,38.520089
620301,甘肃省金昌市市辖区,金昌市市辖区,甘肃省,金昌市,,102.188043,38.520089
620302,甘肃省金昌市金川区,金川区,甘肃省,金昌市,金川区,102.194089,38.521085
620321,甘肃省金昌市永昌县,永昌县,甘肃省,金昌市,永昌县,101.984649,38.24317
620400,甘肃省白银市,白银市,甘肃省,白银市,,104.138559,36.544756
620401,甘肃省白银市市辖区,白银市市辖区,甘肃省,白银市,,104.138559,36.544756
620402,甘肃省白银市白银区,白银区,甘肃省,白银市,白银区,104.148556,36.535398
620403,甘肃省白银市平川区,平川区,甘肃省,白银市,平川区,104.825208,36.728304
620421,甘肃省白银市靖远县,靖远县,甘肃省,白银市,靖远县,104.676774,36.571366
620422,甘肃省白银市会宁县,会宁县,甘肃省,白银市,会宁县,105.053358,35.692823
620423,甘肃省白银市景泰县,景泰县,甘肃省,白银市,景泰县,104.063091,37.183804
620500,甘肃省天水市,天水市,甘肃省,天水市,,105.724947,34.580863
620501,甘肃省天水市市辖区,天水市市辖区,甘肃省,天水市,,105.724947,34.580863
620502,甘肃省天水市秦州区,秦州区,甘肃省,天水市,秦州区,105.724199,34.580892
620503,甘肃省天水市麦积区,麦积区,甘肃省,天水市,麦积区,105.889557,34.570384
620521,甘肃省天水市清水县,清水县,甘肃省,天水市,清水县,106.137293,34.749865
620522,甘肃省天水市秦安县,秦安县,甘肃省,天水市,秦安县,105.674983,34.858916
620523,甘肃省天水市甘谷县,甘谷县,甘肃省,天水市,甘谷县,105.340864,34.745465
620524,甘肃省天水市武山县,武山县,甘肃省,天水市,武山县,104.890782,34.72138
620525,甘肃省天水市张家川回族自治县,张家川回族自治县,甘肃省,天水市,张家川回族自治县,106.204518,34.988037
620600,甘肃省武威市,武威市,甘肃省,武威市,,102.638011,37.928264
620601,甘肃省武威市市辖区,武威市市辖区,甘肃省,武威市,,102.638011,37.928264
620602,甘肃省武威市凉州区,凉州区,甘肃省,武威市,凉州区,102.72989,37.820619
620621,甘肃省武威市民勤县,民勤县,甘肃省,武威市,民勤县,103.093792,38.62435
620622,甘肃省武威市古浪县,古浪县,甘肃省,武威市,古浪县,102.897533,37.47012
620623,甘肃省武威市天祝藏族自治县,天祝藏族自治县,甘肃省,武威市,天祝藏族自治县,103.141757,36.97174
620700,甘肃省张掖市,张掖市,甘肃省,张掖市,,100.449818,38.925875
620701,甘肃省张掖市市辖区,张掖市市辖区,甘肃省,张掖市,,100.449818,38.925875
620702,甘肃省张掖市甘州区,甘州区,甘肃省,张掖市,甘州区,100.478058,38.929763
620721,甘肃省张掖市肃南裕固族自治县,肃南裕固族自治县,甘肃省,张掖市,肃南裕固族自治县,99.615601,38.836932
620722,甘肃省张掖市民乐县,民乐县,甘肃省,张掖市,民乐县,100.81286,38.430794
620723,甘肃省张掖市临泽县,临泽县,甘肃省,张掖市,临泽县,100.164445,39.152642
620724,甘肃省张掖市高台县,高台县,甘肃省,张掖市,高台县,99.819317,39.377733
620725,甘肃省张掖市山丹县,山丹县,甘肃省,张掖市,山丹县,101.088575,38.784758
620800,甘肃省平凉市,平凉市,甘肃省,平凉市,,106.66524,35.543051
620801,甘肃省平凉市市辖区,平凉市市辖区,甘肃省,平凉市,,106.66524,35.543051
620802,甘肃省平凉市崆峒区,崆峒区,甘肃省,平凉市,崆峒区,106.674767,35.542491
620821,甘肃省平凉市泾川县,泾川县,甘肃省,平凉市,泾川县,107.36785,35.332666
620822,甘肃省平凉市灵台县,灵台县,甘肃省,平凉市,灵台县,107.621124,35.065399
620823,甘肃省平凉市崇信县,崇信县,甘肃省,平凉市,崇信县,107.035409,35.302123
620881,甘肃省平凉市华亭县华亭,华亭市,甘肃省,平凉市,华亭县,106.66246,35.219951
620825,甘肃省平凉市庄浪县,庄浪县,甘肃省,平凉市,庄浪县,106.036687,35.202385
620826,甘肃省平凉市静宁县,静宁县,甘肃省,平凉市,静宁县,105.732556,35.521977
620900,甘肃省酒泉市,酒泉市,甘肃省,酒泉市,,98.494483,39.73241
620901,甘肃省酒泉市市辖区,酒泉市市辖区,甘肃省,酒泉市,,98.494483,39.73241
620902,甘肃省酒泉市肃州区,肃州区,甘肃省,酒泉市,肃州区,98.50785,39.745071
620921,甘肃省酒泉市金塔县,金塔县,甘肃省,酒泉市,金塔县,98.90327,39.983599
620922,甘肃省酒泉市瓜州县,瓜州县,甘肃省,酒泉市,瓜州县,95.782306,40.520545
620923,甘肃省酒泉市肃北蒙古族自治县,肃北蒙古族自治县,甘肃省,酒泉市,肃北蒙古族自治县,94.876579,39.51245
620924,甘肃省酒泉市阿克塞哈萨克族自治县,阿克塞哈萨克族自治县,甘肃省,酒泉市,阿克塞哈萨克族自治县,94.340204,39.633943
620981,甘肃省酒泉市玉门市,玉门市,甘肃省,酒泉市,玉门市,97.045679,40.291843
620982,甘肃省酒泉市敦煌市,敦煌市,甘肃省,酒泉市,敦煌市,94.661967,40.142128
621000,甘肃省庆阳市,庆阳市,甘肃省,庆阳市,,107.643631,35.709077
621001,甘肃省庆阳市市辖区,庆阳市市辖区,甘肃省,庆阳市,,107.643631,35.709077
621002,甘肃省庆阳市西峰区,西峰区,甘肃省,庆阳市,西峰区,107.651077,35.730652
621021,甘肃省庆阳市庆城县,庆城县,甘肃省,庆阳市,庆城县,107.881802,36.016299
621022,甘肃省庆阳市环县,环县,甘肃省,庆阳市,环县,107.308501,36.568435
621023,甘肃省庆阳市华池县,华池县,甘肃省,庆阳市,华池县,107.990035,36.461355
621024,甘肃省庆阳市合水县,合水县,甘肃省,庆阳市,合水县,108.01953,35.819243
621025,甘肃省庆阳市正宁县,正宁县,甘肃省,庆阳市,正宁县,108.359976,35.49189
621026,甘肃省庆阳市宁县,宁县,甘肃省,庆阳市,宁县,107.928369,35.502177
621027,甘肃省庆阳市镇原县,镇原县,甘肃省,庆阳市,镇原县,107.200832,35.677462
621100,甘肃省定西市,定西市,甘肃省,定西市,,104.626282,35.580662
621101,甘肃省定西市市辖区,定西市市辖区,甘肃省,定西市,,104.626282,35.580662
621102,甘肃省定西市安定区,安定区,甘肃省,定西市,安定区,104.610668,35.580629
621121,甘肃省定西市通渭县,通渭县,甘肃省,定西市,通渭县,105.242061,35.210831
621122,甘肃省定西市陇西县,陇西县,甘肃省,定西市,陇西县,104.634984,35.00394
621123,甘肃省定西市渭源县,渭源县,甘肃省,定西市,渭源县,104.215467,35.136755
621124,甘肃省定西市临洮县,临洮县,甘肃省,定西市,临洮县,103.859565,35.394989
621125,甘肃省定西市漳县,漳县,甘肃省,定西市,漳县,104.471572,34.848444
621126,甘肃省定西市岷县,岷县,甘肃省,定西市,岷县,104.03688,34.438076
621200,甘肃省陇南市,陇南市,甘肃省,陇南市,,104.921841,33.400684
621201,甘肃省陇南市市辖区,陇南市市辖区,甘肃省,陇南市,,104.921841,33.400684
621202,甘肃省陇南市武都区,武都区,甘肃省,陇南市,武都区,104.926337,33.392211
621221,甘肃省陇南市成县,成县,甘肃省,陇南市,成县,105.742203,33.750477
621222,甘肃省陇南市文县,文县,甘肃省,陇南市,文县,104.683434,32.943815
621223,甘肃省陇南市宕昌县,宕昌县,甘肃省,陇南市,宕昌县,104.393385,34.047261
621224,甘肃省陇南市康县,康县,甘肃省,陇南市,康县,105.609169,33.329136
621225,甘肃省陇南市西和县,西和县,甘肃省,陇南市,西和县,105.298756,34.014215
621226,甘肃省陇南市礼县,礼县,甘肃省,陇南市,礼县,105.17864,34.189345
621227,甘肃省陇南市徽县,徽县,甘肃省,陇南市,徽县,106.08778,33.768826
621228,甘肃省陇南市两当县,两当县,甘肃省,陇南市,两当县,106.304967,33.908917
622900,甘肃省临夏回族自治州,临夏回族自治州,甘肃省,临夏回族自治州,,103.210538,35.601182
622901,甘肃省临夏回族自治州临夏市,临夏市,甘肃省,临夏回族自治州,,103.210538,35.601182
622921,甘肃省临夏回族自治州临夏县,临夏县,甘肃省,临夏回族自治州,临夏县,102.995502,35.491637
622922,甘肃省临夏回族自治州康乐县,康乐县,甘肃省,临夏回族自治州,康乐县,103.708354,35.370505
622923,甘肃省临夏回族自治州永靖县,永靖县,甘肃省,临夏回族自治州,永靖县,103.285854,35.958306
622924,甘肃省临夏回族自治州广河县,广河县,甘肃省,临夏回族自治州,广河县,103.575834,35.488052
622925,甘肃省临夏回族自治州和政县,和政县,甘肃省,临夏回族自治州,和政县,103.350997,35.424603
622926,甘肃省临夏回族自治州东乡族自治县,东乡族自治县,甘肃省,临夏回族自治州,东乡族自治县,103.389346,35.663752
622927,甘肃省临夏回族自治州积石山保安族东乡族撒拉族自治县,积石山保安族东乡族撒拉族自治县,甘肃省,临夏回族自治州,积石山保安族东乡族撒拉族自治县,102.875843,35.717661
623000,甘肃省甘南藏族自治州,甘南藏族自治州,甘肃省,甘南藏族自治州,,102.911027,34.983385
623001,甘肃省甘南藏族自治州合作市,合作市,甘肃省,甘南藏族自治州,合作市,102.910882,35.000399
623021,甘肃省甘南藏族自治州临潭县,临潭县,甘肃省,甘南藏族自治州,临潭县,103.353919,34.692747
623022,甘肃省甘南藏族自治州卓尼县,卓尼县,甘肃省,甘南藏族自治州,卓尼县,103.507109,34.589588
623023,甘肃省甘南藏族自治州舟曲县,舟曲县,甘肃省,甘南藏族自治州,舟曲县,104.371586,33.785259
623024,甘肃省甘南藏族自治州迭部县,迭部县,甘肃省,甘南藏族自治州,迭部县,103.22187,34.055939
623025,甘肃省甘南藏族自治州玛曲县,玛曲县,甘肃省,甘南藏族自治州,玛曲县,102.072698,33.997712
623026,甘肃省甘南藏族自治州碌曲县,碌曲县,甘肃省,甘南藏族自治州,碌曲县,102.487327,34.590944
623027,甘肃省甘南藏族自治州夏河县,夏河县,甘肃省,甘南藏族自治州,夏河县,102.521807,35.202503
630000,青海省,青海省,青海省,,,101.780199,36.620901
630100,青海省西宁市,西宁市,青海省,西宁市,,101.778228,36.617144
630101,青海省西宁市市辖区,西宁市市辖区,青海省,西宁市,,101.778228,36.617144
630102,青海省西宁市城东区,城东区,青海省,西宁市,城东区,101.803717,36.599745
630103,青海省西宁市城中区,城中区,青海省,西宁市,城中区,101.784554,36.621181
630104,青海省西宁市城西区,城西区,青海省,西宁市,城西区,101.765843,36.628305
630105,青海省西宁市城北区,城北区,青海省,西宁市,城北区,101.766228,36.650038
630121,青海省西宁市大通回族土族自治县,大通回族土族自治县,青海省,西宁市,大通回族土族自治县,101.685643,36.926955
630122,青海省西宁市湟中县,湟中县,青海省,西宁市,湟中县,101.571667,36.500879
630123,青海省西宁市湟源县,湟源县,青海省,西宁市,湟源县,101.256464,36.682427
630200,青海省海东市,海东市,青海省,海东市,,102.104287,36.502039
630202,青海省海东市乐都区,乐都区,青海省,海东市,乐都区,102.401725,36.482058
630203,青海省海东市平安区,平安区,青海省,海东市,平安区,102.108835,36.500563
630222,青海省海东市民和回族土族自治县,民和回族土族自治县,青海省,海东市,民和回族土族自治县,102.830892,36.320321
630223,青海省海东市互助土族自治县,互助土族自治县,青海省,海东市,互助土族自治县,101.959271,36.844249
630224,青海省海东市化隆回族自治县,化隆回族自治县,青海省,海东市,化隆回族自治县,102.264143,36.094908
630225,青海省海东市循化撒拉族自治县,循化撒拉族自治县,青海省,海东市,循化撒拉族自治县,102.485646,35.848586
632200,青海省海北藏族自治州,海北藏族自治州,青海省,海北藏族自治州,,100.900997,36.954413
632221,青海省海北藏族自治州门源回族自治县,门源回族自治县,青海省,海北藏族自治州,门源回族自治县,101.622364,37.376449
632222,青海省海北藏族自治州祁连县,祁连县,青海省,海北藏族自治州,祁连县,100.253211,38.177112
632223,青海省海北藏族自治州海晏县,海晏县,青海省,海北藏族自治州,海晏县,100.99443,36.896467
632224,青海省海北藏族自治州刚察县,刚察县,青海省,海北藏族自治州,刚察县,100.145833,37.32547
632300,青海省黄南藏族自治州,黄南藏族自治州,青海省,黄南藏族自治州,,102.015248,35.519548
632321,青海省黄南藏族自治州同仁县,同仁县,青海省,黄南藏族自治州,同仁县,102.018323,35.516063
632322,青海省黄南藏族自治州尖扎县,尖扎县,青海省,黄南藏族自治州,尖扎县,102.031183,35.938299
632323,青海省黄南藏族自治州泽库县,泽库县,青海省,黄南藏族自治州,泽库县,101.466689,35.035313
632324,青海省黄南藏族自治州河南蒙古族自治县,河南蒙古族自治县,青海省,黄南藏族自治州,河南蒙古族自治县,101.616308,34.734773
632500,青海省海南藏族自治州,海南藏族自治州,青海省,海南藏族自治州,,100.620373,36.286437
632521,青海省海南藏族自治州共和县,共和县,青海省,海南藏族自治州,共和县,100.620031,36.284107
632522,青海省海南藏族自治州同德县,同德县,青海省,海南藏族自治州,同德县,100.578052,35.254791
632523,青海省海南藏族自治州贵德县,贵德县,青海省,海南藏族自治州,贵德县,101.435256,36.04068
632524,青海省海南藏族自治州兴海县,兴海县,青海省,海南藏族自治州,兴海县,99.987966,35.588613
632525,青海省海南藏族自治州贵南县,贵南县,青海省,海南藏族自治州,贵南县,100.747503,35.586715
632600,青海省果洛藏族自治州,果洛藏族自治州,青海省,果洛藏族自治州,,100.244808,34.471431
632621,青海省果洛藏族自治州玛沁县,玛沁县,青海省,果洛藏族自治州,玛沁县,100.238888,34.477433
632622,青海省果洛藏族自治州班玛县,班玛县,青海省,果洛藏族自治州,班玛县,100.737138,32.932723
632623,青海省果洛藏族自治州甘德县,甘德县,青海省,果洛藏族自治州,甘德县,99.900905,33.969219
632624,青海省果洛藏族自治州达日县,达日县,青海省,果洛藏族自治州,达日县,99.651392,33.748921
632625,青海省果洛藏族自治州久治县,久治县,青海省,果洛藏族自治州,久治县,101.482831,33.429471
632626,青海省果洛藏族自治州玛多县,玛多县,青海省,果洛藏族自治州,玛多县,98.209206,34.915946
632700,青海省玉树藏族自治州,玉树藏族自治州,青海省,玉树藏族自治州,,97.091934,33.011674
632701,青海省玉树藏族自治州玉树市,玉树市,青海省,玉树藏族自治州,玉树市,97.008785,32.993107
632722,青海省玉树藏族自治州杂多县,杂多县,青海省,玉树藏族自治州,杂多县,95.300723,32.893185
632723,青海省玉树藏族自治州称多县,称多县,青海省,玉树藏族自治州,称多县,97.110832,33.369218
632724,青海省玉树藏族自治州治多县,治多县,青海省,玉树藏族自治州,治多县,95.61308,33.852751
632725,青海省玉树藏族自治州囊谦县,囊谦县,青海省,玉树藏族自治州,囊谦县,96.48065,32.203246
632726,青海省玉树藏族自治州曲麻莱县,曲麻莱县,青海省,玉树藏族自治州,曲麻莱县,95.797367,34.126429
632800,青海省海西蒙古族藏族自治州,海西蒙古族藏族自治州,青海省,海西蒙古族藏族自治州,,97.369751,37.377139
632801,青海省海西蒙古族藏族自治州格尔木市,格尔木市,青海省,海西蒙古族藏族自治州,格尔木市,94.928484,36.406404
632802,青海省海西蒙古族藏族自治州德令哈市,德令哈市,青海省,海西蒙古族藏族自治州,德令哈市,97.360985,37.369436
632803,青海省海西蒙古族藏族自治州茫崖市,茫崖市,青海省,海西蒙古族藏族自治州,茫崖市,106.936096,32.999379
632821,青海省海西蒙古族藏族自治州乌兰县,乌兰县,青海省,海西蒙古族藏族自治州,乌兰县,98.480195,36.929749
632822,青海省海西蒙古族藏族自治州都兰县,都兰县,青海省,海西蒙古族藏族自治州,都兰县,98.095844,36.302496
632823,青海省海西蒙古族藏族自治州天峻县,天峻县,青海省,海西蒙古族藏族自治州,天峻县,99.022984,37.300851
632825,青海省海西蒙古族藏族自治州直辖,海西蒙古族藏族自治州直辖,青海省,海西蒙古族藏族自治州直辖,,90.855821,38.247159
640000,宁夏回族自治区,宁夏回族自治区,宁夏回族自治区,,,106.258754,38.471317
640100,宁夏回族自治区银川市,银川市,宁夏回族自治区,银川市,,106.230909,38.487193
640101,宁夏回族自治区银川市市辖区,银川市市辖区,宁夏回族自治区,银川市,,106.230909,38.487193
640104,宁夏回族自治区银川市兴庆区,兴庆区,宁夏回族自治区,银川市,兴庆区,106.28865,38.47361
640105,宁夏回族自治区银川市西夏区,西夏区,宁夏回族自治区,银川市,西夏区,106.156394,38.49604
640106,宁夏回族自治区银川市金凤区,金凤区,宁夏回族自治区,银川市,金凤区,106.242542,38.473305
640121,宁夏回族自治区银川市永宁县,永宁县,宁夏回族自治区,银川市,永宁县,106.253145,38.277373
640122,宁夏回族自治区银川市贺兰县,贺兰县,宁夏回族自治区,银川市,贺兰县,106.349828,38.554344
640181,宁夏回族自治区银川市灵武市,灵武市,宁夏回族自治区,银川市,灵武市,106.340054,38.102655
640200,宁夏回族自治区石嘴山市,石嘴山市,宁夏回族自治区,石嘴山市,,106.383303,38.983236
640201,宁夏回族自治区石嘴山市市辖区,石嘴山市市辖区,宁夏回族自治区,石嘴山市,,106.383303,38.983236
640202,宁夏回族自治区石嘴山市大武口区,大武口区,宁夏回族自治区,石嘴山市,大武口区,106.367861,39.01906
640205,宁夏回族自治区石嘴山市惠农区,惠农区,宁夏回族自治区,石嘴山市,惠农区,106.781176,39.239302
640221,宁夏回族自治区石嘴山市平罗县,平罗县,宁夏回族自治区,石嘴山市,平罗县,106.523474,38.913544
640300,宁夏回族自治区吴忠市,吴忠市,宁夏回族自治区,吴忠市,,106.198393,37.99746
640301,宁夏回族自治区吴忠市市辖区,吴忠市市辖区,宁夏回族自治区,吴忠市,,106.198393,37.99746
640302,宁夏回族自治区吴忠市利通区,利通区,宁夏回族自治区,吴忠市,利通区,106.212566,37.983458
640303,宁夏回族自治区吴忠市红寺堡区,红寺堡区,宁夏回族自治区,吴忠市,红寺堡区,106.062114,37.425702
640323,宁夏回族自治区吴忠市盐池县,盐池县,宁夏回族自治区,吴忠市,盐池县,107.407359,37.783205
640324,宁夏回族自治区吴忠市同心县,同心县,宁夏回族自治区,吴忠市,同心县,105.914458,36.980575
640381,宁夏回族自治区吴忠市青铜峡市,青铜峡市,宁夏回族自治区,吴忠市,青铜峡市,106.078818,38.021302
640400,宁夏回族自治区固原市,固原市,宁夏回族自治区,固原市,,106.24261,36.015855
640401,宁夏回族自治区固原市市辖区,固原市市辖区,宁夏回族自治区,固原市,,106.24261,36.015855
640402,宁夏回族自治区固原市原州区,原州区,宁夏回族自治区,固原市,原州区,106.287782,36.00374
640422,宁夏回族自治区固原市西吉县,西吉县,宁夏回族自治区,固原市,西吉县,105.729085,35.963913
640423,宁夏回族自治区固原市隆德县,隆德县,宁夏回族自治区,固原市,隆德县,106.111595,35.625915
640424,宁夏回族自治区固原市泾源县,泾源县,宁夏回族自治区,固原市,泾源县,106.330646,35.49816
640425,宁夏回族自治区固原市彭阳县,彭阳县,宁夏回族自治区,固原市,彭阳县,106.63834,35.849565
640500,宁夏回族自治区中卫市,中卫市,宁夏回族自治区,中卫市,,105.196902,37.499972
640501,宁夏回族自治区中卫市市辖区,中卫市市辖区,宁夏回族自治区,中卫市,,105.196902,37.499972
640502,宁夏回族自治区中卫市沙坡头区,沙坡头区,宁夏回族自治区,中卫市,沙坡头区,105.190536,37.514564
640521,宁夏回族自治区中卫市中宁县,中宁县,宁夏回族自治区,中卫市,中宁县,105.685285,37.491505
640522,宁夏回族自治区中卫市海原县,海原县,宁夏回族自治区,中卫市,海原县,105.643487,36.565033
650000,新疆维吾尔自治区,新疆维吾尔自治区,新疆维吾尔自治区,,,87.627704,43.793026
650100,新疆维吾尔自治区乌鲁木齐市,乌鲁木齐市,新疆维吾尔自治区,乌鲁木齐市,,87.616848,43.825592
650101,新疆维吾尔自治区乌鲁木齐市市辖区,乌鲁木齐市市辖区,新疆维吾尔自治区,乌鲁木齐市,,87.616848,43.825592
650102,新疆维吾尔自治区乌鲁木齐市天山区,天山区,新疆维吾尔自治区,乌鲁木齐市,天山区,87.631676,43.794399
650103,新疆维吾尔自治区乌鲁木齐市沙依巴克区,沙依巴克区,新疆维吾尔自治区,乌鲁木齐市,沙依巴克区,87.598195,43.800939
650104,新疆维吾尔自治区乌鲁木齐市新市区,新市区,新疆维吾尔自治区,乌鲁木齐市,新市区,87.573916,43.843752
650105,新疆维吾尔自治区乌鲁木齐市水磨沟区,水磨沟区,新疆维吾尔自治区,乌鲁木齐市,水磨沟区,87.642482,43.832459
650106,新疆维吾尔自治区乌鲁木齐市头屯河区,头屯河区,新疆维吾尔自治区,乌鲁木齐市,头屯河区,87.425823,43.876053
650107,新疆维吾尔自治区乌鲁木齐市达坂城区,达坂城区,新疆维吾尔自治区,乌鲁木齐市,达坂城区,88.311099,43.363668
650109,新疆维吾尔自治区乌鲁木齐市米东区,米东区,新疆维吾尔自治区,乌鲁木齐市,米东区,87.655755,43.973579
650121,新疆维吾尔自治区乌鲁木齐市乌鲁木齐县,乌鲁木齐县,新疆维吾尔自治区,乌鲁木齐市,乌鲁木齐县,87.409417,43.47136
650200,新疆维吾尔自治区克拉玛依市,克拉玛依市,新疆维吾尔自治区,克拉玛依市,,84.889207,45.579888
650201,新疆维吾尔自治区克拉玛依市市辖区,克拉玛依市市辖区,新疆维吾尔自治区,克拉玛依市,,84.889207,45.579888
650202,新疆维吾尔自治区克拉玛依市独山子区,独山子区,新疆维吾尔自治区,克拉玛依市,独山子区,84.886974,44.328096
650203,新疆维吾尔自治区克拉玛依市克拉玛依区,克拉玛依区,新疆维吾尔自治区,克拉玛依市,克拉玛依区,84.867844,45.602526
650204,新疆维吾尔自治区克拉玛依市白碱滩区,白碱滩区,新疆维吾尔自治区,克拉玛依市,白碱滩区,85.119186,45.685473
650205,新疆维吾尔自治区克拉玛依市乌尔禾区,乌尔禾区,新疆维吾尔自治区,克拉玛依市,乌尔禾区,85.693742,46.089148
650400,吐鲁番市,吐鲁番市,新疆维吾尔自治区,吐鲁番市,,89.189651,42.951382
650402,新疆维吾尔自治区吐鲁番市高昌区,高昌区,新疆维吾尔自治区,吐鲁番市,高昌区,89.182342,42.947635
650421,新疆维吾尔自治区吐鲁番市鄯善县,鄯善县,新疆维吾尔自治区,吐鲁番市,鄯善县,90.21333,42.868744
650422,新疆维吾尔自治区吐鲁番市托克逊县,托克逊县,新疆维吾尔自治区,吐鲁番市,托克逊县,88.638816,42.792454
650500,新疆维吾尔自治区哈密市,哈密市,新疆维吾尔自治区,哈密市,,93.514916,42.818501
650502,新疆维吾尔自治区哈密市伊州区,伊州区,新疆维吾尔自治区,哈密市,伊州区,93.514797,42.827255
650521,新疆维吾尔自治区哈密市巴里坤哈萨克自治县,巴里坤哈萨克自治县,新疆维吾尔自治区,哈密市,巴里坤哈萨克自治县,93.016624,43.598762
650522,新疆维吾尔自治区哈密市伊吾县,伊吾县,新疆维吾尔自治区,哈密市,伊吾县,94.697074,43.254978
652300,新疆维吾尔自治区昌吉回族自治州,昌吉回族自治州,新疆维吾尔自治区,昌吉回族自治州,,87.308224,44.011182
652301,新疆维吾尔自治区昌吉回族自治州昌吉市,昌吉市,新疆维吾尔自治区,昌吉回族自治州,昌吉市,87.304112,44.013183
652302,新疆维吾尔自治区昌吉回族自治州阜康市,阜康市,新疆维吾尔自治区,昌吉回族自治州,阜康市,87.946894,44.168576
652323,新疆维吾尔自治区昌吉回族自治州呼图壁县,呼图壁县,新疆维吾尔自治区,昌吉回族自治州,呼图壁县,86.898902,44.191428
652324,新疆维吾尔自治区昌吉回族自治州玛纳斯县,玛纳斯县,新疆维吾尔自治区,昌吉回族自治州,玛纳斯县,86.213997,44.303893
652325,新疆维吾尔自治区昌吉回族自治州奇台县,奇台县,新疆维吾尔自治区,昌吉回族自治州,奇台县,89.593967,44.022066
652327,新疆维吾尔自治区昌吉回族自治州吉木萨尔县,吉木萨尔县,新疆维吾尔自治区,昌吉回族自治州,吉木萨尔县,89.180437,44.000497
652328,新疆维吾尔自治区昌吉回族自治州木垒哈萨克自治县,木垒哈萨克自治县,新疆维吾尔自治区,昌吉回族自治州,木垒哈萨克自治县,90.286028,43.834689
652700,新疆维吾尔自治区博尔塔拉蒙古自治州,博尔塔拉蒙古自治州,新疆维吾尔自治区,博尔塔拉蒙古自治州,,82.066159,44.905588
652701,新疆维吾尔自治区博尔塔拉蒙古自治州博乐市,博乐市,新疆维吾尔自治区,博尔塔拉蒙古自治州,博乐市,82.051005,44.85387
652702,新疆维吾尔自治区博尔塔拉蒙古自治州阿拉山口市,阿拉山口市,新疆维吾尔自治区,博尔塔拉蒙古自治州,阿拉山口市,82.559396,45.172228
652722,新疆维吾尔自治区博尔塔拉蒙古自治州精河县,精河县,新疆维吾尔自治区,博尔塔拉蒙古自治州,精河县,82.894195,44.600408
652723,新疆维吾尔自治区博尔塔拉蒙古自治州温泉县,温泉县,新疆维吾尔自治区,博尔塔拉蒙古自治州,温泉县,81.024816,44.968857
652800,新疆维吾尔自治区巴音郭楞蒙古自治州,巴音郭楞蒙古自治州,新疆维吾尔自治区,巴音郭楞蒙古自治州,,86.145298,41.764115
652801,新疆维吾尔自治区巴音郭楞蒙古自治州库尔勒市,库尔勒市,新疆维吾尔自治区,巴音郭楞蒙古自治州,库尔勒市,86.174633,41.725892
652822,新疆维吾尔自治区巴音郭楞蒙古自治州轮台县,轮台县,新疆维吾尔自治区,巴音郭楞蒙古自治州,轮台县,84.252156,41.777702
652823,新疆维吾尔自治区巴音郭楞蒙古自治州尉犁县,尉犁县,新疆维吾尔自治区,巴音郭楞蒙古自治州,尉犁县,86.261321,41.343933
652824,新疆维吾尔自治区巴音郭楞蒙古自治州若羌县,若羌县,新疆维吾尔自治区,巴音郭楞蒙古自治州,若羌县,88.167152,39.023242
652825,新疆维吾尔自治区巴音郭楞蒙古自治州且末县,且末县,新疆维吾尔自治区,巴音郭楞蒙古自治州,且末县,85.529702,38.145486
652826,新疆维吾尔自治区巴音郭楞蒙古自治州焉耆回族自治县,焉耆回族自治县,新疆维吾尔自治区,巴音郭楞蒙古自治州,焉耆回族自治县,86.574067,42.059759
652827,新疆维吾尔自治区巴音郭楞蒙古自治州和静县,和静县,新疆维吾尔自治区,巴音郭楞蒙古自治州,和静县,86.384065,42.323625
652828,新疆维吾尔自治区巴音郭楞蒙古自治州和硕县,和硕县,新疆维吾尔自治区,巴音郭楞蒙古自治州,和硕县,86.863963,42.268371
652829,新疆维吾尔自治区巴音郭楞蒙古自治州博湖县,博湖县,新疆维吾尔自治区,巴音郭楞蒙古自治州,博湖县,86.631998,41.980152
652900,新疆维吾尔自治区阿克苏地区,阿克苏地区,新疆维吾尔自治区,阿克苏地区,,80.260605,41.168779
652901,新疆维吾尔自治区阿克苏地区,阿克苏市,新疆维吾尔自治区,阿克苏地区,,80.260605,41.168779
652922,新疆维吾尔自治区阿克苏地区温宿县,温宿县,新疆维吾尔自治区,阿克苏地区,温宿县,80.238959,41.276688
652923,新疆维吾尔自治区阿克苏地区库车县,库车县,新疆维吾尔自治区,阿克苏地区,库车县,82.962016,41.717906
652924,新疆维吾尔自治区阿克苏地区沙雅县,沙雅县,新疆维吾尔自治区,阿克苏地区,沙雅县,82.781819,41.221667
652925,新疆维吾尔自治区阿克苏地区新和县,新和县,新疆维吾尔自治区,阿克苏地区,新和县,82.60922,41.548118
652926,新疆维吾尔自治区阿克苏地区拜城县,拜城县,新疆维吾尔自治区,阿克苏地区,拜城县,81.874156,41.79691
652927,新疆维吾尔自治区阿克苏地区乌什县,乌什县,新疆维吾尔自治区,阿克苏地区,乌什县,79.224445,41.214652
652928,新疆维吾尔自治区阿克苏地区阿瓦提县,阿瓦提县,新疆维吾尔自治区,阿克苏地区,阿瓦提县,80.373137,40.644529
652929,新疆维吾尔自治区阿克苏地区柯坪县,柯坪县,新疆维吾尔自治区,阿克苏地区,柯坪县,79.047291,40.50834
653000,新疆维吾尔自治区克孜勒苏柯尔克孜自治州,克孜勒苏柯尔克孜自治州,新疆维吾尔自治区,克孜勒苏柯尔克孜自治州,,76.167819,39.714526
653001,新疆维吾尔自治区克孜勒苏柯尔克孜自治州阿图什市,阿图什市,新疆维吾尔自治区,克孜勒苏柯尔克孜自治州,阿图什市,76.1684,39.71616
653022,新疆维吾尔自治区克孜勒苏柯尔克孜自治州阿克陶县,阿克陶县,新疆维吾尔自治区,克孜勒苏柯尔克孜自治州,阿克陶县,75.947396,39.147785
653023,新疆维吾尔自治区克孜勒苏柯尔克孜自治州阿合奇县,阿合奇县,新疆维吾尔自治区,克孜勒苏柯尔克孜自治州,阿合奇县,78.446253,40.936936
653024,新疆维吾尔自治区克孜勒苏柯尔克孜自治州乌恰县,乌恰县,新疆维吾尔自治区,克孜勒苏柯尔克孜自治州,乌恰县,75.259228,39.71931
653100,新疆维吾尔自治区喀什地区,喀什地区,新疆维吾尔自治区,喀什地区,,75.989755,39.4704
653101,新疆维吾尔自治区喀什地区,喀什市,新疆维吾尔自治区,喀什地区,,75.989755,39.4704
653121,新疆维吾尔自治区喀什地区疏附县,疏附县,新疆维吾尔自治区,喀什地区,疏附县,75.862814,39.375044
653122,新疆维吾尔自治区喀什地区疏勒县,疏勒县,新疆维吾尔自治区,喀什地区,疏勒县,76.048139,39.401385
653123,新疆维吾尔自治区喀什地区英吉沙县,英吉沙县,新疆维吾尔自治区,喀什地区,英吉沙县,76.175729,38.930382
653124,新疆维吾尔自治区喀什地区泽普县,泽普县,新疆维吾尔自治区,喀什地区,泽普县,77.260103,38.184955
653125,新疆维吾尔自治区喀什地区莎车县,莎车县,新疆维吾尔自治区,喀什地区,莎车县,77.245761,38.414217
653126,新疆维吾尔自治区喀什地区叶城县,叶城县,新疆维吾尔自治区,喀什地区,叶城县,77.413836,37.882989
653127,新疆维吾尔自治区喀什地区麦盖提县,麦盖提县,新疆维吾尔自治区,喀什地区,麦盖提县,77.648006,38.902232
653128,新疆维吾尔自治区喀什地区岳普湖县,岳普湖县,新疆维吾尔自治区,喀什地区,岳普湖县,76.773163,39.2242
653129,新疆维吾尔自治区喀什地区伽师县,伽师县,新疆维吾尔自治区,喀什地区,伽师县,76.72372,39.488182
653130,新疆维吾尔自治区喀什地区巴楚县,巴楚县,新疆维吾尔自治区,喀什地区,巴楚县,78.549297,39.785155
653131,新疆维吾尔自治区喀什地区塔什库尔干塔吉克自治县,塔什库尔干塔吉克自治县,新疆维吾尔自治区,喀什地区,塔什库尔干塔吉克自治县,75.229889,37.772094
653200,新疆维吾尔自治区和田地区,和田地区,新疆维吾尔自治区,和田地区,,79.922211,37.114157
653201,新疆维吾尔自治区和田地区和田市,和田市,新疆维吾尔自治区,和田地区,和田市,79.913534,37.112149
653221,新疆维吾尔自治区和田地区和田县,和田县,新疆维吾尔自治区,和田地区,和田县,79.81907,37.120031
653222,新疆维吾尔自治区和田地区墨玉县,墨玉县,新疆维吾尔自治区,和田地区,墨玉县,79.728841,37.27734
653223,新疆维吾尔自治区和田地区皮山县,皮山县,新疆维吾尔自治区,和田地区,皮山县,78.283669,37.62145
653224,新疆维吾尔自治区和田地区洛浦县,洛浦县,新疆维吾尔自治区,和田地区,洛浦县,80.188986,37.073667
653225,新疆维吾尔自治区和田地区策勒县,策勒县,新疆维吾尔自治区,和田地区,策勒县,80.806159,36.998335
653226,新疆维吾尔自治区和田地区于田县,于田县,新疆维吾尔自治区,和田地区,于田县,81.677418,36.857081
653227,新疆维吾尔自治区和田地区民丰县,民丰县,新疆维吾尔自治区,和田地区,民丰县,82.695862,37.06408
654000,新疆维吾尔自治区伊犁哈萨克自治州,伊犁哈萨克自治州,新疆维吾尔自治区,伊犁哈萨克自治州,,81.324136,43.916823
654002,新疆维吾尔自治区伊犁哈萨克自治州伊宁市,伊宁市,新疆维吾尔自治区,伊犁哈萨克自治州,伊宁市,81.27795,43.908558
654003,新疆维吾尔自治区伊犁哈萨克自治州奎屯市,奎屯市,新疆维吾尔自治区,伊犁哈萨克自治州,奎屯市,84.903267,44.426529
654004,新疆维吾尔自治区伊犁哈萨克自治州霍尔果斯市,霍尔果斯市,新疆维吾尔自治区,伊犁哈萨克自治州,霍尔果斯市,80.420759,44.201669
654021,新疆维吾尔自治区伊犁哈萨克自治州伊宁县,伊宁县,新疆维吾尔自治区,伊犁哈萨克自治州,伊宁县,81.527453,43.977138
654022,新疆维吾尔自治区伊犁哈萨克自治州察布查尔锡伯自治县,察布查尔锡伯自治县,新疆维吾尔自治区,伊犁哈萨克自治州,察布查尔锡伯自治县,81.151337,43.840726
654023,新疆维吾尔自治区伊犁哈萨克自治州霍城县,霍城县,新疆维吾尔自治区,伊犁哈萨克自治州,霍城县,80.874181,44.053592
654024,新疆维吾尔自治区伊犁哈萨克自治州巩留县,巩留县,新疆维吾尔自治区,伊犁哈萨克自治州,巩留县,82.231718,43.482628
654025,新疆维吾尔自治区伊犁哈萨克自治州新源县,新源县,新疆维吾尔自治区,伊犁哈萨克自治州,新源县,83.26077,43.42993
654026,新疆维吾尔自治区伊犁哈萨克自治州昭苏县,昭苏县,新疆维吾尔自治区,伊犁哈萨克自治州,昭苏县,81.130975,43.157293
654027,新疆维吾尔自治区伊犁哈萨克自治州特克斯县,特克斯县,新疆维吾尔自治区,伊犁哈萨克自治州,特克斯县,81.836206,43.217184
654028,新疆维吾尔自治区伊犁哈萨克自治州尼勒克县,尼勒克县,新疆维吾尔自治区,伊犁哈萨克自治州,尼勒克县,82.51181,43.800247
654200,新疆维吾尔自治区塔城地区,塔城地区,新疆维吾尔自治区,塔城地区,,82.980316,46.745364
654201,新疆维吾尔自治区塔城地区塔城市,塔城市,新疆维吾尔自治区,塔城地区,塔城市,82.978928,46.748523
654202,新疆维吾尔自治区塔城地区乌苏市,乌苏市,新疆维吾尔自治区,塔城地区,乌苏市,84.713736,44.418887
654221,新疆维吾尔自治区塔城地区额敏县,额敏县,新疆维吾尔自治区,塔城地区,额敏县,83.628303,46.524673
654223,新疆维吾尔自治区塔城地区沙湾县,沙湾县,新疆维吾尔自治区,塔城地区,沙湾县,85.619416,44.326388
654224,新疆维吾尔自治区塔城地区托里县,托里县,新疆维吾尔自治区,塔城地区,托里县,83.606951,45.947638
654225,新疆维吾尔自治区塔城地区裕民县,裕民县,新疆维吾尔自治区,塔城地区,裕民县,82.982668,46.201104
654226,新疆维吾尔自治区塔城地区和布克赛尔蒙古自治县,和布克赛尔蒙古自治县,新疆维吾尔自治区,塔城地区,和布克赛尔蒙古自治县,85.728328,46.793235
654300,新疆维吾尔自治区阿勒泰地区,阿勒泰地区,新疆维吾尔自治区,阿勒泰地区,,88.141253,47.844924
654301,新疆维吾尔自治区阿勒泰地区阿勒泰市,阿勒泰市,新疆维吾尔自治区,阿勒泰地区,阿勒泰市,88.131842,47.827309
654321,新疆维吾尔自治区阿勒泰地区布尔津县,布尔津县,新疆维吾尔自治区,阿勒泰地区,布尔津县,86.874897,47.70185
654322,新疆维吾尔自治区阿勒泰地区富蕴县,富蕴县,新疆维吾尔自治区,阿勒泰地区,富蕴县,89.530734,46.995158
654323,新疆维吾尔自治区阿勒泰地区福海县,福海县,新疆维吾尔自治区,阿勒泰地区,福海县,87.486703,47.111919
654324,新疆维吾尔自治区阿勒泰地区哈巴河县,哈巴河县,新疆维吾尔自治区,阿勒泰地区,哈巴河县,86.418621,48.060846
654325,新疆维吾尔自治区阿勒泰地区青河县,青河县,新疆维吾尔自治区,阿勒泰地区,青河县,90.382961,46.674205
654326,新疆维吾尔自治区阿勒泰地区吉木乃县,吉木乃县,新疆维吾尔自治区,阿勒泰地区,吉木乃县,85.874096,47.443101
659001,新疆维吾尔自治区石河子市,石河子市,新疆维吾尔自治区,,石河子市,86.08046,44.305428
659002,新疆维吾尔自治区阿拉尔市,阿拉尔市,新疆维吾尔自治区,,阿拉尔市,81.280527,40.547653
659003,新疆维吾尔自治区图木舒克市,图木舒克市,新疆维吾尔自治区,,图木舒克市,79.074089,39.868968
659004,新疆维吾尔自治区五家渠市,五家渠市,新疆维吾尔自治区,,五家渠市,87.54324,44.166756
659005,新疆维吾尔自治区北屯市,北屯市,新疆维吾尔自治区,,北屯市,87.832595,47.326883
659006,新疆维吾尔自治区铁门关市,铁门关市,新疆维吾尔自治区,,铁门关市,85.669533,41.8633
659007,新疆维吾尔自治区双河市,双河市,新疆维吾尔自治区,,双河市,82.353656,44.840524
659008,新疆维吾尔自治区可克达拉市,可克达拉市,新疆维吾尔自治区,,可克达拉市,81.044542,43.944798
659009,新疆维吾尔自治区昆玉市,昆玉市,新疆维吾尔自治区,,昆玉市,79.291083,37.209642
710000,台湾省,台湾省,台湾省,台湾省,台湾省,121.508903,25.044319
710001,台湾省 ,台北市 ,台湾省 ,台湾省 ,台北市 ,121.5089,25.0443
710002,台湾省 ,新北市 ,台湾省 ,台湾省 ,新北市 ,121.3661,25.0064
710003,台湾省 ,桃园市 ,台湾省 ,台湾省 ,桃园市 ,121.1615,24.9317
710004,台湾省 ,台中市 ,台湾省 ,台湾省 ,台中市 ,120.6739,24.1497
710005,台湾省 ,台南市 ,台湾省 ,台湾省 ,台南市 ,120.1974,22.9841
710006,台湾省 ,高雄市 ,台湾省 ,台湾省 ,高雄市 ,120.2867,22.6347
710007,台湾省 ,基隆市 ,台湾省 ,台湾省 ,基隆市 ,121.7377,25.1295
710008,台湾省 ,新竹市 ,台湾省 ,台湾省 ,新竹市 ,120.9409,24.7385
710009,台湾省 ,嘉义市 ,台湾省 ,台湾省 ,嘉义市 ,120.4551,23.4762
710010,台湾省 ,新竹县 ,台湾省 ,台湾省 ,新竹县 ,121.1599,24.5987
710011,台湾省 ,苗栗县 ,台湾省 ,台湾省 ,苗栗县 ,120.7503,24.4988
710012,台湾省 ,彰化县 ,台湾省 ,台湾省 ,彰化县 ,120.4163,23.9986
710013,台湾省 ,南投县 ,台湾省 ,台湾省 ,南投县 ,120.8293,23.8285
710014,台湾省 ,云林县 ,台湾省 ,台湾省 ,云林县 ,120.2494,23.7487
710015,台湾省 ,嘉义县 ,台湾省 ,台湾省 ,嘉义县 ,120.2999,23.4983
710016,台湾省 ,台东县 ,台湾省 ,台湾省 ,台东县 ,120.9155,22.9974
710017,台湾省 ,花莲县 ,台湾省 ,台湾省 ,花莲县 ,121.301,23.8297
710018,台湾省 ,澎湖县 ,台湾省 ,台湾省 ,澎湖县 ,119.5657,23.5691
710019,台湾省 ,宜兰县 ,台湾省 ,台湾省 ,宜兰县 ,121.5007,24.5975
710020,台湾省 ,屏东县 ,台湾省 ,台湾省 ,屏东县 ,120.488,22.6826
810000,香港特别行政区,香港特别行政区,香港特别行政区,,,114.163825,22.276284
810001,香港特别行政区中西区,中西区,香港特别行政区,香港特别行政区,中西区,114.15476,22.286567
810002,香港特别行政区湾仔区,湾仔区,香港特别行政区,香港特别行政区,湾仔区,114.163825,22.276284
810003,香港特别行政区东区,东区,香港特别行政区,香港特别行政区,东区,114.163825,22.276284
810004,香港特别行政区南区,南区,香港特别行政区,香港特别行政区,南区,114.163825,22.276284
810005,香港特别行政区油尖旺区,油尖旺区,香港特别行政区,香港特别行政区,油尖旺区,114.173331,22.311704
810006,香港特别行政区深水埗区,深水埗区,香港特别行政区,香港特别行政区,深水埗区,114.163242,22.333855
810007,香港特别行政区九龙城区,九龙城区,香港特别行政区,香港特别行政区,九龙城区,114.163825,22.276284
810008,香港特别行政区黄大仙区,黄大仙区,香港特别行政区,香港特别行政区,黄大仙区,114.163825,22.276284
810009,香港特别行政区观塘区,观塘区,香港特别行政区,香港特别行政区,观塘区,114.230604,22.308631
810010,香港特别行政区荃湾区,荃湾区,香港特别行政区,香港特别行政区,荃湾区,114.163825,22.276284
810011,香港特别行政区屯门区,屯门区,香港特别行政区,香港特别行政区,屯门区,114.163825,22.276284
810012,香港特别行政区元朗区,元朗区,香港特别行政区,香港特别行政区,元朗区,114.163825,22.276284
810013,香港特别行政区北区,北区,香港特别行政区,香港特别行政区,北区,114.163825,22.276284
810014,香港特别行政区大埔区,大埔区,香港特别行政区,香港特别行政区,大埔区,114.163825,22.276284
810015,香港特别行政区西贡区,西贡区,香港特别行政区,香港特别行政区,西贡区,114.163825,22.276284
810016,香港特别行政区沙田区,沙田区,香港特别行政区,香港特别行政区,沙田区,114.163825,22.276284
810017,香港特别行政区葵青区,葵青区,香港特别行政区,香港特别行政区,葵青区,114.163825,22.276284
810018,香港特别行政区离岛区,离岛区,香港特别行政区,香港特别行政区,离岛区,114.163825,22.276284
820000,澳门特别行政区,澳门特别行政区,香港特别行政区,澳门特别行政区,,113.543028,22.186835
820001,澳门特别行政区花地玛堂区,花地玛堂区,澳门特别行政区,澳门特别行政区,花地玛堂区,113.548423,22.204722
820002,澳门特别行政区花王堂区,花王堂区,澳门特别行政区,澳门特别行政区,花王堂区,113.543028,22.186835
820003,澳门特别行政区望德堂区,望德堂区,澳门特别行政区,澳门特别行政区,望德堂区,113.550183,22.193721
820004,澳门特别行政区大堂区,大堂区,澳门特别行政区,澳门特别行政区,大堂区,113.543028,22.186835
820005,澳门特别行政区风顺堂区,风顺堂区,澳门特别行政区,澳门特别行政区,风顺堂区,113.540729,22.184853
820006,澳门特别行政区嘉模堂区,嘉模堂区,澳门特别行政区,澳门特别行政区,嘉模堂区,113.558705,22.15376
820007,澳门特别行政区路凼填海区,路凼填海区,澳门特别行政区,澳门特别行政区,路凼填海区,113.569599,22.13663
820008,澳门特别行政区圣方济各堂区,圣方济各堂区,澳门特别行政区,澳门特别行政区,圣方济各堂区,113.568978,22.123141
